ern,entref,name,tradingstyle,address1,address2,address3,address4,address5,postcode,legalstatus,sic07,paye_empees,paye_jobs,ent_turnover,std_turnover,grp_turnover,cntd_turnover,app_turnover,prn
1100000001,9906000015,&EAGBBROWN,,1 HAWRIDGE HILL COTTAGES,THE VALE,HAWRIDGE,CHESHAM BUCKINGHAMSHIRE,,HP5 3NU ,1,45112,1,1,73,73,0,0,0,0.109636832
1100000002,9906000045,BUEADLIING SOLUTIONS LTD,,1 HAZELWOOD LANE,ABBOTS LANGLEY,,,,WD5 0HA ,3,45190,1,0,100,100,0,0,0,0.63848639
1100000003,9906000075,JO2WMILITED,,1 BARRASCROFTS,CANONBIE,,,,DG14 0RZ,1,45200,1,0,56,56,0,0,0,0.095639204
1100000004,9906000145,AUBASOT(CHRISTCHURCH) LIMITED,,1 GARTH EDGE,SHAWFORTH,WHITWORTH,ROCHDALE LANCASHIRE,,OL12 8EH,2,45320,0,0,7,7,0,0,0,0.509298879
1100000005,9906000175,HIBAER,,1 GEORGE SQUARE,GLASGOW,,,,G2 5LL,1,45400,1,1,106,106,0,0,0,0.147768898
1100000006,9906000205,HIBAER,,1 GLEN ROAD,HINDHEAD,SURREY,,,GU26 6QE,1,46110,1,1,297,297,0,0,0,0.588701588
1100000007,9906000275,IBANOCTRACTS UK LTD,,1 GLYNDE PLACE,HORSHAM,WEST SUSSEX,,,RH12 1NZ,1,46120,2,2,287,287,0,0,0,0.155647458
1100000008,9906000325,TLUBARE,,1 GORSE ROAD,REYDON,SOUTHWOLD,,,IP18 6NQ,1,46130,3,3,197,197,0,0,0,0.446872271
1100000009,9906000355,BUCARR,,1 GRANVILLE AVENUE,LONG EATON,NOTTINGHAM,,,NG10 4HA,1,46140,1,1,18,18,0,0,0,0.847311602
1100000010,9906000405,DCAJ&WALTON,,1 GRANVILLE AVENUE,LONG EATON,NOTTINGHAM,,,NG10 4HA,1,46150,2,2,72,72,0,0,0,0.548604086
1100000011,9906000415,&BAMCFLINT,,1 GARENDON WAY,GROBY,LEICESTER,,,LE6 0YR ,1,46160,1,0,400,400,0,0,0,0.269071541
1100000012,9906000425,MACAITRN,,1 GRAVES FARM,ALGARKIRK,BOSTON,LINCOLNSHIRE,LINCS,PE20 2BQ,2,46170,1,0,5,5,0,0,0,0.395809076
1100000013,9906000485,PLCABMUING/HEATING & MAINTENANCE,,1 GREEN COTTAGES,WATFORD ROAD,HARROW,MIDDLESEX,,HA1 3TS ,2,46180,0,0,1,0,0,0,1,0.763386478
1100000014,9906000505,PLCABMUING/HEATING AND,,1 GREENEND CLOSE,SPENCERS WOOD,READING,,,RG7 1EH ,1,46190,1,1,153,0,154,0,153,0.559494733
1100000015,9906000555,APHCALEPL,,1 GRESHAM STREET,LONDON,,,,EC2V 7BX,3,46210,0,0,37,37,0,0,0,0.921531941
1100000016,9906000675,IDARESVICES LTD,,1 GREY TERRACE,RYHOPE,SUNDERLAND,,,SR2 0QT ,1,46220,2,2,232,232,0,0,0,0.592446945
1100000017,9906000715,SDATIKCHENS LTD,,1 GREY TERRACE,SUNDERLAND,,,,SR2 0QT ,1,46230,1,1,489,489,0,0,0,0.014127394
1100000018,9906000725,SADANOLLIMITED,,1 GROVE LODGE COTTAGES,BINSTED,ARUNDEL,WEST SUSSEX,,BN18 0LQ,1,46342,3,3,906,906,0,0,0,0.131363333
1100000019,9906000815,NNEDASI,,1 HATHERMEAD GARDEN,YEOVIL,SOMERSET,,,BA21 5BY,1,46240,1,0,34,34,0,0,0,0.459509254
1100000020,9906001325,RAG2BIHPC DESIGN LTD,,1 BALLYCREGAGH ROAD,CLOUGHMILLS,BALLYMENA,,,BT44 9LB,1,46410,0,0,0,0,0,0,0,0.65377881
1100000021,9906001425,CIMALIVENGINEERING LTD,,1 LAWSON GARDENS,PINNER,MIDDLESEX,,,HA5 2BR ,2,46440,4,1,73,73,0,0,0,0.121936763
1100000022,9906001475,KEJANELTD,,1 KENT ROAD WEST,MANCHESTER,,,,M14 5RF ,2,46510,2,2,87,87,0,0,0,0.621867742
1100000023,9906001495,CHMAWDAICK,,1 LAWN COTTAGES,NEWCASTLE,CRAVEN ARMS,SHROPSHIRE,,SY7 8PL ,3,46520,1,1,252,252,0,0,0,0.406118691
1100000024,9906001525,(SMASSUEX) LTD,HTUSOAOCST LAW,1 LANSDOWNE VILLAS,GOODLEIGH ROAD,BARNSTAPLE,DEVON,,EX32 7JR,2,46620,1,1,84,84,0,0,0,0.494866653
1100000025,9906001545,HEMAFYRICS,YFEHAMCIRS,1 LITTLE JENKYN,HOLE LANE,BENTLEY,HAMPSHIRE,,GU10 5LU,2,46660,0,2,47,47,0,0,0,0.494800009
1100000026,9906001595,DNAAWMHOLESALE LTD,,1 FREEWATERS CLOSE,ICKLEFORD,HITCHIN,,,SG5 3TQ ,2,46711,0,0,80,80,0,0,0,0.370100977
1100000027,9906001605,AUBASOT( CHRISTCHURCH ) LIMITED,,1 GARLING WALK,WEST BERGHOLT,COLCHESTER,,,CO6 3LG ,2,46720,1,0,95,95,0,0,0,0.077821584
1100000028,9906001615,SMANOCSULTANCY LTD,,1 LOWER BAR,NEWPORT,,,,TF10 7BE,2,46770,2,2,66,66,0,0,0,0.019539575
1100000029,9906001705,DNAAPMLUMBING AND HEATING LTD,,1 FINWAY ROAD,HEMEL HEMPSTEAD INDUSTRIAL EST,HEMEL HEMPSTEAD,,,HP2 7PT ,1,46900,1,0,99,99,0,0,0,0.35034768
1100000030,9906001715,CRMATBAREE LTD,,1 LENAMORE DRIVE,NEWTOWNABBEY,,,,BT37 0PQ,1,47110,2,2,44,44,0,0,0,0.58822925
1100000031,9906001735,&KAJMHUGHES,,1 KINROSS ROAD,LESLIE,FIFE,,,KY6 3NE ,1,47190,4,4,179,179,0,0,0,0.769345363
1100000032,9906001785,JO2WDTL,,1 BEARDS TERRACE,COGGESHALL,COLCHESTER,,,CO6 1TB ,1,47220,1,0,255,255,0,0,0,0.976027039
1100000033,9906001795,SUMAESSX LTD,,1 LUMLEY STREET,LONDON,,,,W1K 6TT ,2,47240,4,4,110,110,0,0,0,0.706603515
1100000034,9906001865,&HAJNWEATHERHEAD & J A KING,,1 HILLTOP,TILLINGTON,PETWORTH,,,GU28 9AQ,1,47300,7,7,114,114,0,0,0,0.65984736
1100000035,9906001905,WEMAIDLNG & STEEL FABRIC,,1 LUMLEY STREET,MAYFAIR,LONDON,,,W1K 6TT ,2,47410,2,2,66,66,0,0,0,0.859542047
1100000036,9906001995,DNAAEMWOODHOUSE,,1 FIELD COTTAGES,FIELD LANE,HENSALL,GOOLE NORTH HUMBERSIDE,,DN14 0RB,7,47421,3,2,375,375,0,0,0,0.956089534
1100000037,9906002005,INMASUDTRIAL (UK) LTD,,1 LITTLE JENKYN,HOLE LANE,BENTLEY,HAMPSHIRE,,GU10 5LU,7,47429,4,3,176,176,0,0,0,0.095149878
1100000038,9906002055,DNAAPMLUMBING AND HEATING,,1 FINWAY ROAD,HEMEL HEMPSTEAD,HERTFORDSHIRE,,,HP2 7PT ,2,47429,1,0,19,19,0,0,0,0.229139491
1100000039,9906002175,WEMAIDLNG & STEEL FABRICATION,,1 MAIN ROAD,HANWOOD,SHREWSBURY,SHROPSHIRE,,SY5 8LY ,1,47610,4,5,337,337,0,0,0,0.125090247
1100000040,9906002225,MEASIMCHIATI,,1 HIGH LODGE,COVENTRY ROAD,COLESHILL,NORTH WARWICKSHIRE,,B46 3FE ,1,47620,6,6,303,303,0,0,0,0.94373722
1100000041,9906002235,IGEHATHLTD,,1 HILLVIEW COTTAGES,STRATFORD BRIDGE RIPPLE,TEWKESBURY,GLOUCESTERSHIRE,,GL20 6HE,1,47720,1,1,53,53,0,0,0,0.143007284
1100000042,9906002335,&JAHKEATHER,,1 INMAN ROAD,NORWICH,,,,NR7 8JT ,1,47722,1,1,57,57,0,0,0,0.972143259
1100000043,9906002365,BOJAEWSLL LIMITED,,1 KELSO PLACE,UPPER BRISTOL ROAD,BATH,,,BA1 3AU ,1,47740,3,3,196,196,0,0,0,0.048451117
1100000044,9906002485,AGJASUILTD,,1 JINGLERS COURT,BANBRIDGE,,,,BT32 3YJ,1,47749,5,6,210,210,0,0,0,0.823863174
1100000045,9906002515,BJAULPMBING & HEATING LTD,,1 JINGLERS COURT,BANBRIDGE,CO DOWN,,,BT32 3YJ,1,47781,4,36,224,224,0,0,0,0.300306452
1100000046,9906002525,HIBAER,,1 GLYNDE PLACE,HORSHAM,,,,RH12 1NZ,1,47782,3,2,117,117,0,0,0,0.796827258
1100000047,9906002545,LTL2CD,,1 BARN CLOSE,QUARNDON,DERBY,,,DE22 5JE,1,47789,1,0,64,64,0,0,0,0.086415741
1100000048,9906002585,&IAJLMOORLAND,,1 HOSKINS PLACE,WATCHETTS ROAD,CAMBERLEY,SURREY,,GU15 2PB,1,47820,4,4,280,280,0,0,0,0.804574391
1100000049,9906002605,BOJAELIR MAINTENANCE LIMITED,,1 JUNO WAY,SWINDON,,,,SN5 8ZD ,2,47990,1,1,304,304,0,0,0,0.104129114
1100000050,9906002735,CEIAILINGS PARTITIONS LTD,,1 HUNT LANE,DONCASTER,,,,DN5 9SF ,7,45112,1,1,56,56,0,0,0,0.736275725
1100000051,9906016135,DE536LEVOPMENTS LTD,,1 BORLASES COTTAGES,MILLEY ROAD,WALTHAM ST LAWRENCE,READING,,RG10 0JY,1,45320,5,5,369,369,0,0,0,0.158231512
1100000052,9906044845,L9337DT,,1 BORLASES COTTAGES,MILLEY ROAD,WALTHAM ST LAWRENCE,READING,,RG10 0JY,1,45400,4,0,2150,2150,0,0,0,0.126696302
1100000053,9906050715,OOT3DOBLX LTD,,1 BOXLEY GARDENS,BOXLEY ROAD,PENENDEN HEATH,MAIDSTONE,,ME14 2BD,1,45190,0,0,392,392,0,0,0,0.424149751
1100000054,9906152275,OOT3DOBLX LTD,OOT3DOBLX.COM,1 BRAESIDE,NAPHILL,HIGH WYCOMBE,BUCKS,,HP14 4RY,1,46150,9,9,314,314,0,0,0,0.298446864
1100000055,9906210955,OGC3VMIESRL LTD,,1 BRITTEN CLOSE,LANGDON HILLS,BASILDON,,,SS16 6TB,1,46190,1,1,8279,8279,0,0,0,0.823342781
1100000056,9906215965,UNOC4EITS SERVICES LIMITED,,1 BRITTEN CLOSE,LANGDON HILLS,BASILDON,ESSEX,,SS16 6TB,1,46310,8,13,30270,30270,0,0,0,0.968260607
1100000057,9906256815,&BACCGOUGH,,1 FULLBROOK CLOSE,WOKINGHAM,BERKS,,,RG41 1QZ,1,46342,4,4,250,250,0,0,0,0.800081651
1100000058,9906262085,&GAHKOLMES,,1 HILL STREET,EDINBURGH,,,,EH2 3JP ,1,46410,1,1,113,113,0,0,0,0.22581264
1100000059,9906262705,UNOC4EITS SERVICES LTD,,1 BROOK COURT,BLAKENEY ROAD,BECKENHAM,KENT,,BR3 1HG ,1,46470,8,8,4566,4566,0,0,0,0.402750262
1100000060,9906271725,OSRFAFTARMER CONTRACTOR,,1 HILL COTTAGE,MUNDHAM HILL,MUNDHAM,NORWICH NORFOLK,,NR14 6EJ,1,47110,3,5,411,411,0,0,0,0.875623235
1100000061,9906281115,KEJANELIMITED,,1 KENSWORTH GATE,200-204 HIGH STREET SOUTH,DUNSTABLE,BEDS,,LU6 3HS ,2,47230,3,3,88,88,0,0,0,0.974488798
1100000062,9906281225,PJAHOJNSON,,1 KEYTES LANE,BARFORD,WARWICKSHIRE,,,CV35 8EP,2,47290,3,3,174,174,0,0,0,0.002462008
1100000063,9902232725,BIG BOX CEREAL LTD INCL VAT GROUP,,(ROAD HAULAGE CONTRS) LTD,BOW BRIDGE,WATERINGBURY,MAIDSTONE,KENT,ME18 5ED,1,47599,14100,14367,27367068,0,27367068,27367068,0,0.556599574
1100000064,9999999999,AGBBROWN,,1 HAWRIDGE HILL COTTAGES,THE VALE,HAWRIDGE,CHESHAM BUCKINGHAMSHIRE,,HP5 3NU ,1,45112,14,14,86,86,0,0,0,0.110639412
1100000065,9999999999,EADLIING SOLUTIONS LTD,,1 HAZELWOOD LANE,ABBOTS LANGLEY,,,,WD5 0HA ,3,45190,14,13,113,10,0,0,0,0.63948897
1100000066,9999999999,2WMILITED,,1 BARRASCROFTS,CANONBIE,,,,DG14 0RZ,1,45200,14,13,69,69,0,0,0,0.096641784
1100000067,9999999999,BASOT(CHRISTCHURCH) LIMITED,,1 GARTH EDGE,SHAWFORTH,WHITWORTH,ROCHDALE LANCASHIRE,,OL12 8EH,2,45320,13,13,20,20,0,0,0,0.510301459
1100000068,9999999999,BAER,,1 GEORGE SQUARE,GLASGOW,,,,G2 5LL  ,1,45400,14,14,119,119,0,0,0,0.148771478
1100000069,9999999999,BAER,,1 GLEN ROAD,HINDHEAD,SURREY,,,GU26 6QE,1,46110,14,14,310,310,0,0,0,0.589704168
1100000070,9999999999,ANOCTRACTS UK LTD,,1 GLYNDE PLACE,HORSHAM,WEST SUSSEX,,,RH12 1NZ,1,46120,15,15,300,300,0,0,0,0.156650038
1100000071,9999999999,UBARE,,1 GORSE ROAD,REYDON,SOUTHWOLD,,,IP18 6NQ,1,46130,16,16,210,210,0,0,0,0.447874851
1100000072,9999999999,CARR,,1 GRANVILLE AVENUE,LONG EATON,NOTTINGHAM,,,NG10 4HA,1,46140,14,14,31,31,0,0,0,0.848314182
1100000073,9999999999,AJ&WALTON,,1 GRANVILLE AVENUE,LONG EATON,NOTTINGHAM,,,NG10 4HA,1,46150,15,15,85,85,0,0,0,0.549606666
1100000074,9999999999,AMCFLINT,,1 GARENDON WAY,GROBY,LEICESTER,,,LE6 0YR ,1,46160,14,13,413,40,0,0,0,0.270074121
1100000075,9999999999,CAITRN,,1 GRAVES FARM,ALGARKIRK,BOSTON,LINCOLNSHIRE,LINCS,PE20 2BQ,2,46170,14,13,18,18,0,0,0,0.396811656
1100000076,9999999999,CABMUING/HEATING & MAINTENANCE,,1 GREEN COTTAGES,WATFORD ROAD,HARROW,MIDDLESEX,,HA1 3TS ,2,46180,13,13,14,0,0,0,14,0.764389058
1100000077,9999999999,CABMUING/HEATING AND,,1 GREENEND CLOSE,SPENCERS WOOD,READING,,,RG7 1EH ,1,46190,14,14,166,0,180,0,166,0.560497313
1100000078,9999999999,HCALEPL,,1 GRESHAM STREET,LONDON,,,,EC2V 7BX,3,46210,13,13,50,50,0,0,0,0.922534521
1100000079,9999999999,ARESVICES LTD,,1 GREY TERRACE,RYHOPE,SUNDERLAND,,,SR2 0QT ,1,46220,15,15,245,245,0,0,0,0.593449525
1100000080,9999999999,ATIKCHENS LTD,,1 GREY TERRACE,SUNDERLAND,,,,SR2 0QT ,1,46230,14,14,502,502,0,0,0,0.015129974
1100000081,9999999999,DANOLLIMITED,,1 GROVE LODGE COTTAGES,BINSTED,ARUNDEL,WEST SUSSEX,,BN18 0LQ,1,46342,16,16,919,919,0,0,0,0.132365913
1100000082,9999999999,EDASI,,1 HATHERMEAD GARDEN,YEOVIL,SOMERSET,,,BA21 5BY,1,46240,14,13,47,47,0,0,0,0.460511834
1100000083,9999999999,G2BIHPC DESIGN LTD,,1 BALLYCREGAGH ROAD,CLOUGHMILLS,BALLYMENA,,,BT44 9LB,1,46410,13,13,13,0,0,0,0,0.65478139
1100000084,9999999999,MALIVENGINEERING LTD,,1 LAWSON GARDENS,PINNER,MIDDLESEX,,,HA5 2BR ,2,46440,17,14,86,86,0,0,0,0.122939343
1100000085,9999999999,JANELTD,,1 KENT ROAD WEST,MANCHESTER,,,,M14 5RF ,2,46510,15,15,100,100,0,0,0,0.622870322
1100000086,9999999999,MAWDAICK,,1 LAWN COTTAGES,NEWCASTLE,CRAVEN ARMS,SHROPSHIRE,,SY7 8PL ,3,46520,14,14,265,265,0,0,0,0.407121271
1100000087,9999999999,MASSUEX) LTD,HTUSOAOCST LAW,1 LANSDOWNE VILLAS,GOODLEIGH ROAD,BARNSTAPLE,DEVON,,EX32 7JR,2,46620,14,14,97,97,0,0,0,0.495869233
1100000088,9999999999,MAFYRICS,YFEHAMCIRS,1 LITTLE JENKYN,HOLE LANE,BENTLEY,HAMPSHIRE,,GU10 5LU,2,46660,13,15,60,60,0,0,0,0.495802589
1100000089,9999999999,AAWMHOLESALE LTD,,1 FREEWATERS CLOSE,ICKLEFORD,HITCHIN,,,SG5 3TQ ,2,46711,13,13,93,93,0,0,0,0.371103557
1100000090,9999999999,BASOT( CHRISTCHURCH ) LIMITED,,1 GARLING WALK,WEST BERGHOLT,COLCHESTER,,,CO6 3LG ,2,46720,14,13,108,108,0,0,0,0.078824164
1100000091,9999999999,ANOCSULTANCY LTD,,1 LOWER BAR,NEWPORT,,,,TF10 7BE,2,46770,15,15,79,79,0,0,0,0.020542155
1100000092,9999999999,AAPMLUMBING AND HEATING LTD,,1 FINWAY ROAD,HEMEL HEMPSTEAD INDUSTRIAL EST,HEMEL HEMPSTEAD,,,HP2 7PT ,1,46900,14,13,112,112,0,0,0,0.35135026
1100000093,9999999999,MATBAREE LTD,,1 LENAMORE DRIVE,NEWTOWNABBEY,,,,BT37 0PQ,1,47110,15,15,57,57,0,0,0,0.58923183
1100000094,9999999999,AJMHUGHES,,1 KINROSS ROAD,LESLIE,FIFE,,,KY6 3NE ,1,47190,17,17,192,192,0,0,0,0.770347943
1100000095,9999999999,2WDTL,,1 BEARDS TERRACE,COGGESHALL,COLCHESTER,,,CO6 1TB ,1,47220,14,13,268,268,0,0,0,0.977029619
1100000096,9999999999,MAESSX LTD,,1 LUMLEY STREET,LONDON,,,,W1K 6TT ,2,47240,17,17,123,123,0,0,0,0.707606095
1100000097,9999999999,AJNWEATHERHEAD & J A KING,,1 HILLTOP,TILLINGTON,PETWORTH,,,GU28 9AQ,1,47300,20,20,127,127,0,0,0,0.66084994
1100000098,9999999999,MAIDLNG & STEEL FABRIC,,1 LUMLEY STREET,MAYFAIR,LONDON,,,W1K 6TT ,2,47410,15,15,79,79,0,0,0,0.860544627
1100000099,9999999999,AAEMWOODHOUSE,,1 FIELD COTTAGES,FIELD LANE,HENSALL,GOOLE NORTH HUMBERSIDE,,DN14 0RB,7,47421,16,15,388,388,0,0,0,0.957092114
1100000100,9999999999,MASUDTRIAL (UK) LTD,,1 LITTLE JENKYN,HOLE LANE,BENTLEY,HAMPSHIRE,,GU10 5LU,7,47429,17,16,189,189,0,0,0,0.096152458
1100000101,9999999999,AAPMLUMBING AND HEATING,,1 FINWAY ROAD,HEMEL HEMPSTEAD,HERTFORDSHIRE,,,HP2 7PT ,2,47429,14,13,32,32,0,0,0,0.230142071
1100000102,9999999999,MAIDLNG & STEEL FABRICATION,,1 MAIN ROAD,HANWOOD,SHREWSBURY,SHROPSHIRE,,SY5 8LY ,1,47610,17,18,350,350,0,0,0,0.126092827
1100000103,9999999999,ASIMCHIATI,,1 HIGH LODGE,COVENTRY ROAD,COLESHILL,NORTH WARWICKSHIRE,,B46 3FE ,1,47620,19,19,316,316,0,0,0,0.9447398
1100000104,9999999999,EHATHLTD,,1 HILLVIEW COTTAGES,STRATFORD BRIDGE RIPPLE,TEWKESBURY,GLOUCESTERSHIRE,,GL20 6HE,1,47720,14,14,66,66,0,0,0,0.144009864
1100000105,9999999999,AHKEATHER,,1 INMAN ROAD,NORWICH,,,,NR7 8JT ,1,47722,14,14,70,70,0,0,0,0.973145839
1100000106,9999999999,JAEWSLL LIMITED,,1 KELSO PLACE,UPPER BRISTOL ROAD,BATH,,,BA1 3AU ,1,47740,16,16,209,209,0,0,0,0.049453697
1100000107,9999999999,JASUILTD,,1 JINGLERS COURT,BANBRIDGE,,,,BT32 3YJ,1,47749,18,19,223,223,0,0,0,0.824865754
1100000108,9999999999,AULPMBING & HEATING LTD,,1 JINGLERS COURT,BANBRIDGE,CO DOWN,,,BT32 3YJ,1,47781,17,49,237,237,0,0,0,0.301309032
1100000109,9999999999,BAER,,1 GLYNDE PLACE,HORSHAM,,,,RH12 1NZ,1,47782,16,15,130,0,0,0,0,0.797829838
1100000110,9999999999,L2CD,,1 BARN CLOSE,QUARNDON,DERBY,,,DE22 5JE,1,47789,14,13,77,77,0,0,0,0.087418321
1100000111,9999999999,AJLMOORLAND,,1 HOSKINS PLACE,WATCHETTS ROAD,CAMBERLEY,SURREY,,GU15 2PB,1,47820,17,17,293,293,0,0,0,0.805576971
1100000112,9999999999,JAELIR MAINTENANCE LIMITED,,1 JUNO WAY,SWINDON,,,,SN5 8ZD ,2,47990,14,14,317,317,0,0,0,0.105131694
1100000113,9999999999,IAILINGS PARTITIONS LTD,,1 HUNT LANE,DONCASTER,,,,DN5 9SF ,7,45112,14,14,69,69,0,0,0,0.737278305
1100000114,9999999999,536LEVOPMENTS LTD,,1 BORLASES COTTAGES,MILLEY ROAD,WALTHAM ST LAWRENCE,READING,,RG10 0JY,1,45320,18,18,382,382,0,0,0,0.159234092
1100000115,9999999999,337DT,,1 BORLASES COTTAGES,MILLEY ROAD,WALTHAM ST LAWRENCE,READING,,RG10 0JY,1,45400,17,13,2163,2163,0,0,0,0.127698882
1100000116,9999999999,T3DOBLX LTD,,1 BOXLEY GARDENS,BOXLEY ROAD,PENENDEN HEATH,MAIDSTONE,,ME14 2BD,1,45190,13,13,405,405,0,0,0,0.425152331
1100000117,9999999999,T3DOBLX LTD,OOT3DOBLX.COM,1 BRAESIDE,NAPHILL,HIGH WYCOMBE,BUCKS,,HP14 4RY,1,46150,22,22,327,327,0,0,0,0.299449444
1100000118,9999999999,C3VMIESRL LTD,,1 BRITTEN CLOSE,LANGDON HILLS,BASILDON,,,SS16 6TB,1,46190,14,14,8292,8292,0,0,0,0.824345361
1100000119,9999999999,OC4EITS SERVICES LIMITED,,1 BRITTEN CLOSE,LANGDON HILLS,BASILDON,ESSEX,,SS16 6TB,1,46310,21,26,30283,30283,0,0,0,0.969263187
1100000120,9999999999,ACCGOUGH,,1 FULLBROOK CLOSE,WOKINGHAM,BERKS,,,RG41 1QZ,1,46342,17,17,263,263,0,0,0,0.801084231
1100000121,9999999999,AHKOLMES,,1 HILL STREET,EDINBURGH,,,,EH2 3JP ,1,46410,14,14,126,126,0,0,0,0.22681522
1100000122,9999999999,OC4EITS SERVICES LTD,,1 BROOK COURT,BLAKENEY ROAD,BECKENHAM,KENT,,BR3 1HG ,1,46470,21,21,4579,4579,0,0,0,0.403752842
1100000123,9999999999,RFAFTARMER CONTRACTOR,,1 HILL COTTAGE,MUNDHAM HILL,MUNDHAM,NORWICH NORFOLK,,NR14 6EJ,1,47110,16,18,424,424,0,0,0,0.876625815
1100000124,9999999999,JANELIMITED,,1 KENSWORTH GATE,200-204 HIGH STREET SOUTH,DUNSTABLE,BEDS,,LU6 3HS ,2,47230,16,16,101,101,0,0,0,0.975491378
1100000125,9999999999,AHOJNSON,,1 KEYTES LANE,BARFORD,WARWICKSHIRE,,,CV35 8EP,2,47290,16,16,187,187,0,0,0,0.003464588
1100000126,9999999999,G BOX CEREAL LTD INCL VAT GROUP,,(ROAD HAULAGE CONTRS) LTD,BOW BRIDGE,WATERINGBURY,MAIDSTONE,KENT,ME18 5ED,1,47599,14113,14380,27367081,0,27367081,27367081,0,0.557602154
1100000127,9999999999,EAGBBROWN,,1 HAWRIDGE HILL COTTAGES,THE VALE,HAWRIDGE,CHESHAM BUCKINGHAMSHIRE,,HP5 3NU ,1,45112,22,22,94,94,0,0,0,0.111792833
1100000128,9999999999,UEADLIING SOLUTIONS LTD,,1 HAZELWOOD LANE,ABBOTS LANGLEY,,,,WD5 0HA ,3,45190,22,21,121,121,0,0,0,0.640642391
1100000129,9999999999,O2WMILITED,,1 BARRASCROFTS,CANONBIE,,,,DG14 0RZ,1,45200,22,21,77,77,0,0,0,0.097795205
1100000130,9999999999,UBASOT(CHRISTCHURCH) LIMITED,,1 GARTH EDGE,SHAWFORTH,WHITWORTH,ROCHDALE LANCASHIRE,,OL12 8EH,2,45320,21,21,28,28,0,0,0,0.51145488
1100000131,9999999999,IBAER,,1 GEORGE SQUARE,GLASGOW,,,,G2 5LL  ,1,45400,22,22,127,127,0,0,0,0.149924899
1100000132,9999999999,IBAER,,1 GLEN ROAD,HINDHEAD,SURREY,,,GU26 6QE,1,46110,22,22,318,318,0,0,0,0.590857589
1100000133,9999999999,BANOCTRACTS UK LTD,,1 GLYNDE PLACE,HORSHAM,WEST SUSSEX,,,RH12 1NZ,1,46120,23,23,308,308,0,0,0,0.157803459
1100000134,9999999999,LUBARE,,1 GORSE ROAD,REYDON,SOUTHWOLD,,,IP18 6NQ,1,46130,24,24,218,218,0,0,0,0.449028272
1100000135,9999999999,UCARR,,1 GRANVILLE AVENUE,LONG EATON,NOTTINGHAM,,,NG10 4HA,1,46140,22,22,39,39,0,0,0,0.849467603
1100000136,9999999999,CAJ&WALTON,,1 GRANVILLE AVENUE,LONG EATON,NOTTINGHAM,,,NG10 4HA,1,46150,23,23,93,93,0,0,0,0.550760087
1100000137,9999999999,BAMCFLINT,,1 GARENDON WAY,GROBY,LEICESTER,,,LE6 0YR ,1,46160,22,21,421,421,0,0,0,0.271227542
1100000138,9999999999,ACAITRN,,1 GRAVES FARM,ALGARKIRK,BOSTON,LINCOLNSHIRE,LINCS,PE20 2BQ,2,46170,22,21,26,26,0,0,0,0.397965077
1100000139,9999999999,LCABMUING/HEATING & MAINTENANCE,,1 GREEN COTTAGES,WATFORD ROAD,HARROW,MIDDLESEX,,HA1 3TS ,2,46180,21,21,22,0,0,0,22,0.765542479
1100000140,9999999999,LCABMUING/HEATING AND,,1 GREENEND CLOSE,SPENCERS WOOD,READING,,,RG7 1EH ,1,46190,22,22,174,0,196,0,174,0.561650734
1100000141,9999999999,PHCALEPL,,1 GRESHAM STREET,LONDON,,,,EC2V 7BX,3,46210,21,21,58,58,0,0,0,0.923687942
1100000142,9999999999,DARESVICES LTD,,1 GREY TERRACE,RYHOPE,SUNDERLAND,,,SR2 0QT ,1,46220,23,23,253,253,0,0,0,0.594602946
1100000143,9999999999,DATIKCHENS LTD,,1 GREY TERRACE,SUNDERLAND,,,,SR2 0QT ,1,46230,22,22,510,510,0,0,0,0.016283395
1100000144,9999999999,ADANOLLIMITED,,1 GROVE LODGE COTTAGES,BINSTED,ARUNDEL,WEST SUSSEX,,BN18 0LQ,1,46342,24,24,927,927,0,0,0,0.133519334
1100000145,9999999999,NEDASI,,1 HATHERMEAD GARDEN,YEOVIL,SOMERSET,,,BA21 5BY,1,46240,22,21,55,55,0,0,0,0.461665255
1100000146,9999999999,AG2BIHPC DESIGN LTD,,1 BALLYCREGAGH ROAD,CLOUGHMILLS,BALLYMENA,,,BT44 9LB,1,46410,21,21,21,21,0,0,0,0.655934811
1100000147,9999999999,IMALIVENGINEERING LTD,,1 LAWSON GARDENS,PINNER,MIDDLESEX,,,HA5 2BR ,2,46440,25,22,94,94,0,0,0,0.124092764
1100000148,9999999999,EJANELTD,,1 KENT ROAD WEST,MANCHESTER,,,,M14 5RF ,2,46510,23,23,108,108,0,0,0,0.624023743
1100000149,9999999999,HMAWDAICK,,1 LAWN COTTAGES,NEWCASTLE,CRAVEN ARMS,SHROPSHIRE,,SY7 8PL ,3,46520,22,22,273,273,0,0,0,0.408274692
1100000150,9999999999,SMASSUEX) LTD,,1 LANSDOWNE VILLAS,GOODLEIGH ROAD,BARNSTAPLE,DEVON,,EX32 7JR,2,46620,22,22,105,105,0,0,0,0.497022654
1100000151,9999999999,EMAFYRICS,,1 LITTLE JENKYN,HOLE LANE,BENTLEY,HAMPSHIRE,,GU10 5LU,2,46660,21,23,68,68,0,0,0,0.49695601
1100000152,9999999999,NAAWMHOLESALE LTD,,1 FREEWATERS CLOSE,ICKLEFORD,HITCHIN,,,SG5 3TQ ,2,46711,21,21,101,101,0,0,0,0.372256978
1100000153,9999999999,UBASOT( CHRISTCHURCH ) LIMITED,,1 GARLING WALK,WEST BERGHOLT,COLCHESTER,,,CO6 3LG ,2,46720,22,21,116,116,0,0,0,0.079977585
1100000154,9999999999,MANOCSULTANCY LTD,,1 LOWER BAR,NEWPORT,,,,TF10 7BE,2,46770,23,23,87,87,0,0,0,0.021695576
1100000155,9999999999,NAAPMLUMBING AND HEATING LTD,,1 FINWAY ROAD,HEMEL HEMPSTEAD INDUSTRIAL EST,HEMEL HEMPSTEAD,,,HP2 7PT ,1,46900,22,21,120,120,0,0,0,0.352503681
1100000156,9999999999,RMATBAREE LTD,,1 LENAMORE DRIVE,NEWTOWNABBEY,,,,BT37 0PQ,1,47110,23,23,65,65,0,0,0,0.590385251
1100000157,9999999999,KAJMHUGHES,,1 KINROSS ROAD,LESLIE,FIFE,,,KY6 3NE ,1,47190,25,25,200,200,0,0,0,0.771501364
1100000158,9999999999,O2WDTL,,1 BEARDS TERRACE,COGGESHALL,COLCHESTER,,,CO6 1TB ,1,47220,22,21,276,276,0,0,0,0.97818304
1100000159,9999999999,UMAESSX LTD,,1 LUMLEY STREET,LONDON,,,,W1K 6TT ,2,47240,25,25,131,131,0,0,0,0.708759516
1100000160,9999999999,HAJNWEATHERHEAD & J A KING,,1 HILLTOP,TILLINGTON,PETWORTH,,,GU28 9AQ,1,47300,28,28,135,135,0,0,0,0.662003361
1100000161,9999999999,EMAIDLNG & STEEL FABRIC,,1 LUMLEY STREET,MAYFAIR,LONDON,,,W1K 6TT ,2,47410,23,23,87,87,0,0,0,0.861698048
1100000162,9999999999,NAAEMWOODHOUSE,,1 FIELD COTTAGES,FIELD LANE,HENSALL,GOOLE NORTH HUMBERSIDE,,DN14 0RB,7,47421,24,23,396,396,0,0,0,0.958245535
1100000163,9999999999,NMASUDTRIAL (UK) LTD,,1 LITTLE JENKYN,HOLE LANE,BENTLEY,HAMPSHIRE,,GU10 5LU,7,47429,25,24,197,197,0,0,0,0.097305879
1100000164,9999999999,NAAPMLUMBING AND HEATING,,1 FINWAY ROAD,HEMEL HEMPSTEAD,HERTFORDSHIRE,,,HP2 7PT ,2,47429,22,21,40,40,0,0,0,0.231295492
1100000165,9999999999,EMAIDLNG & STEEL FABRICATION,,1 MAIN ROAD,HANWOOD,SHREWSBURY,SHROPSHIRE,,SY5 8LY ,1,47610,25,26,358,358,0,0,0,0.127246248
1100000166,9999999999,EASIMCHIATI,,1 HIGH LODGE,COVENTRY ROAD,COLESHILL,NORTH WARWICKSHIRE,,B46 3FE ,1,47620,27,27,324,324,0,0,0,0.945893221
1100000167,9999999999,GEHATHLTD,,1 HILLVIEW COTTAGES,STRATFORD BRIDGE RIPPLE,TEWKESBURY,GLOUCESTERSHIRE,,GL20 6HE,1,47720,22,22,74,74,0,0,0,0.145163285
1100000168,9999999999,JAHKEATHER,,1 INMAN ROAD,NORWICH,,,,NR7 8JT ,1,47722,22,22,78,78,0,0,0,0.97429926
1100000169,9999999999,OJAEWSLL LIMITED,,1 KELSO PLACE,UPPER BRISTOL ROAD,BATH,,,BA1 3AU ,1,47740,24,24,217,217,0,0,0,0.050607118
1100000170,9999999999,GJASUILTD,,1 JINGLERS COURT,BANBRIDGE,,,,BT32 3YJ,1,47749,26,27,231,231,0,0,0,0.826019175
1100000171,9999999999,JAULPMBING & HEATING LTD,,1 JINGLERS COURT,BANBRIDGE,CO DOWN,,,BT32 3YJ,1,47781,25,57,245,245,0,0,0,0.302462453
1100000172,9999999999,IBAER,,1 GLYNDE PLACE,HORSHAM,,,,RH12 1NZ,1,47782,24,23,138,138,0,0,0,0.798983259
1100000173,9999999999,TL2CD,,1 BARN CLOSE,QUARNDON,DERBY,,,DE22 5JE,1,47789,22,21,85,85,0,0,0,0.088571742
1100000174,9999999999,IAJLMOORLAND,,1 HOSKINS PLACE,WATCHETTS ROAD,CAMBERLEY,SURREY,,GU15 2PB,1,47820,25,25,301,301,0,0,0,0.806730392
1100000175,9999999999,OJAELIR MAINTENANCE LIMITED,,1 JUNO WAY,SWINDON,,,,SN5 8ZD ,2,47990,22,22,325,325,0,0,0,0.106285115
1100000176,9999999999,EIAILINGS PARTITIONS LTD,,1 HUNT LANE,DONCASTER,,,,DN5 9SF ,7,45112,22,22,77,77,0,0,0,0.738431726
1100000177,9999999999,E536LEVOPMENTS LTD,,1 BORLASES COTTAGES,MILLEY ROAD,WALTHAM ST LAWRENCE,READING,,RG10 0JY,1,45320,26,26,390,390,0,0,0,0.160387513
1100000178,9999999999,9337DT,,1 BORLASES COTTAGES,MILLEY ROAD,WALTHAM ST LAWRENCE,READING,,RG10 0JY,1,45400,25,21,2171,2171,0,0,0,0.128852303
1100000179,9999999999,OT3DOBLX LTD,,1 BOXLEY GARDENS,BOXLEY ROAD,PENENDEN HEATH,MAIDSTONE,,ME14 2BD,1,45190,21,21,413,413,0,0,0,0.426305752
1100000180,9999999999,OT3DOBLX LTD,,1 BRAESIDE,NAPHILL,HIGH WYCOMBE,BUCKS,,HP14 4RY,1,46150,30,30,335,335,0,0,0,0.300602865
1100000181,9999999999,GC3VMIESRL LTD,,1 BRITTEN CLOSE,LANGDON HILLS,BASILDON,,,SS16 6TB,1,46190,22,22,8300,8300,0,0,0,0.825498782
1100000182,9999999999,NOC4EITS SERVICES LIMITED,,1 BRITTEN CLOSE,LANGDON HILLS,BASILDON,ESSEX,,SS16 6TB,1,46310,29,34,30291,30291,0,0,0,0.970416608
1100000183,9999999999,BACCGOUGH,,1 FULLBROOK CLOSE,WOKINGHAM,BERKS,,,RG41 1QZ,1,46342,25,25,271,271,0,0,0,0.802237652
1100000184,9999999999,GAHKOLMES,,1 HILL STREET,EDINBURGH,,,,EH2 3JP ,1,46410,22,22,134,134,0,0,0,0.227968641
1100000185,9999999999,NOC4EITS SERVICES LTD,,1 BROOK COURT,BLAKENEY ROAD,BECKENHAM,KENT,,BR3 1HG ,1,46470,29,29,4587,4587,0,0,0,0.404906263
1100000186,9999999999,SRFAFTARMER CONTRACTOR,,1 HILL COTTAGE,MUNDHAM HILL,MUNDHAM,NORWICH NORFOLK,,NR14 6EJ,1,47110,24,26,432,432,0,0,0,0.877779236
1100000187,9999999999,EJANELIMITED,,1 KENSWORTH GATE,200-204 HIGH STREET SOUTH,DUNSTABLE,BEDS,,LU6 3HS ,2,47230,24,24,109,109,0,0,0,0.976644799
1100000188,9999999999,JAHOJNSON,,1 KEYTES LANE,BARFORD,WARWICKSHIRE,,,CV35 8EP,2,47290,24,24,195,195,0,0,0,0.004618009
1100000189,9999999999,IG BOX CEREAL LTD INCL VAT GROUP,,(ROAD HAULAGE CONTRS) LTD,BOW BRIDGE,WATERINGBURY,MAIDSTONE,KENT,ME18 5ED,1,47599,14121,14388,27367089,0,27367089,27367089,0,0.558755575
1100000190,9999999999,EAGBBROWN,,1 HAWRIDGE HILL COTTAGES,THE VALE,HAWRIDGE,CHESHAM BUCKINGHAMSHIRE,,HP5 3NU ,1,45112,35,35,107,107,0,0,0,0.112795413
1100000191,9999999999,UEADLIING SOLUTIONS LTD,,1 HAZELWOOD LANE,ABBOTS LANGLEY,,,,WD5 0HA ,3,45190,35,34,134,31,0,0,0,0.641644971
1100000192,9999999999,O2WMILITED,,1 BARRASCROFTS,CANONBIE,,,,DG14 0RZ,1,45200,35,34,90,90,0,0,0,0.098797785
1100000193,9999999999,UBASOT(CHRISTCHURCH) LIMITED,,1 GARTH EDGE,SHAWFORTH,WHITWORTH,ROCHDALE LANCASHIRE,,OL12 8EH,2,45320,34,34,41,41,0,0,0,0.51245746
1100000194,9999999999,IBAER,,1 GEORGE SQUARE,GLASGOW,,,,G2 5LL  ,1,45400,35,35,140,140,0,0,0,0.150927479
1100000195,9999999999,IBAER,,1 GLEN ROAD,HINDHEAD,SURREY,,,GU26 6QE,1,46110,35,35,331,331,0,0,0,0.591860169
1100000196,9999999999,BANOCTRACTS UK LTD,,1 GLYNDE PLACE,HORSHAM,WEST SUSSEX,,,RH12 1NZ,1,46120,36,36,321,321,0,0,0,0.158806039
1100000197,9999999999,LUBARE,,1 GORSE ROAD,REYDON,SOUTHWOLD,,,IP18 6NQ,1,46130,37,37,231,231,0,0,0,0.450030852
1100000198,9999999999,UCARR,,1 GRANVILLE AVENUE,LONG EATON,NOTTINGHAM,,,NG10 4HA,1,46140,35,35,52,52,0,0,0,0.850470183
1100000199,9999999999,CAJ&WALTON,,1 GRANVILLE AVENUE,LONG EATON,NOTTINGHAM,,,NG10 4HA,1,46150,36,36,106,106,0,0,0,0.551762667
1100000200,9999999999,BAMCFLINT,,1 GARENDON WAY,GROBY,LEICESTER,,,LE6 0YR ,1,46160,35,34,434,61,0,0,0,0.272230122
1100000201,9999999999,ACAITRN,,1 GRAVES FARM,ALGARKIRK,BOSTON,LINCOLNSHIRE,LINCS,PE20 2BQ,2,46170,35,34,39,39,0,0,0,0.398967657
1100000202,9999999999,LCABMUING/HEATING & MAINTENANCE,,1 GREEN COTTAGES,WATFORD ROAD,HARROW,MIDDLESEX,,HA1 3TS ,2,46180,34,34,35,0,0,0,35,0.766545059
1100000203,9999999999,LCABMUING/HEATING AND,,1 GREENEND CLOSE,SPENCERS WOOD,READING,,,RG7 1EH ,1,46190,35,35,187,0,222,0,187,0.562653314
1100000204,9999999999,PHCALEPL,,1 GRESHAM STREET,LONDON,,,,EC2V 7BX,3,46210,34,34,71,71,0,0,0,0.924690522
1100000205,9999999999,DARESVICES LTD,,1 GREY TERRACE,RYHOPE,SUNDERLAND,,,SR2 0QT ,1,46220,36,36,266,266,0,0,0,0.595605526
1100000206,9999999999,DATIKCHENS LTD,,1 GREY TERRACE,SUNDERLAND,,,,SR2 0QT ,1,46230,35,35,523,523,0,0,0,0.017285975
1100000207,9999999999,ADANOLLIMITED,,1 GROVE LODGE COTTAGES,BINSTED,ARUNDEL,WEST SUSSEX,,BN18 0LQ,1,46342,37,37,940,940,0,0,0,0.134521914
1100000208,9999999999,NEDASI,,1 HATHERMEAD GARDEN,YEOVIL,SOMERSET,,,BA21 5BY,1,46240,35,34,68,68,0,0,0,0.462667835
1100000209,9999999999,AG2BIHPC DESIGN LTD,,1 BALLYCREGAGH ROAD,CLOUGHMILLS,BALLYMENA,,,BT44 9LB,1,46410,34,34,34,21,0,0,0,0.656937391
1100000210,9999999999,IMALIVENGINEERING LTD,,1 LAWSON GARDENS,PINNER,MIDDLESEX,,,HA5 2BR ,2,46440,38,35,107,107,0,0,0,0.125095344
1100000211,9999999999,EJANELTD,,1 KENT ROAD WEST,MANCHESTER,,,,M14 5RF ,2,46510,36,36,121,121,0,0,0,0.625026323
1100000212,9999999999,HMAWDAICK,,1 LAWN COTTAGES,NEWCASTLE,CRAVEN ARMS,SHROPSHIRE,,SY7 8PL ,3,46520,35,35,286,286,0,0,0,0.409277272
1100000213,9999999999,SMASSUEX) LTD,,1 LANSDOWNE VILLAS,GOODLEIGH ROAD,BARNSTAPLE,DEVON,,EX32 7JR,2,46620,35,35,118,118,0,0,0,0.498025234
1100000214,9999999999,EMAFYRICS,,1 LITTLE JENKYN,HOLE LANE,BENTLEY,HAMPSHIRE,,GU10 5LU,2,46660,34,36,81,81,0,0,0,0.49795859
1100000215,9999999999,NAAWMHOLESALE LTD,,1 FREEWATERS CLOSE,ICKLEFORD,HITCHIN,,,SG5 3TQ ,2,46711,34,34,114,114,0,0,0,0.373259558
1100000216,9999999999,UBASOT( CHRISTCHURCH ) LIMITED,,1 GARLING WALK,WEST BERGHOLT,COLCHESTER,,,CO6 3LG ,2,46720,35,34,129,129,0,0,0,0.080980165
1100000217,9999999999,MANOCSULTANCY LTD,,1 LOWER BAR,NEWPORT,,,,TF10 7BE,2,46770,36,36,100,100,0,0,0,0.022698156
1100000218,9999999999,NAAPMLUMBING AND HEATING LTD,,1 FINWAY ROAD,HEMEL HEMPSTEAD INDUSTRIAL EST,HEMEL HEMPSTEAD,,,HP2 7PT ,1,46900,35,34,133,133,0,0,0,0.353506261
1100000219,9999999999,RMATBAREE LTD,,1 LENAMORE DRIVE,NEWTOWNABBEY,,,,BT37 0PQ,1,47110,36,36,78,78,0,0,0,0.591387831
1100000220,9999999999,KAJMHUGHES,,1 KINROSS ROAD,LESLIE,FIFE,,,KY6 3NE ,1,47190,38,38,213,213,0,0,0,0.772503944
1100000221,9999999999,O2WDTL,,1 BEARDS TERRACE,COGGESHALL,COLCHESTER,,,CO6 1TB ,1,47220,35,34,289,289,0,0,0,0.97918562
1100000222,9999999999,UMAESSX LTD,,1 LUMLEY STREET,LONDON,,,,W1K 6TT ,2,47240,38,38,144,144,0,0,0,0.709762096
1100000223,9999999999,HAJNWEATHERHEAD & J A KING,,1 HILLTOP,TILLINGTON,PETWORTH,,,GU28 9AQ,1,47300,41,41,148,148,0,0,0,0.663005941
1100000224,9999999999,EMAIDLNG & STEEL FABRIC,,1 LUMLEY STREET,MAYFAIR,LONDON,,,W1K 6TT ,2,47410,36,36,100,100,0,0,0,0.862700628
1100000225,9999999999,NAAEMWOODHOUSE,,1 FIELD COTTAGES,FIELD LANE,HENSALL,GOOLE NORTH HUMBERSIDE,,DN14 0RB,7,47421,37,36,409,409,0,0,0,0.959248115
1100000226,9999999999,NMASUDTRIAL (UK) LTD,,1 LITTLE JENKYN,HOLE LANE,BENTLEY,HAMPSHIRE,,GU10 5LU,7,47429,38,37,210,210,0,0,0,0.098308459
1100000227,9999999999,NAAPMLUMBING AND HEATING,,1 FINWAY ROAD,HEMEL HEMPSTEAD,HERTFORDSHIRE,,,HP2 7PT ,2,47429,35,34,53,53,0,0,0,0.232298072
1100000228,9999999999,EMAIDLNG & STEEL FABRICATION,,1 MAIN ROAD,HANWOOD,SHREWSBURY,SHROPSHIRE,,SY5 8LY ,1,47610,38,39,371,371,0,0,0,0.128248828
1100000229,9999999999,EASIMCHIATI,,1 HIGH LODGE,COVENTRY ROAD,COLESHILL,NORTH WARWICKSHIRE,,B46 3FE ,1,47620,40,40,337,337,0,0,0,0.946895801
1100000230,9999999999,GEHATHLTD,,1 HILLVIEW COTTAGES,STRATFORD BRIDGE RIPPLE,TEWKESBURY,GLOUCESTERSHIRE,,GL20 6HE,1,47720,35,35,87,87,0,0,0,0.146165865
1100000231,9999999999,JAHKEATHER,,1 INMAN ROAD,NORWICH,,,,NR7 8JT ,1,47722,35,35,91,91,0,0,0,0.97530184
1100000232,9999999999,OJAEWSLL LIMITED,,1 KELSO PLACE,UPPER BRISTOL ROAD,BATH,,,BA1 3AU ,1,47740,37,37,230,230,0,0,0,0.051609698
1100000233,9999999999,GJASUILTD,,1 JINGLERS COURT,BANBRIDGE,,,,BT32 3YJ,1,47749,39,40,244,244,0,0,0,0.827021755
1100000234,9999999999,JAULPMBING & HEATING LTD,,1 JINGLERS COURT,BANBRIDGE,CO DOWN,,,BT32 3YJ,1,47781,38,70,258,258,0,0,0,0.303465033
1100000235,9999999999,IBAER,,1 GLYNDE PLACE,HORSHAM,,,,RH12 1NZ,1,47782,37,36,151,21,0,0,0,0.799985839
1100000236,9999999999,TL2CD,,1 BARN CLOSE,QUARNDON,DERBY,,,DE22 5JE,1,47789,35,34,98,98,0,0,0,0.089574322
1100000237,9999999999,IAJLMOORLAND,,1 HOSKINS PLACE,WATCHETTS ROAD,CAMBERLEY,SURREY,,GU15 2PB,1,47820,38,38,314,314,0,0,0,0.807732972
1100000238,9999999999,OJAELIR MAINTENANCE LIMITED,,1 JUNO WAY,SWINDON,,,,SN5 8ZD ,2,47990,35,35,338,338,0,0,0,0.107287695
1100000239,9999999999,EIAILINGS PARTITIONS LTD,,1 HUNT LANE,DONCASTER,,,,DN5 9SF ,7,45112,35,35,90,90,0,0,0,0.739434306
1100000240,9999999999,E536LEVOPMENTS LTD,,1 BORLASES COTTAGES,MILLEY ROAD,WALTHAM ST LAWRENCE,READING,,RG10 0JY,1,45320,39,39,403,403,0,0,0,0.161390093
1100000241,9999999999,9337DT,,1 BORLASES COTTAGES,MILLEY ROAD,WALTHAM ST LAWRENCE,READING,,RG10 0JY,1,45400,38,34,2184,2184,0,0,0,0.129854883
1100000242,9999999999,OT3DOBLX LTD,,1 BOXLEY GARDENS,BOXLEY ROAD,PENENDEN HEATH,MAIDSTONE,,ME14 2BD,1,45190,34,34,426,426,0,0,0,0.427308332
1100000243,9999999999,OT3DOBLX LTD,,1 BRAESIDE,NAPHILL,HIGH WYCOMBE,BUCKS,,HP14 4RY,1,46150,43,43,348,348,0,0,0,0.301605445
1100000244,9999999999,GC3VMIESRL LTD,,1 BRITTEN CLOSE,LANGDON HILLS,BASILDON,,,SS16 6TB,1,46190,35,35,8313,8313,0,0,0,0.826501362
1100000245,9999999999,NOC4EITS SERVICES LIMITED,,1 BRITTEN CLOSE,LANGDON HILLS,BASILDON,ESSEX,,SS16 6TB,1,46310,42,47,30304,30304,0,0,0,0.971419188
1100000246,9999999999,BACCGOUGH,,1 FULLBROOK CLOSE,WOKINGHAM,BERKS,,,RG41 1QZ,1,46342,38,38,284,284,0,0,0,0.803240232
1100000247,9999999999,GAHKOLMES,,1 HILL STREET,EDINBURGH,,,,EH2 3JP ,1,46410,35,35,147,147,0,0,0,0.228971221
1100000248,9999999999,NOC4EITS SERVICES LTD,,1 BROOK COURT,BLAKENEY ROAD,BECKENHAM,KENT,,BR3 1HG ,1,46470,42,42,4600,4600,0,0,0,0.405908843
1100000249,9999999999,SRFAFTARMER CONTRACTOR,,1 HILL COTTAGE,MUNDHAM HILL,MUNDHAM,NORWICH NORFOLK,,NR14 6EJ,1,47110,37,39,445,445,0,0,0,0.878781816
1100000250,9999999999,EJANELIMITED,,1 KENSWORTH GATE,200-204 HIGH STREET SOUTH,DUNSTABLE,BEDS,,LU6 3HS ,2,47230,37,37,122,122,0,0,0,0.977647379
1100000251,9999999999,JAHOJNSON,,1 KEYTES LANE,BARFORD,WARWICKSHIRE,,,CV35 8EP,2,47290,37,37,208,208,0,0,0,0.005620589
1100000252,9999999999,IG BOX CEREAL LTD INCL VAT GROUP,,(ROAD HAULAGE CONTRS) LTD,BOW BRIDGE,WATERINGBURY,MAIDSTONE,KENT,ME18 5ED,1,47599,14134,14401,27367102,0,27367102,27367102,0,0.559758155
1100000253,9999999999,GBBROWN,,1 HAWRIDGE HILL COTTAGES,THE VALE,HAWRIDGE,CHESHAM BUCKINGHAMSHIRE,,HP5 3NU ,1,45112,69,69,141,141,0,0,0,0.109662018
1100000254,9999999999,ADLIING SOLUTIONS LTD,,1 HAZELWOOD LANE,ABBOTS LANGLEY,,,,WD5 0HA ,3,45190,69,68,168,168,0,0,0,0.638511576
1100000255,9999999999,WMILITED,,1 BARRASCROFTS,CANONBIE,,,,DG14 0RZ,1,45200,69,68,124,124,0,0,0,0.09566439
1100000256,9999999999,ASOT(CHRISTCHURCH) LIMITED,,1 GARTH EDGE,SHAWFORTH,WHITWORTH,ROCHDALE LANCASHIRE,,OL12 8EH,2,45320,68,68,75,75,0,0,0,0.509324065
1100000257,9999999999,AER,,1 GEORGE SQUARE,GLASGOW,,,,G2 5LL  ,1,45400,69,69,174,174,0,0,0,0.147794084
1100000258,9999999999,AER,,1 GLEN ROAD,HINDHEAD,SURREY,,,GU26 6QE,1,46110,69,69,365,365,0,0,0,0.588726774
1100000259,9999999999,NOCTRACTS UK LTD,,1 GLYNDE PLACE,HORSHAM,WEST SUSSEX,,,RH12 1NZ,1,46120,70,70,355,355,0,0,0,0.155672644
1100000260,9999999999,BARE,,1 GORSE ROAD,REYDON,SOUTHWOLD,,,IP18 6NQ,1,46130,71,71,265,265,0,0,0,0.446897457
1100000261,9999999999,ARR,,1 GRANVILLE AVENUE,LONG EATON,NOTTINGHAM,,,NG10 4HA,1,46140,69,69,86,86,0,0,0,0.847336788
1100000262,9999999999,J&WALTON,,1 GRANVILLE AVENUE,LONG EATON,NOTTINGHAM,,,NG10 4HA,1,46150,70,70,140,140,0,0,0,0.548629272
1100000263,9999999999,MCFLINT,,1 GARENDON WAY,GROBY,LEICESTER,,,LE6 0YR ,1,46160,69,68,468,468,0,0,0,0.269096727
1100000264,9999999999,AITRN,,1 GRAVES FARM,ALGARKIRK,BOSTON,LINCOLNSHIRE,LINCS,PE20 2BQ,2,46170,69,68,73,73,0,0,0,0.395834262
1100000265,9999999999,ABMUING/HEATING & MAINTENANCE,,1 GREEN COTTAGES,WATFORD ROAD,HARROW,MIDDLESEX,,HA1 3TS ,2,46180,68,68,69,0,0,0,69,0.763411664
1100000266,9999999999,ABMUING/HEATING AND,,1 GREENEND CLOSE,SPENCERS WOOD,READING,,,RG7 1EH ,1,46190,69,69,153,0,222,0,153,0.559519919
1100000267,9999999999,CALEPL,,1 GRESHAM STREET,LONDON,,,,EC2V 7BX,3,46210,68,68,105,105,0,0,0,0.921557127
1100000268,9999999999,RESVICES LTD,,1 GREY TERRACE,RYHOPE,SUNDERLAND,,,SR2 0QT ,1,46220,70,70,300,300,0,0,0,0.592472131
1100000269,9999999999,TIKCHENS LTD,,1 GREY TERRACE,SUNDERLAND,,,,SR2 0QT ,1,46230,69,69,557,557,0,0,0,0.01415258
1100000270,9999999999,ANOLLIMITED,,1 GROVE LODGE COTTAGES,BINSTED,ARUNDEL,WEST SUSSEX,,BN18 0LQ,1,46342,71,71,974,974,0,0,0,0.131388519
1100000271,9999999999,DASI,,1 HATHERMEAD GARDEN,YEOVIL,SOMERSET,,,BA21 5BY,1,46240,69,68,102,102,0,0,0,0.45953444
1100000272,9999999999,2BIHPC DESIGN LTD,,1 BALLYCREGAGH ROAD,CLOUGHMILLS,BALLYMENA,,,BT44 9LB,1,46410,68,68,68,68,0,0,0,0.653803996
1100000273,9999999999,ALIVENGINEERING LTD,,1 LAWSON GARDENS,PINNER,MIDDLESEX,,,HA5 2BR ,2,46440,72,69,141,141,0,0,0,0.121961949
1100000274,9999999999,ANELTD,,1 KENT ROAD WEST,MANCHESTER,,,,M14 5RF ,2,46510,70,70,155,155,0,0,0,0.621892928
1100000275,9999999999,AWDAICK,,1 LAWN COTTAGES,NEWCASTLE,CRAVEN ARMS,SHROPSHIRE,,SY7 8PL ,3,46520,69,69,320,320,0,0,0,0.406143877
1100000276,9999999999,ASSUEX) LTD,,1 LANSDOWNE VILLAS,GOODLEIGH ROAD,BARNSTAPLE,DEVON,,EX32 7JR,2,46620,69,69,152,152,0,0,0,0.494891839
1100000277,9999999999,AFYRICS,,1 LITTLE JENKYN,HOLE LANE,BENTLEY,HAMPSHIRE,,GU10 5LU,2,46660,68,70,115,115,0,0,0,0.494825195
1100000278,9999999999,AWMHOLESALE LTD,,1 FREEWATERS CLOSE,ICKLEFORD,HITCHIN,,,SG5 3TQ ,2,46711,68,68,148,148,0,0,0,0.370126163
1100000279,9999999999,ASOT( CHRISTCHURCH ) LIMITED,,1 GARLING WALK,WEST BERGHOLT,COLCHESTER,,,CO6 3LG ,2,46720,69,68,163,163,0,0,0,0.07784677
1100000280,9999999999,NOCSULTANCY LTD,,1 LOWER BAR,NEWPORT,,,,TF10 7BE,2,46770,70,70,134,134,0,0,0,0.019564761
1100000281,9999999999,APMLUMBING AND HEATING LTD,,1 FINWAY ROAD,HEMEL HEMPSTEAD INDUSTRIAL EST,HEMEL HEMPSTEAD,,,HP2 7PT ,1,46900,69,68,167,167,0,0,0,0.350372866
1100000282,9999999999,ATBAREE LTD,,1 LENAMORE DRIVE,NEWTOWNABBEY,,,,BT37 0PQ,1,47110,70,70,112,112,0,0,0,0.588254436
1100000283,9999999999,JMHUGHES,,1 KINROSS ROAD,LESLIE,FIFE,,,KY6 3NE ,1,47190,72,72,247,247,0,0,0,0.769370549
1100000284,9999999999,WDTL,,1 BEARDS TERRACE,COGGESHALL,COLCHESTER,,,CO6 1TB ,1,47220,69,68,323,323,0,0,0,0.976052225
1100000285,9999999999,AESSX LTD,,1 LUMLEY STREET,LONDON,,,,W1K 6TT ,2,47240,72,72,178,178,0,0,0,0.706628701
1100000286,9999999999,JNWEATHERHEAD & J A KING,,1 HILLTOP,TILLINGTON,PETWORTH,,,GU28 9AQ,1,47300,75,75,182,182,0,0,0,0.659872546
1100000287,9999999999,AIDLNG & STEEL FABRIC,,1 LUMLEY STREET,MAYFAIR,LONDON,,,W1K 6TT ,2,47410,70,70,134,134,0,0,0,0.859567233
1100000288,9999999999,AEMWOODHOUSE,,1 FIELD COTTAGES,FIELD LANE,HENSALL,GOOLE NORTH HUMBERSIDE,,DN14 0RB,7,47421,71,70,443,443,0,0,0,0.95611472
1100000289,9999999999,ASUDTRIAL (UK) LTD,,1 LITTLE JENKYN,HOLE LANE,BENTLEY,HAMPSHIRE,,GU10 5LU,7,47429,72,71,244,244,0,0,0,0.095175064
1100000290,9999999999,APMLUMBING AND HEATING,,1 FINWAY ROAD,HEMEL HEMPSTEAD,HERTFORDSHIRE,,,HP2 7PT ,2,47429,69,68,87,87,0,0,0,0.229164677
1100000291,9999999999,AIDLNG & STEEL FABRICATION,,1 MAIN ROAD,HANWOOD,SHREWSBURY,SHROPSHIRE,,SY5 8LY ,1,47610,72,73,405,405,0,0,0,0.125115433
1100000292,9999999999,SIMCHIATI,,1 HIGH LODGE,COVENTRY ROAD,COLESHILL,NORTH WARWICKSHIRE,,B46 3FE ,1,47620,74,74,371,371,0,0,0,0.943762406
1100000293,9999999999,HATHLTD,,1 HILLVIEW COTTAGES,STRATFORD BRIDGE RIPPLE,TEWKESBURY,GLOUCESTERSHIRE,,GL20 6HE,1,47720,69,69,121,121,0,0,0,0.14303247
1100000294,9999999999,HKEATHER,,1 INMAN ROAD,NORWICH,,,,NR7 8JT ,1,47722,69,69,125,125,0,0,0,0.972168445
1100000295,9999999999,AEWSLL LIMITED,,1 KELSO PLACE,UPPER BRISTOL ROAD,BATH,,,BA1 3AU ,1,47740,71,71,264,264,0,0,0,0.048476303
1100000296,9999999999,ASUILTD,,1 JINGLERS COURT,BANBRIDGE,,,,BT32 3YJ,1,47749,73,74,278,278,0,0,0,0.82388836
1100000297,9999999999,ULPMBING & HEATING LTD,,1 JINGLERS COURT,BANBRIDGE,CO DOWN,,,BT32 3YJ,1,47781,72,104,292,292,0,0,0,0.300331638
1100000298,9999999999,AER,,1 GLYNDE PLACE,HORSHAM,,,,RH12 1NZ,1,47782,71,70,185,185,0,0,0,0.796852444
1100000299,9999999999,2CD,,1 BARN CLOSE,QUARNDON,DERBY,,,DE22 5JE,1,47789,69,68,132,132,0,0,0,0.086440927
1100000300,9999999999,JLMOORLAND,,1 HOSKINS PLACE,WATCHETTS ROAD,CAMBERLEY,SURREY,,GU15 2PB,1,47820,72,72,348,348,0,0,0,0.804599577
1100000301,9999999999,AELIR MAINTENANCE LIMITED,,1 JUNO WAY,SWINDON,,,,SN5 8ZD ,2,47990,69,69,372,372,0,0,0,0.1041543
1100000302,9999999999,AILINGS PARTITIONS LTD,,1 HUNT LANE,DONCASTER,,,,DN5 9SF ,7,45112,69,69,124,124,0,0,0,0.736300911
1100000303,9999999999,36LEVOPMENTS LTD,,1 BORLASES COTTAGES,MILLEY ROAD,WALTHAM ST LAWRENCE,READING,,RG10 0JY,1,45320,73,73,437,437,0,0,0,0.158256698
1100000304,9999999999,37DT,,1 BORLASES COTTAGES,MILLEY ROAD,WALTHAM ST LAWRENCE,READING,,RG10 0JY,1,45400,72,68,2218,2218,0,0,0,0.126721488
1100000305,9999999999,3DOBLX LTD,,1 BOXLEY GARDENS,BOXLEY ROAD,PENENDEN HEATH,MAIDSTONE,,ME14 2BD,1,45190,68,68,460,460,0,0,0,0.424174937
1100000306,9999999999,3DOBLX LTD,,1 BRAESIDE,NAPHILL,HIGH WYCOMBE,BUCKS,,HP14 4RY,1,46150,77,77,382,382,0,0,0,0.29847205
1100000307,9999999999,3VMIESRL LTD,,1 BRITTEN CLOSE,LANGDON HILLS,BASILDON,,,SS16 6TB,1,46190,69,69,8347,8347,0,0,0,0.823367967
1100000308,9999999999,C4EITS SERVICES LIMITED,,1 BRITTEN CLOSE,LANGDON HILLS,BASILDON,ESSEX,,SS16 6TB,1,46310,76,81,30338,30338,0,0,0,0.968285793
1100000309,9999999999,CCGOUGH,,1 FULLBROOK CLOSE,WOKINGHAM,BERKS,,,RG41 1QZ,1,46342,72,72,318,318,0,0,0,0.800106837
1100000310,9999999999,HKOLMES,,1 HILL STREET,EDINBURGH,,,,EH2 3JP ,1,46410,69,69,181,181,0,0,0,0.225837826
1100000311,9999999999,C4EITS SERVICES LTD,,1 BROOK COURT,BLAKENEY ROAD,BECKENHAM,KENT,,BR3 1HG ,1,46470,76,76,4634,4634,0,0,0,0.402775448
1100000312,9999999999,FAFTARMER CONTRACTOR,,1 HILL COTTAGE,MUNDHAM HILL,MUNDHAM,NORWICH NORFOLK,,NR14 6EJ,1,47110,71,73,479,479,0,0,0,0.875648421
1100000313,9999999999,ANELIMITED,,1 KENSWORTH GATE,200-204 HIGH STREET SOUTH,DUNSTABLE,BEDS,,LU6 3HS ,2,47230,71,71,156,156,0,0,0,0.974513984
1100000314,9999999999,HOJNSON,,1 KEYTES LANE,BARFORD,WARWICKSHIRE,,,CV35 8EP,2,47290,71,71,242,242,0,0,0,0.002487194
1100000315,9999999999, BOX CEREAL LTD INCL VAT GROUP,,(ROAD HAULAGE CONTRS) LTD,BOW BRIDGE,WATERINGBURY,MAIDSTONE,KENT,ME18 5ED,1,47599,14168,14435,27367136,0,27367136,27367136,0,0.55662476
1100000316,9999999999,BROWN,,1 HAWRIDGE HILL COTTAGES,THE VALE,HAWRIDGE,CHESHAM BUCKINGHAMSHIRE,,HP5 3NU ,1,45112,82,82,154,154,0,0,0,0.110664598
1100000317,9999999999,LIING SOLUTIONS LTD,,1 HAZELWOOD LANE,ABBOTS LANGLEY,,,,WD5 0HA ,3,45190,82,81,181,78,0,0,0,0.639514156
1100000318,9999999999,ILITED,,1 BARRASCROFTS,CANONBIE,,,,DG14 0RZ,1,45200,82,81,137,137,0,0,0,0.09666697
1100000319,9999999999,OT(CHRISTCHURCH) LIMITED,,1 GARTH EDGE,SHAWFORTH,WHITWORTH,ROCHDALE LANCASHIRE,,OL12 8EH,2,45320,81,81,88,88,0,0,0,0.510326645
1100000320,9999999999,R,,1 GEORGE SQUARE,GLASGOW,,,,G2 5LL  ,1,45400,82,82,187,187,0,0,0,0.148796664
1100000321,9999999999,R,,1 GLEN ROAD,HINDHEAD,SURREY,,,GU26 6QE,1,46110,82,82,378,378,0,0,0,0.589729354
1100000322,9999999999,CTRACTS UK LTD,,1 GLYNDE PLACE,HORSHAM,WEST SUSSEX,,,RH12 1NZ,1,46120,83,83,368,368,0,0,0,0.156675224
1100000323,9999999999,RE,,1 GORSE ROAD,REYDON,SOUTHWOLD,,,IP18 6NQ,1,46130,84,84,278,278,0,0,0,0.447900037
1100000324,9999999999,R,,1 GRANVILLE AVENUE,LONG EATON,NOTTINGHAM,,,NG10 4HA,1,46140,82,82,99,99,0,0,0,0.848339368
1100000325,9999999999,WALTON,,1 GRANVILLE AVENUE,LONG EATON,NOTTINGHAM,,,NG10 4HA,1,46150,83,83,153,153,0,0,0,0.549631852
1100000326,9999999999,FLINT,,1 GARENDON WAY,GROBY,LEICESTER,,,LE6 0YR ,1,46160,82,81,481,108,0,0,0,0.270099307
1100000327,9999999999,TRN,,1 GRAVES FARM,ALGARKIRK,BOSTON,LINCOLNSHIRE,LINCS,PE20 2BQ,2,46170,82,81,86,86,0,0,0,0.396836842
1100000328,9999999999,MUING/HEATING & MAINTENANCE,,1 GREEN COTTAGES,WATFORD ROAD,HARROW,MIDDLESEX,,HA1 3TS ,2,46180,81,81,82,0,0,0,82,0.764414244
1100000329,9999999999,MUING/HEATING AND,,1 GREENEND CLOSE,SPENCERS WOOD,READING,,,RG7 1EH ,1,46190,82,82,166,0,248,0,166,0.560522499
1100000330,9999999999,LEPL,,1 GRESHAM STREET,LONDON,,,,EC2V 7BX,3,46210,81,81,118,118,0,0,0,0.922559707
1100000331,9999999999,SVICES LTD,,1 GREY TERRACE,RYHOPE,SUNDERLAND,,,SR2 0QT ,1,46220,83,83,313,313,0,0,0,0.593474711
1100000332,9999999999,KCHENS LTD,,1 GREY TERRACE,SUNDERLAND,,,,SR2 0QT ,1,46230,82,82,570,570,0,0,0,0.01515516
1100000333,9999999999,OLLIMITED,,1 GROVE LODGE COTTAGES,BINSTED,ARUNDEL,WEST SUSSEX,,BN18 0LQ,1,46342,84,84,987,987,0,0,0,0.132391099
1100000334,9999999999,SI,,1 HATHERMEAD GARDEN,YEOVIL,SOMERSET,,,BA21 5BY,1,46240,82,81,115,115,0,0,0,0.46053702
1100000335,9999999999,IHPC DESIGN LTD,,1 BALLYCREGAGH ROAD,CLOUGHMILLS,BALLYMENA,,,BT44 9LB,1,46410,81,81,81,68,0,0,0,0.654806576
1100000336,9999999999,IVENGINEERING LTD,,1 LAWSON GARDENS,PINNER,MIDDLESEX,,,HA5 2BR ,2,46440,85,82,154,154,0,0,0,0.122964529
1100000337,9999999999,ELTD,,1 KENT ROAD WEST,MANCHESTER,,,,M14 5RF ,2,46510,83,83,168,168,0,0,0,0.622895508
1100000338,9999999999,DAICK,,1 LAWN COTTAGES,NEWCASTLE,CRAVEN ARMS,SHROPSHIRE,,SY7 8PL ,3,46520,82,82,333,333,0,0,0,0.407146457
1100000339,9999999999,SUEX) LTD,,1 LANSDOWNE VILLAS,GOODLEIGH ROAD,BARNSTAPLE,DEVON,,EX32 7JR,2,46620,82,82,165,165,0,0,0,0.495894419
1100000340,9999999999,YRICS,,1 LITTLE JENKYN,HOLE LANE,BENTLEY,HAMPSHIRE,,GU10 5LU,2,46660,81,83,128,128,0,0,0,0.495827775
1100000341,9999999999,MHOLESALE LTD,,1 FREEWATERS CLOSE,ICKLEFORD,HITCHIN,,,SG5 3TQ ,2,46711,81,81,161,161,0,0,0,0.371128743
1100000342,9999999999,OT( CHRISTCHURCH ) LIMITED,,1 GARLING WALK,WEST BERGHOLT,COLCHESTER,,,CO6 3LG ,2,46720,82,81,176,176,0,0,0,0.07884935
1100000343,9999999999,CSULTANCY LTD,,1 LOWER BAR,NEWPORT,,,,TF10 7BE,2,46770,83,83,147,147,0,0,0,0.020567341
1100000344,9999999999,MLUMBING AND HEATING LTD,,1 FINWAY ROAD,HEMEL HEMPSTEAD INDUSTRIAL EST,HEMEL HEMPSTEAD,,,HP2 7PT ,1,46900,82,81,180,180,0,0,0,0.351375446
1100000345,9999999999,BAREE LTD,,1 LENAMORE DRIVE,NEWTOWNABBEY,,,,BT37 0PQ,1,47110,83,83,125,125,0,0,0,0.589257016
1100000346,9999999999,HUGHES,,1 KINROSS ROAD,LESLIE,FIFE,,,KY6 3NE ,1,47190,85,85,260,260,0,0,0,0.770373129
1100000347,9999999999,TL,,1 BEARDS TERRACE,COGGESHALL,COLCHESTER,,,CO6 1TB ,1,47220,82,81,336,336,0,0,0,0.977054805
1100000348,9999999999,SSX LTD,,1 LUMLEY STREET,LONDON,,,,W1K 6TT ,2,47240,85,85,191,191,0,0,0,0.707631281
1100000349,9999999999,WEATHERHEAD & J A KING,,1 HILLTOP,TILLINGTON,PETWORTH,,,GU28 9AQ,1,47300,88,88,195,195,0,0,0,0.660875126
1100000350,9999999999,DLNG & STEEL FABRIC,,1 LUMLEY STREET,MAYFAIR,LONDON,,,W1K 6TT ,2,47410,83,83,147,147,0,0,0,0.860569813
1100000351,9999999999,MWOODHOUSE,,1 FIELD COTTAGES,FIELD LANE,HENSALL,GOOLE NORTH HUMBERSIDE,,DN14 0RB,7,47421,84,83,456,456,0,0,0,0.9571173
1100000352,9999999999,UDTRIAL (UK) LTD,,1 LITTLE JENKYN,HOLE LANE,BENTLEY,HAMPSHIRE,,GU10 5LU,7,47429,85,84,257,257,0,0,0,0.096177644
1100000353,9999999999,MLUMBING AND HEATING,,1 FINWAY ROAD,HEMEL HEMPSTEAD,HERTFORDSHIRE,,,HP2 7PT ,2,47429,82,81,100,100,0,0,0,0.230167257
1100000354,9999999999,DLNG & STEEL FABRICATION,,1 MAIN ROAD,HANWOOD,SHREWSBURY,SHROPSHIRE,,SY5 8LY ,1,47610,85,86,418,418,0,0,0,0.126118013
1100000355,9999999999,MCHIATI,,1 HIGH LODGE,COVENTRY ROAD,COLESHILL,NORTH WARWICKSHIRE,,B46 3FE ,1,47620,87,87,384,384,0,0,0,0.944764986
1100000356,9999999999,THLTD,,1 HILLVIEW COTTAGES,STRATFORD BRIDGE RIPPLE,TEWKESBURY,GLOUCESTERSHIRE,,GL20 6HE,1,47720,82,82,134,134,0,0,0,0.14403505
1100000357,9999999999,EATHER,,1 INMAN ROAD,NORWICH,,,,NR7 8JT ,1,47722,82,82,138,138,0,0,0,0.973171025
1100000358,9999999999,WSLL LIMITED,,1 KELSO PLACE,UPPER BRISTOL ROAD,BATH,,,BA1 3AU ,1,47740,84,84,277,277,0,0,0,0.049478883
1100000359,9999999999,UILTD,,1 JINGLERS COURT,BANBRIDGE,,,,BT32 3YJ,1,47749,86,87,291,291,0,0,0,0.82489094
1100000360,9999999999,PMBING & HEATING LTD,,1 JINGLERS COURT,BANBRIDGE,CO DOWN,,,BT32 3YJ,1,47781,85,117,305,305,0,0,0,0.301334218
1100000361,9999999999,R,,1 GLYNDE PLACE,HORSHAM,,,,RH12 1NZ,1,47782,84,83,198,68,0,0,0,0.797855024
1100000362,9999999999,D,,1 BARN CLOSE,QUARNDON,DERBY,,,DE22 5JE,1,47789,82,81,145,145,0,0,0,0.087443507
1100000363,9999999999,MOORLAND,,1 HOSKINS PLACE,WATCHETTS ROAD,CAMBERLEY,SURREY,,GU15 2PB,1,47820,85,85,361,361,0,0,0,0.805602157
1100000364,9999999999,LIR MAINTENANCE LIMITED,,1 JUNO WAY,SWINDON,,,,SN5 8ZD ,2,47990,82,82,385,385,0,0,0,0.10515688
1100000365,9999999999,LINGS PARTITIONS LTD,,1 HUNT LANE,DONCASTER,,,,DN5 9SF ,7,45112,82,82,137,137,0,0,0,0.737303491
1100000366,9999999999,LEVOPMENTS LTD,,1 BORLASES COTTAGES,MILLEY ROAD,WALTHAM ST LAWRENCE,READING,,RG10 0JY,1,45320,86,86,450,450,0,0,0,0.159259278
1100000367,9999999999,DT,,1 BORLASES COTTAGES,MILLEY ROAD,WALTHAM ST LAWRENCE,READING,,RG10 0JY,1,45400,85,81,2231,2231,0,0,0,0.127724068
1100000368,9999999999,OBLX LTD,,1 BOXLEY GARDENS,BOXLEY ROAD,PENENDEN HEATH,MAIDSTONE,,ME14 2BD,1,45190,81,81,473,473,0,0,0,0.425177517
1100000369,9999999999,OBLX LTD,,1 BRAESIDE,NAPHILL,HIGH WYCOMBE,BUCKS,,HP14 4RY,1,46150,90,90,395,395,0,0,0,0.29947463
1100000370,9999999999,MIESRL LTD,,1 BRITTEN CLOSE,LANGDON HILLS,BASILDON,,,SS16 6TB,1,46190,82,82,8360,8360,0,0,0,0.824370547
1100000371,9999999999,EITS SERVICES LIMITED,,1 BRITTEN CLOSE,LANGDON HILLS,BASILDON,ESSEX,,SS16 6TB,1,46310,89,94,30351,30351,0,0,0,0.969288373
1100000372,9999999999,GOUGH,,1 FULLBROOK CLOSE,WOKINGHAM,BERKS,,,RG41 1QZ,1,46342,85,85,331,331,0,0,0,0.801109417
1100000373,9999999999,OLMES,,1 HILL STREET,EDINBURGH,,,,EH2 3JP ,1,46410,82,82,194,194,0,0,0,0.226840406
1100000374,9999999999,EITS SERVICES LTD,,1 BROOK COURT,BLAKENEY ROAD,BECKENHAM,KENT,,BR3 1HG ,1,46470,89,89,4647,4647,0,0,0,0.403778028
1100000375,9999999999,FTARMER CONTRACTOR,,1 HILL COTTAGE,MUNDHAM HILL,MUNDHAM,NORWICH NORFOLK,,NR14 6EJ,1,47110,84,86,492,492,0,0,0,0.876651001
1100000376,9999999999,ELIMITED,,1 KENSWORTH GATE,200-204 HIGH STREET SOUTH,DUNSTABLE,BEDS,,LU6 3HS ,2,47230,84,84,169,169,0,0,0,0.975516564
1100000377,9999999999,JNSON,,1 KEYTES LANE,BARFORD,WARWICKSHIRE,,,CV35 8EP,2,47290,84,84,255,255,0,0,0,0.003489774
1100000378,9999999999,OX CEREAL LTD INCL VAT GROUP,,(ROAD HAULAGE CONTRS) LTD,BOW BRIDGE,WATERINGBURY,MAIDSTONE,KENT,ME18 5ED,1,47599,14181,14448,27367149,0,27367149,27367149,0,0.55762734
1100000379,9999999999,BBROWN,,1 HAWRIDGE HILL COTTAGES,THE VALE,HAWRIDGE,CHESHAM BUCKINGHAMSHIRE,,HP5 3NU ,1,45112,90,90,162,162,0,0,0,0.111818019
1100000380,9999999999,DLIING SOLUTIONS LTD,,1 HAZELWOOD LANE,ABBOTS LANGLEY,,,,WD5 0HA ,3,45190,90,89,189,189,0,0,0,0.640667577
1100000381,9999999999,MILITED,,1 BARRASCROFTS,CANONBIE,,,,DG14 0RZ,1,45200,90,89,145,145,0,0,0,0.097820391
1100000382,9999999999,SOT(CHRISTCHURCH) LIMITED,,1 GARTH EDGE,SHAWFORTH,WHITWORTH,ROCHDALE LANCASHIRE,,OL12 8EH,2,45320,89,89,96,96,0,0,0,0.511480066
1100000383,9999999999,ER,,1 GEORGE SQUARE,GLASGOW,,,,G2 5LL  ,1,45400,90,90,195,195,0,0,0,0.149950085
1100000384,9999999999,ER,,1 GLEN ROAD,HINDHEAD,SURREY,,,GU26 6QE,1,46110,90,90,386,386,0,0,0,0.590882775
1100000385,9999999999,OCTRACTS UK LTD,,1 GLYNDE PLACE,HORSHAM,WEST SUSSEX,,,RH12 1NZ,1,46120,91,91,376,376,0,0,0,0.157828645
1100000386,9999999999,ARE,,1 GORSE ROAD,REYDON,SOUTHWOLD,,,IP18 6NQ,1,46130,92,92,286,286,0,0,0,0.449053458
1100000387,9999999999,RR,,1 GRANVILLE AVENUE,LONG EATON,NOTTINGHAM,,,NG10 4HA,1,46140,90,90,107,107,0,0,0,0.849492789
1100000388,9999999999,&WALTON,,1 GRANVILLE AVENUE,LONG EATON,NOTTINGHAM,,,NG10 4HA,1,46150,91,91,161,161,0,0,0,0.550785273
1100000389,9999999999,CFLINT,,1 GARENDON WAY,GROBY,LEICESTER,,,LE6 0YR ,1,46160,90,89,489,489,0,0,0,0.271252728
1100000390,9999999999,ITRN,,1 GRAVES FARM,ALGARKIRK,BOSTON,LINCOLNSHIRE,LINCS,PE20 2BQ,2,46170,90,89,94,94,0,0,0,0.397990263
1100000391,9999999999,BMUING/HEATING & MAINTENANCE,,1 GREEN COTTAGES,WATFORD ROAD,HARROW,MIDDLESEX,,HA1 3TS ,2,46180,89,89,90,0,0,0,90,0.765567665
1100000392,9999999999,BMUING/HEATING AND,,1 GREENEND CLOSE,SPENCERS WOOD,READING,,,RG7 1EH ,1,46190,90,90,106,0,196,0,106,0.56167592
1100000393,9999999999,ALEPL,,1 GRESHAM STREET,LONDON,,,,EC2V 7BX,3,46210,89,89,126,126,0,0,0,0.923713128
1100000394,9999999999,ESVICES LTD,,1 GREY TERRACE,RYHOPE,SUNDERLAND,,,SR2 0QT ,1,46220,91,91,321,321,0,0,0,0.594628132
1100000395,9999999999,IKCHENS LTD,,1 GREY TERRACE,SUNDERLAND,,,,SR2 0QT ,1,46230,90,90,578,578,0,0,0,0.016308581
1100000396,9999999999,NOLLIMITED,,1 GROVE LODGE COTTAGES,BINSTED,ARUNDEL,WEST SUSSEX,,BN18 0LQ,1,46342,92,92,995,995,0,0,0,0.13354452
1100000397,9999999999,ASI,,1 HATHERMEAD GARDEN,YEOVIL,SOMERSET,,,BA21 5BY,1,46240,90,89,123,123,0,0,0,0.461690441
1100000398,9999999999,BIHPC DESIGN LTD,,1 BALLYCREGAGH ROAD,CLOUGHMILLS,BALLYMENA,,,BT44 9LB,1,46410,89,89,89,89,0,0,0,0.655959997
1100000399,9999999999,LIVENGINEERING LTD,,1 LAWSON GARDENS,PINNER,MIDDLESEX,,,HA5 2BR ,2,46440,93,90,162,162,0,0,0,0.12411795
1100000400,9999999999,NELTD,,1 KENT ROAD WEST,MANCHESTER,,,,M14 5RF ,2,46510,91,91,176,176,0,0,0,0.624048929
1100000401,9999999999,WDAICK,,1 LAWN COTTAGES,NEWCASTLE,CRAVEN ARMS,SHROPSHIRE,,SY7 8PL ,3,46520,90,90,341,341,0,0,0,0.408299878
1100000402,9999999999,SSUEX) LTD,,1 LANSDOWNE VILLAS,GOODLEIGH ROAD,BARNSTAPLE,DEVON,,EX32 7JR,2,46620,90,90,173,173,0,0,0,0.49704784
1100000403,9999999999,FYRICS,,1 LITTLE JENKYN,HOLE LANE,BENTLEY,HAMPSHIRE,,GU10 5LU,2,46660,89,91,136,136,0,0,0,0.496981196
1100000404,9999999999,WMHOLESALE LTD,,1 FREEWATERS CLOSE,ICKLEFORD,HITCHIN,,,SG5 3TQ ,2,46711,89,89,169,169,0,0,0,0.372282164
1100000405,9999999999,SOT( CHRISTCHURCH ) LIMITED,,1 GARLING WALK,WEST BERGHOLT,COLCHESTER,,,CO6 3LG ,2,46720,90,89,184,184,0,0,0,0.080002771
1100000406,9999999999,OCSULTANCY LTD,,1 LOWER BAR,NEWPORT,,,,TF10 7BE,2,46770,91,91,155,155,0,0,0,0.021720762
1100000407,9999999999,PMLUMBING AND HEATING LTD,,1 FINWAY ROAD,HEMEL HEMPSTEAD INDUSTRIAL EST,HEMEL HEMPSTEAD,,,HP2 7PT ,1,46900,90,89,188,188,0,0,0,0.352528867
1100000408,9999999999,TBAREE LTD,,1 LENAMORE DRIVE,NEWTOWNABBEY,,,,BT37 0PQ,1,47110,91,91,133,133,0,0,0,0.590410437
1100000409,9999999999,MHUGHES,,1 KINROSS ROAD,LESLIE,FIFE,,,KY6 3NE ,1,47190,93,93,268,268,0,0,0,0.77152655
1100000410,9999999999,DTL,,1 BEARDS TERRACE,COGGESHALL,COLCHESTER,,,CO6 1TB ,1,47220,90,89,344,344,0,0,0,0.978208226
1100000411,9999999999,ESSX LTD,,1 LUMLEY STREET,LONDON,,,,W1K 6TT ,2,47240,93,93,199,199,0,0,0,0.708784702
1100000412,9999999999,NWEATHERHEAD & J A KING,,1 HILLTOP,TILLINGTON,PETWORTH,,,GU28 9AQ,1,47300,96,96,203,203,0,0,0,0.662028547
1100000413,9999999999,IDLNG & STEEL FABRIC,,1 LUMLEY STREET,MAYFAIR,LONDON,,,W1K 6TT ,2,47410,91,91,155,155,0,0,0,0.861723234
1100000414,9999999999,EMWOODHOUSE,,1 FIELD COTTAGES,FIELD LANE,HENSALL,GOOLE NORTH HUMBERSIDE,,DN14 0RB,7,47421,92,91,464,464,0,0,0,0.958270721
1100000415,9999999999,SUDTRIAL (UK) LTD,,1 LITTLE JENKYN,HOLE LANE,BENTLEY,HAMPSHIRE,,GU10 5LU,7,47429,93,92,265,265,0,0,0,0.097331065
1100000416,9999999999,PMLUMBING AND HEATING,,1 FINWAY ROAD,HEMEL HEMPSTEAD,HERTFORDSHIRE,,,HP2 7PT ,2,47429,90,89,108,108,0,0,0,0.231320678
1100000417,9999999999,IDLNG & STEEL FABRICATION,,1 MAIN ROAD,HANWOOD,SHREWSBURY,SHROPSHIRE,,SY5 8LY ,1,47610,93,94,426,426,0,0,0,0.127271434
1100000418,9999999999,IMCHIATI,,1 HIGH LODGE,COVENTRY ROAD,COLESHILL,NORTH WARWICKSHIRE,,B46 3FE ,1,47620,95,95,392,392,0,0,0,0.945918407
1100000419,9999999999,ATHLTD,,1 HILLVIEW COTTAGES,STRATFORD BRIDGE RIPPLE,TEWKESBURY,GLOUCESTERSHIRE,,GL20 6HE,1,47720,90,90,142,142,0,0,0,0.145188471
1100000420,9999999999,KEATHER,,1 INMAN ROAD,NORWICH,,,,NR7 8JT ,1,47722,90,90,146,146,0,0,0,0.974324446
1100000421,9999999999,EWSLL LIMITED,,1 KELSO PLACE,UPPER BRISTOL ROAD,BATH,,,BA1 3AU ,1,47740,92,92,285,285,0,0,0,0.050632304
1100000422,9999999999,SUILTD,,1 JINGLERS COURT,BANBRIDGE,,,,BT32 3YJ,1,47749,94,95,299,299,0,0,0,0.826044361
1100000423,9999999999,LPMBING & HEATING LTD,,1 JINGLERS COURT,BANBRIDGE,CO DOWN,,,BT32 3YJ,1,47781,93,125,313,313,0,0,0,0.302487639
1100000424,9999999999,ER,,1 GLYNDE PLACE,HORSHAM,,,,RH12 1NZ,1,47782,92,91,206,206,0,0,0,0.799008445
1100000425,9999999999,CD,,1 BARN CLOSE,QUARNDON,DERBY,,,DE22 5JE,1,47789,90,89,153,153,0,0,0,0.088596928
1100000426,9999999999,LMOORLAND,,1 HOSKINS PLACE,WATCHETTS ROAD,CAMBERLEY,SURREY,,GU15 2PB,1,47820,93,93,369,369,0,0,0,0.806755578
1100000427,9999999999,ELIR MAINTENANCE LIMITED,,1 JUNO WAY,SWINDON,,,,SN5 8ZD ,2,47990,90,90,393,393,0,0,0,0.106310301
1100000428,9999999999,ILINGS PARTITIONS LTD,,1 HUNT LANE,DONCASTER,,,,DN5 9SF ,7,45112,90,90,145,145,0,0,0,0.738456912
1100000429,9999999999,6LEVOPMENTS LTD,,1 BORLASES COTTAGES,MILLEY ROAD,WALTHAM ST LAWRENCE,READING,,RG10 0JY,1,45320,94,94,458,458,0,0,0,0.160412699
1100000430,9999999999,7DT,,1 BORLASES COTTAGES,MILLEY ROAD,WALTHAM ST LAWRENCE,READING,,RG10 0JY,1,45400,93,89,2239,2239,0,0,0,0.128877489
1100000431,9999999999,DOBLX LTD,,1 BOXLEY GARDENS,BOXLEY ROAD,PENENDEN HEATH,MAIDSTONE,,ME14 2BD,1,45190,89,89,481,481,0,0,0,0.426330938
1100000432,9999999999,DOBLX LTD,,1 BRAESIDE,NAPHILL,HIGH WYCOMBE,BUCKS,,HP14 4RY,1,46150,98,98,403,403,0,0,0,0.300628051
1100000433,9999999999,VMIESRL LTD,,1 BRITTEN CLOSE,LANGDON HILLS,BASILDON,,,SS16 6TB,1,46190,90,90,8368,8368,0,0,0,0.825523968
1100000434,9999999999,4EITS SERVICES LIMITED,,1 BRITTEN CLOSE,LANGDON HILLS,BASILDON,ESSEX,,SS16 6TB,1,46310,97,102,30359,30359,0,0,0,0.970441794
1100000435,9999999999,CGOUGH,,1 FULLBROOK CLOSE,WOKINGHAM,BERKS,,,RG41 1QZ,1,46342,93,93,339,339,0,0,0,0.802262838
1100000436,9999999999,KOLMES,,1 HILL STREET,EDINBURGH,,,,EH2 3JP ,1,46410,90,90,202,202,0,0,0,0.227993827
1100000437,9999999999,4EITS SERVICES LTD,,1 BROOK COURT,BLAKENEY ROAD,BECKENHAM,KENT,,BR3 1HG ,1,46470,97,97,4655,4655,0,0,0,0.404931449
1100000438,9999999999,AFTARMER CONTRACTOR,,1 HILL COTTAGE,MUNDHAM HILL,MUNDHAM,NORWICH NORFOLK,,NR14 6EJ,1,47110,92,94,500,500,0,0,0,0.877804422
1100000439,9999999999,NELIMITED,,1 KENSWORTH GATE,200-204 HIGH STREET SOUTH,DUNSTABLE,BEDS,,LU6 3HS ,2,47230,92,92,177,177,0,0,0,0.976669985
1100000440,9999999999,OJNSON,,1 KEYTES LANE,BARFORD,WARWICKSHIRE,,,CV35 8EP,2,47290,92,92,263,263,0,0,0,0.004643195
1100000441,9999999999,BOX CEREAL LTD INCL VAT GROUP,,(ROAD HAULAGE CONTRS) LTD,BOW BRIDGE,WATERINGBURY,MAIDSTONE,KENT,ME18 5ED,1,47599,14189,14456,27367157,0,27367157,27367157,0,0.558780761
1100000442,9999999999,BBROWN,,1 HAWRIDGE HILL COTTAGES,THE VALE,HAWRIDGE,CHESHAM BUCKINGHAMSHIRE,,HP5 3NU ,1,45112,103,103,175,175,0,0,0,0.112820599
1100000443,9999999999,DLIING SOLUTIONS LTD,,1 HAZELWOOD LANE,ABBOTS LANGLEY,,,,WD5 0HA ,3,45190,103,102,202,99,0,0,0,0.641670157
1100000444,9999999999,MILITED,,1 BARRASCROFTS,CANONBIE,,,,DG14 0RZ,1,45200,103,102,158,158,0,0,0,0.098822971
1100000445,9999999999,SOT(CHRISTCHURCH) LIMITED,,1 GARTH EDGE,SHAWFORTH,WHITWORTH,ROCHDALE LANCASHIRE,,OL12 8EH,2,45320,102,102,109,109,0,0,0,0.512482646
1100000446,9999999999,ER,,1 GEORGE SQUARE,GLASGOW,,,,G2 5LL  ,1,45400,103,103,208,208,0,0,0,0.150952665
1100000447,9999999999,ER,,1 GLEN ROAD,HINDHEAD,SURREY,,,GU26 6QE,1,46110,103,103,399,399,0,0,0,0.591885355
1100000448,9999999999,OCTRACTS UK LTD,,1 GLYNDE PLACE,HORSHAM,WEST SUSSEX,,,RH12 1NZ,1,46120,104,104,389,389,0,0,0,0.158831225
1100000449,9999999999,ARE,,1 GORSE ROAD,REYDON,SOUTHWOLD,,,IP18 6NQ,1,46130,105,105,299,299,0,0,0,0.450056038
1100000450,9999999999,RR,,1 GRANVILLE AVENUE,LONG EATON,NOTTINGHAM,,,NG10 4HA,1,46140,103,103,120,120,0,0,0,0.850495369
1100000451,9999999999,&WALTON,,1 GRANVILLE AVENUE,LONG EATON,NOTTINGHAM,,,NG10 4HA,1,46150,104,104,174,174,0,0,0,0.551787853
1100000452,9999999999,CFLINT,,1 GARENDON WAY,GROBY,LEICESTER,,,LE6 0YR ,1,46160,103,102,502,129,0,0,0,0.272255308
1100000453,9999999999,ITRN,,1 GRAVES FARM,ALGARKIRK,BOSTON,LINCOLNSHIRE,LINCS,PE20 2BQ,2,46170,103,102,107,107,0,0,0,0.398992843
1100000454,9999999999,BMUING/HEATING & MAINTENANCE,,1 GREEN COTTAGES,WATFORD ROAD,HARROW,MIDDLESEX,,HA1 3TS ,2,46180,102,102,103,0,0,0,103,0.766570245
1100000455,9999999999,BMUING/HEATING AND,,1 GREENEND CLOSE,SPENCERS WOOD,READING,,,RG7 1EH ,1,46190,103,103,187,0,290,0,187,0.5626785
1100000456,9999999999,ALEPL,,1 GRESHAM STREET,LONDON,,,,EC2V 7BX,3,46210,102,102,139,139,0,0,0,0.924715708
1100000457,9999999999,ESVICES LTD,,1 GREY TERRACE,RYHOPE,SUNDERLAND,,,SR2 0QT ,1,46220,104,104,334,334,0,0,0,0.595630712
1100000458,9999999999,IKCHENS LTD,,1 GREY TERRACE,SUNDERLAND,,,,SR2 0QT ,1,46230,103,103,591,591,0,0,0,0.017311161
1100000459,9999999999,NOLLIMITED,,1 GROVE LODGE COTTAGES,BINSTED,ARUNDEL,WEST SUSSEX,,BN18 0LQ,1,46342,105,105,1008,1008,0,0,0,0.1345471
1100000460,9999999999,ASI,,1 HATHERMEAD GARDEN,YEOVIL,SOMERSET,,,BA21 5BY,1,46240,103,102,136,136,0,0,0,0.462693021
1100000461,9999999999,BIHPC DESIGN LTD,,1 BALLYCREGAGH ROAD,CLOUGHMILLS,BALLYMENA,,,BT44 9LB,1,46410,102,102,102,89,0,0,0,0.656962577
1100000462,9999999999,LIVENGINEERING LTD,,1 LAWSON GARDENS,PINNER,MIDDLESEX,,,HA5 2BR ,2,46440,106,103,175,175,0,0,0,0.12512053
1100000463,9999999999,NELTD,,1 KENT ROAD WEST,MANCHESTER,,,,M14 5RF ,2,46510,104,104,189,189,0,0,0,0.625051509
1100000464,9999999999,WDAICK,,1 LAWN COTTAGES,NEWCASTLE,CRAVEN ARMS,SHROPSHIRE,,SY7 8PL ,3,46520,103,103,354,354,0,0,0,0.409302458
1100000465,9999999999,SSUEX) LTD,,1 LANSDOWNE VILLAS,GOODLEIGH ROAD,BARNSTAPLE,DEVON,,EX32 7JR,2,46620,103,103,186,186,0,0,0,0.49805042
1100000466,9999999999,FYRICS,,1 LITTLE JENKYN,HOLE LANE,BENTLEY,HAMPSHIRE,,GU10 5LU,2,46660,102,104,149,149,0,0,0,0.497983776
1100000467,9999999999,WMHOLESALE LTD,,1 FREEWATERS CLOSE,ICKLEFORD,HITCHIN,,,SG5 3TQ ,2,46711,102,102,182,182,0,0,0,0.373284744
1100000468,9999999999,SOT( CHRISTCHURCH ) LIMITED,,1 GARLING WALK,WEST BERGHOLT,COLCHESTER,,,CO6 3LG ,2,46720,103,102,197,197,0,0,0,0.081005351
1100000469,9999999999,OCSULTANCY LTD,,1 LOWER BAR,NEWPORT,,,,TF10 7BE,2,46770,104,104,168,168,0,0,0,0.022723342
1100000470,9999999999,PMLUMBING AND HEATING LTD,,1 FINWAY ROAD,HEMEL HEMPSTEAD INDUSTRIAL EST,HEMEL HEMPSTEAD,,,HP2 7PT ,1,46900,103,102,201,201,0,0,0,0.353531447
1100000471,9999999999,TBAREE LTD,,1 LENAMORE DRIVE,NEWTOWNABBEY,,,,BT37 0PQ,1,47110,104,104,146,146,0,0,0,0.591413017
1100000472,9999999999,MHUGHES,,1 KINROSS ROAD,LESLIE,FIFE,,,KY6 3NE ,1,47190,106,106,281,281,0,0,0,0.77252913
1100000473,9999999999,DTL,,1 BEARDS TERRACE,COGGESHALL,COLCHESTER,,,CO6 1TB ,1,47220,103,102,357,357,0,0,0,0.979210816
1100000474,9999999999,ESSX LTD,,1 LUMLEY STREET,LONDON,,,,W1K 6TT ,2,47240,106,106,212,212,0,0,0,0.709787282
1100000475,9999999999,NWEATHERHEAD & J A KING,,1 HILLTOP,TILLINGTON,PETWORTH,,,GU28 9AQ,1,47300,109,109,216,216,0,0,0,0.663031127
1100000476,9999999999,IDLNG & STEEL FABRIC,,1 LUMLEY STREET,MAYFAIR,LONDON,,,W1K 6TT ,2,47410,104,104,168,168,0,0,0,0.862725814
1100000477,9999999999,EMWOODHOUSE,,1 FIELD COTTAGES,FIELD LANE,HENSALL,GOOLE NORTH HUMBERSIDE,,DN14 0RB,7,47421,105,104,477,477,0,0,0,0.959273301
1100000478,9999999999,SUDTRIAL (UK) LTD,,1 LITTLE JENKYN,HOLE LANE,BENTLEY,HAMPSHIRE,,GU10 5LU,7,47429,106,105,278,278,0,0,0,0.098333645
1100000479,9999999999,PMLUMBING AND HEATING,,1 FINWAY ROAD,HEMEL HEMPSTEAD,HERTFORDSHIRE,,,HP2 7PT ,2,47429,103,102,121,121,0,0,0,0.232323258
1100000480,9999999999,IDLNG & STEEL FABRICATION,,1 MAIN ROAD,HANWOOD,SHREWSBURY,SHROPSHIRE,,SY5 8LY ,1,47610,106,107,439,439,0,0,0,0.128274014
1100000481,9999999999,IMCHIATI,,1 HIGH LODGE,COVENTRY ROAD,COLESHILL,NORTH WARWICKSHIRE,,B46 3FE ,1,47620,108,108,405,405,0,0,0,0.946920987
1100000482,9999999999,ATHLTD,,1 HILLVIEW COTTAGES,STRATFORD BRIDGE RIPPLE,TEWKESBURY,GLOUCESTERSHIRE,,GL20 6HE,1,47720,103,103,155,155,0,0,0,0.146191051
1100000483,9999999999,KEATHER,,1 INMAN ROAD,NORWICH,,,,NR7 8JT ,1,47722,103,103,159,159,0,0,0,0.975327026
1100000484,9999999999,EWSLL LIMITED,,1 KELSO PLACE,UPPER BRISTOL ROAD,BATH,,,BA1 3AU ,1,47740,105,105,298,298,0,0,0,0.051634884
1100000485,9999999999,SUILTD,,1 JINGLERS COURT,BANBRIDGE,,,,BT32 3YJ,1,47749,107,108,312,312,0,0,0,0.827046941
1100000486,9999999999,LPMBING & HEATING LTD,,1 JINGLERS COURT,BANBRIDGE,CO DOWN,,,BT32 3YJ,1,47781,106,138,326,326,0,0,0,0.303490219
1100000487,9999999999,ER,,1 GLYNDE PLACE,HORSHAM,,,,RH12 1NZ,1,47782,105,104,219,89,0,0,0,0.800011025
1100000488,9999999999,CD,,1 BARN CLOSE,QUARNDON,DERBY,,,DE22 5JE,1,47789,103,102,166,166,0,0,0,0.089599508
1100000489,9999999999,LMOORLAND,,1 HOSKINS PLACE,WATCHETTS ROAD,CAMBERLEY,SURREY,,GU15 2PB,1,47820,106,106,382,382,0,0,0,0.807758158
1100000490,9999999999,ELIR MAINTENANCE LIMITED,,1 JUNO WAY,SWINDON,,,,SN5 8ZD ,2,47990,103,103,406,406,0,0,0,0.107312881
1100000491,9999999999,ILINGS PARTITIONS LTD,,1 HUNT LANE,DONCASTER,,,,DN5 9SF ,7,45112,103,103,158,158,0,0,0,0.739459492
1100000492,9999999999,6LEVOPMENTS LTD,,1 BORLASES COTTAGES,MILLEY ROAD,WALTHAM ST LAWRENCE,READING,,RG10 0JY,1,45320,107,107,471,471,0,0,0,0.161415279
1100000493,9999999999,7DT,,1 BORLASES COTTAGES,MILLEY ROAD,WALTHAM ST LAWRENCE,READING,,RG10 0JY,1,45400,106,102,2252,2252,0,0,0,0.129880069
1100000494,9999999999,DOBLX LTD,,1 BOXLEY GARDENS,BOXLEY ROAD,PENENDEN HEATH,MAIDSTONE,,ME14 2BD,1,45190,102,102,494,494,0,0,0,0.427333518
1100000495,9999999999,DOBLX LTD,,1 BRAESIDE,NAPHILL,HIGH WYCOMBE,BUCKS,,HP14 4RY,1,46150,111,111,416,416,0,0,0,0.301630631
1100000496,9999999999,VMIESRL LTD,,1 BRITTEN CLOSE,LANGDON HILLS,BASILDON,,,SS16 6TB,1,46190,103,103,8381,8381,0,0,0,0.826526548
1100000497,9999999999,4EITS SERVICES LIMITED,,1 BRITTEN CLOSE,LANGDON HILLS,BASILDON,ESSEX,,SS16 6TB,1,46310,110,115,30372,30372,0,0,0,0.971444374
1100000498,9999999999,CGOUGH,,1 FULLBROOK CLOSE,WOKINGHAM,BERKS,,,RG41 1QZ,1,46342,106,106,352,352,0,0,0,0.803265418
1100000499,9999999999,KOLMES,,1 HILL STREET,EDINBURGH,,,,EH2 3JP ,1,46410,103,103,215,215,0,0,0,0.228996407
1100000500,9999999999,4EITS SERVICES LTD,,1 BROOK COURT,BLAKENEY ROAD,BECKENHAM,KENT,,BR3 1HG ,1,46470,910,910,4668,4668,0,0,0,0.405934029
1100000501,9999999999,AFTARMER CONTRACTOR,,1 HILL COTTAGE,MUNDHAM HILL,MUNDHAM,NORWICH NORFOLK,,NR14 6EJ,1,47110,505,507,1513,1513,0,0,0,0.878807002
1100000502,9999999999,NELIMITED,,1 KENSWORTH GATE,200-204 HIGH STREET SOUTH,DUNSTABLE,BEDS,,LU6 3HS ,2,47230,1055,1055,19021,19021,0,0,0,0.977672565
1100000503,9999999999,OJNSON,,1 KEYTES LANE,BARFORD,WARWICKSHIRE,,,CV35 8EP,2,47290,1105,1105,27695,27695,0,0,0,0.005645775
1100000504,9999999999,BOX CEREAL LTD INCL VAT GROUP,,(ROAD HAULAGE CONTRS) LTD,BOW BRIDGE,WATERINGBURY,MAIDSTONE,KENT,ME18 5ED,1,47599,14202,14469,27367170,0,27367170,27367170,0,0.559783341
1100000505,9999999999,&EAGBBROWN,,1 HAWRIDGE HILL COTTAGES,THE VALE,HAWRIDGE,CHESHAM BUCKINGHAMSHIRE,,HP5 3NU ,1,45112,112,112,73,73,0,0,0,0.109636832
1100000506,9999999999,BUEADLIING SOLUTIONS LTD,,1 HAZELWOOD LANE,ABBOTS LANGLEY,,,,WD5 0HA ,3,45190,112,111,100,100,0,0,0,0.63848639
1100000507,9999999999,JO2WMILITED,,1 BARRASCROFTS,CANONBIE,,,,DG14 0RZ,1,45200,112,111,56,56,0,0,0,0.095639204
1100000508,9999999999,AUBASOT(CHRISTCHURCH) LIMITED,,1 GARTH EDGE,SHAWFORTH,WHITWORTH,ROCHDALE LANCASHIRE,,OL12 8EH,2,45320,111,111,7,7,0,0,0,0.509298879
1100000509,9999999999,HIBAER,,1 GEORGE SQUARE,GLASGOW,,,,G2 5LL  ,1,45400,112,112,106,106,0,0,0,0.147768898
1100000510,9999999999,HIBAER,,1 GLEN ROAD,HINDHEAD,SURREY,,,GU26 6QE,1,46110,112,112,297,297,0,0,0,0.588701588
1100000511,9999999999,IBANOCTRACTS UK LTD,,1 GLYNDE PLACE,HORSHAM,WEST SUSSEX,,,RH12 1NZ,1,46120,113,113,287,287,0,0,0,0.155647458
1100000512,9999999999,TLUBARE,,1 GORSE ROAD,REYDON,SOUTHWOLD,,,IP18 6NQ,1,46130,114,114,197,197,0,0,0,0.446872271
1100000513,9999999999,BUCARR,,1 GRANVILLE AVENUE,LONG EATON,NOTTINGHAM,,,NG10 4HA,1,46140,112,112,18,18,0,0,0,0.847311602
1100000514,9999999999,DCAJ&WALTON,,1 GRANVILLE AVENUE,LONG EATON,NOTTINGHAM,,,NG10 4HA,1,46150,113,113,72,72,0,0,0,0.548604086
1100000515,9999999999,&BAMCFLINT,,1 GARENDON WAY,GROBY,LEICESTER,,,LE6 0YR ,1,46160,112,111,400,400,0,0,0,0.269071541
1100000516,9999999999,MACAITRN,,1 GRAVES FARM,ALGARKIRK,BOSTON,LINCOLNSHIRE,LINCS,PE20 2BQ,2,46170,112,111,5,5,0,0,0,0.395809076
1100000517,9999999999,PLCABMUING/HEATING & MAINTENANCE,,1 GREEN COTTAGES,WATFORD ROAD,HARROW,MIDDLESEX,,HA1 3TS ,2,46180,111,111,1,0,0,0,1,0.763386478
1100000518,9999999999,PLCABMUING/HEATING AND,,1 GREENEND CLOSE,SPENCERS WOOD,READING,,,RG7 1EH ,1,46190,112,112,153,0,154,0,153,0.559494733
1100000519,9999999999,APHCALEPL,,1 GRESHAM STREET,LONDON,,,,EC2V 7BX,3,46210,111,111,37,37,0,0,0,0.921531941
1100000520,9999999999,IDARESVICES LTD,,1 GREY TERRACE,RYHOPE,SUNDERLAND,,,SR2 0QT ,1,46220,113,113,232,232,0,0,0,0.592446945
1100000521,9999999999,SDATIKCHENS LTD,,1 GREY TERRACE,SUNDERLAND,,,,SR2 0QT ,1,46230,112,112,489,489,0,0,0,0.014127394
1100000522,9999999999,SADANOLLIMITED,,1 GROVE LODGE COTTAGES,BINSTED,ARUNDEL,WEST SUSSEX,,BN18 0LQ,1,46342,114,114,906,906,0,0,0,0.131363333
1100000523,9999999999,NNEDASI,,1 HATHERMEAD GARDEN,YEOVIL,SOMERSET,,,BA21 5BY,1,46240,112,111,34,34,0,0,0,0.459509254
1100000524,9999999999,RAG2BIHPC DESIGN LTD,,1 BALLYCREGAGH ROAD,CLOUGHMILLS,BALLYMENA,,,BT44 9LB,1,46410,111,111,0,0,0,0,0,0.65377881
1100000525,9999999999,CIMALIVENGINEERING LTD,,1 LAWSON GARDENS,PINNER,MIDDLESEX,,,HA5 2BR ,2,46440,115,112,73,73,0,0,0,0.121936763
1100000526,9999999999,KEJANELTD,,1 KENT ROAD WEST,MANCHESTER,,,,M14 5RF ,2,46510,113,113,87,87,0,0,0,0.621867742
1100000527,9999999999,CHMAWDAICK,,1 LAWN COTTAGES,NEWCASTLE,CRAVEN ARMS,SHROPSHIRE,,SY7 8PL ,3,46520,112,112,252,252,0,0,0,0.406118691
1100000528,9999999999,(SMASSUEX) LTD,,1 LANSDOWNE VILLAS,GOODLEIGH ROAD,BARNSTAPLE,DEVON,,EX32 7JR,2,46620,112,112,84,84,0,0,0,0.494866653
1100000529,9999999999,HEMAFYRICS,,1 LITTLE JENKYN,HOLE LANE,BENTLEY,HAMPSHIRE,,GU10 5LU,2,46660,111,113,47,47,0,0,0,0.494800009
1100000530,9999999999,DNAAWMHOLESALE LTD,,1 FREEWATERS CLOSE,ICKLEFORD,HITCHIN,,,SG5 3TQ ,2,46711,111,111,80,80,0,0,0,0.370100977
1100000531,9999999999,AUBASOT( CHRISTCHURCH ) LIMITED,,1 GARLING WALK,WEST BERGHOLT,COLCHESTER,,,CO6 3LG ,2,46720,112,111,95,95,0,0,0,0.077821584
1100000532,9999999999,SMANOCSULTANCY LTD,,1 LOWER BAR,NEWPORT,,,,TF10 7BE,2,46770,113,113,66,66,0,0,0,0.019539575
1100000533,9999999999,DNAAPMLUMBING AND HEATING LTD,,1 FINWAY ROAD,HEMEL HEMPSTEAD INDUSTRIAL EST,HEMEL HEMPSTEAD,,,HP2 7PT ,1,46900,112,111,99,99,0,0,0,0.35034768
1100000534,9999999999,CRMATBAREE LTD,,1 LENAMORE DRIVE,NEWTOWNABBEY,,,,BT37 0PQ,1,47110,113,113,44,44,0,0,0,0.58822925
1100000543,9999999999,WEMAIDLNG & STEEL FABRICATION,,1 MAIN ROAD,HANWOOD,SHREWSBURY,SHROPSHIRE,,SY5 8LY ,1,47610,115,116,337,337,0,0,0,0.125090247
1100000544,9999999999,MEASIMCHIATI,,1 HIGH LODGE,COVENTRY ROAD,COLESHILL,NORTH WARWICKSHIRE,,B46 3FE ,1,47620,117,117,303,303,0,0,0,0.94373722
1100000545,9999999999,IGEHATHLTD,,1 HILLVIEW COTTAGES,STRATFORD BRIDGE RIPPLE,TEWKESBURY,GLOUCESTERSHIRE,,GL20 6HE,1,47720,112,112,53,53,0,0,0,0.143007284
1100000546,9999999999,&JAHKEATHER,,1 INMAN ROAD,NORWICH,,,,NR7 8JT ,1,47722,112,112,57,57,0,0,0,0.972143259
1100000547,9999999999,BOJAEWSLL LIMITED,,1 KELSO PLACE,UPPER BRISTOL ROAD,BATH,,,BA1 3AU ,1,47740,114,114,196,196,0,0,0,0.048451117
1100000548,9999999999,AGJASUILTD,,1 JINGLERS COURT,BANBRIDGE,,,,BT32 3YJ,1,47749,116,117,210,210,0,0,0,0.823863174
1100000549,9999999999,BJAULPMBING & HEATING LTD,,1 JINGLERS COURT,BANBRIDGE,CO DOWN,,,BT32 3YJ,1,47781,115,147,224,224,0,0,0,0.300306452
1100000550,9999999999,HIBAER,,1 GLYNDE PLACE,HORSHAM,,,,RH12 1NZ,1,47782,114,113,117,117,0,0,0,0.796827258
1100000551,9999999999,LTL2CD,,1 BARN CLOSE,QUARNDON,DERBY,,,DE22 5JE,1,47789,112,111,64,64,0,0,0,0.086415741
1100000552,9999999999,&IAJLMOORLAND,,1 HOSKINS PLACE,WATCHETTS ROAD,CAMBERLEY,SURREY,,GU15 2PB,1,47820,115,115,280,280,0,0,0,0.804574391
1100000553,9999999999,BOJAELIR MAINTENANCE LIMITED,,1 JUNO WAY,SWINDON,,,,SN5 8ZD ,2,47990,112,112,304,304,0,0,0,0.104129114
1100000554,9999999999,CEIAILINGS PARTITIONS LTD,,1 HUNT LANE,DONCASTER,,,,DN5 9SF ,7,45112,112,112,56,56,0,0,0,0.736275725
1100000555,9999999999,DE536LEVOPMENTS LTD,,1 BORLASES COTTAGES,MILLEY ROAD,WALTHAM ST LAWRENCE,READING,,RG10 0JY,1,45320,116,116,369,369,0,0,0,0.158231512
1100000556,9999999999,L9337DT,,1 BORLASES COTTAGES,MILLEY ROAD,WALTHAM ST LAWRENCE,READING,,RG10 0JY,1,45400,115,111,2150,2150,0,0,0,0.126696302
1100000557,9999999999,OOT3DOBLX LTD,,1 BOXLEY GARDENS,BOXLEY ROAD,PENENDEN HEATH,MAIDSTONE,,ME14 2BD,1,45190,111,111,392,392,0,0,0,0.424149751
1100000558,9999999999,OOT3DOBLX LTD,,1 BRAESIDE,NAPHILL,HIGH WYCOMBE,BUCKS,,HP14 4RY,1,46150,120,120,314,314,0,0,0,0.298446864
1100000559,9999999999,OGC3VMIESRL LTD,,1 BRITTEN CLOSE,LANGDON HILLS,BASILDON,,,SS16 6TB,1,46190,112,112,8279,8279,0,0,0,0.823342781
1100000560,9999999999,UNOC4EITS SERVICES LIMITED,,1 BRITTEN CLOSE,LANGDON HILLS,BASILDON,ESSEX,,SS16 6TB,1,46310,119,124,30270,30270,0,0,0,0.968260607
1100000561,9999999999,&BACCGOUGH,,1 FULLBROOK CLOSE,WOKINGHAM,BERKS,,,RG41 1QZ,1,46342,115,115,250,250,0,0,0,0.800081651
1100000562,9999999999,&GAHKOLMES,,1 HILL STREET,EDINBURGH,,,,EH2 3JP ,1,46410,112,112,113,113,0,0,0,0.22581264
1100000563,9999999999,UNOC4EITS SERVICES LTD,,1 BROOK COURT,BLAKENEY ROAD,BECKENHAM,KENT,,BR3 1HG ,1,46470,119,119,4566,4566,0,0,0,0.402750262
1100000564,9999999999,OSRFAFTARMER CONTRACTOR,,1 HILL COTTAGE,MUNDHAM HILL,MUNDHAM,NORWICH NORFOLK,,NR14 6EJ,1,47110,114,116,411,411,0,0,0,0.875623235
1100000565,9999999999,KEJANELIMITED,,1 KENSWORTH GATE,200-204 HIGH STREET SOUTH,DUNSTABLE,BEDS,,LU6 3HS ,2,47230,114,114,88,88,0,0,0,0.974488798
1100000566,9999999999,PJAHOJNSON,,1 KEYTES LANE,BARFORD,WARWICKSHIRE,,,CV35 8EP,2,47290,114,114,174,174,0,0,0,0.002462008
1100000567,9999999999,BIG BOX CEREAL LTD INCL VAT GROUP,,(ROAD HAULAGE CONTRS) LTD,BOW BRIDGE,WATERINGBURY,MAIDSTONE,KENT,ME18 5ED,1,47599,14211,14478,27367068,0,27367068,27367068,0,0.556599574
1100000568,9999999999,AGBBROWN,,1 HAWRIDGE HILL COTTAGES,THE VALE,HAWRIDGE,CHESHAM BUCKINGHAMSHIRE,,HP5 3NU ,1,45112,125,125,86,86,0,0,0,0.110639412
1100000569,9999999999,EADLIING SOLUTIONS LTD,,1 HAZELWOOD LANE,ABBOTS LANGLEY,,,,WD5 0HA ,3,45190,125,124,113,10,0,0,0,0.63948897
1100000570,9999999999,2WMILITED,,1 BARRASCROFTS,CANONBIE,,,,DG14 0RZ,1,45200,125,124,69,69,0,0,0,0.096641784
1100000571,9999999999,BASOT(CHRISTCHURCH) LIMITED,,1 GARTH EDGE,SHAWFORTH,WHITWORTH,ROCHDALE LANCASHIRE,,OL12 8EH,2,45320,124,124,20,20,0,0,0,0.510301459
1100000572,9999999999,BAER,,1 GEORGE SQUARE,GLASGOW,,,,G2 5LL  ,1,45400,125,125,119,119,0,0,0,0.148771478
1100000573,9999999999,BAER,,1 GLEN ROAD,HINDHEAD,SURREY,,,GU26 6QE,1,46110,125,125,310,310,0,0,0,0.589704168
1100000574,9999999999,ANOCTRACTS UK LTD,,1 GLYNDE PLACE,HORSHAM,WEST SUSSEX,,,RH12 1NZ,1,46120,126,126,300,300,0,0,0,0.156650038
1100000575,9999999999,UBARE,,1 GORSE ROAD,REYDON,SOUTHWOLD,,,IP18 6NQ,1,46130,127,127,210,210,0,0,0,0.447874851
1100000576,9999999999,CARR,,1 GRANVILLE AVENUE,LONG EATON,NOTTINGHAM,,,NG10 4HA,1,46140,125,125,31,31,0,0,0,0.848314182
1100000577,9999999999,AJ&WALTON,,1 GRANVILLE AVENUE,LONG EATON,NOTTINGHAM,,,NG10 4HA,1,46150,126,126,85,85,0,0,0,0.549606666
1100000578,9999999999,AMCFLINT,,1 GARENDON WAY,GROBY,LEICESTER,,,LE6 0YR ,1,46160,125,124,413,40,0,0,0,0.270074121
1100000579,9999999999,CAITRN,,1 GRAVES FARM,ALGARKIRK,BOSTON,LINCOLNSHIRE,LINCS,PE20 2BQ,2,46170,125,124,18,18,0,0,0,0.396811656
1100000580,9999999999,CABMUING/HEATING & MAINTENANCE,,1 GREEN COTTAGES,WATFORD ROAD,HARROW,MIDDLESEX,,HA1 3TS ,2,46180,124,124,14,0,0,0,14,0.764389058
1100000581,9999999999,CABMUING/HEATING AND,,1 GREENEND CLOSE,SPENCERS WOOD,READING,,,RG7 1EH ,1,46190,125,125,166,0,180,0,166,0.560497313
1100000582,9999999999,HCALEPL,,1 GRESHAM STREET,LONDON,,,,EC2V 7BX,3,46210,124,124,50,50,0,0,0,0.922534521
1100000583,9999999999,ARESVICES LTD,,1 GREY TERRACE,RYHOPE,SUNDERLAND,,,SR2 0QT ,1,46220,126,126,245,245,0,0,0,0.593449525
1100000584,9999999999,ATIKCHENS LTD,,1 GREY TERRACE,SUNDERLAND,,,,SR2 0QT ,1,46230,125,125,502,502,0,0,0,0.015129974
1100000585,9999999999,DANOLLIMITED,,1 GROVE LODGE COTTAGES,BINSTED,ARUNDEL,WEST SUSSEX,,BN18 0LQ,1,46342,127,127,919,919,0,0,0,0.132365913
1100000586,9999999999,EDASI,,1 HATHERMEAD GARDEN,YEOVIL,SOMERSET,,,BA21 5BY,1,46240,125,124,47,47,0,0,0,0.460511834
1100000587,9999999999,G2BIHPC DESIGN LTD,,1 BALLYCREGAGH ROAD,CLOUGHMILLS,BALLYMENA,,,BT44 9LB,1,46410,124,124,13,0,0,0,0,0.65478139
1100000588,9999999999,MALIVENGINEERING LTD,,1 LAWSON GARDENS,PINNER,MIDDLESEX,,,HA5 2BR ,2,46440,128,125,86,86,0,0,0,0.122939343
1100000589,9999999999,JANELTD,,1 KENT ROAD WEST,MANCHESTER,,,,M14 5RF ,2,46510,126,126,100,100,0,0,0,0.622870322
1100000590,9999999999,MAWDAICK,,1 LAWN COTTAGES,NEWCASTLE,CRAVEN ARMS,SHROPSHIRE,,SY7 8PL ,3,46520,125,125,265,265,0,0,0,0.407121271
1100000591,9999999999,MASSUEX) LTD,,1 LANSDOWNE VILLAS,GOODLEIGH ROAD,BARNSTAPLE,DEVON,,EX32 7JR,2,46620,125,125,97,97,0,0,0,0.495869233
1100000592,9999999999,MAFYRICS,,1 LITTLE JENKYN,HOLE LANE,BENTLEY,HAMPSHIRE,,GU10 5LU,2,46660,124,126,60,60,0,0,0,0.495802589
1100000593,9999999999,AAWMHOLESALE LTD,,1 FREEWATERS CLOSE,ICKLEFORD,HITCHIN,,,SG5 3TQ ,2,46711,124,124,93,93,0,0,0,0.371103557
1100000594,9999999999,BASOT( CHRISTCHURCH ) LIMITED,,1 GARLING WALK,WEST BERGHOLT,COLCHESTER,,,CO6 3LG ,2,46720,125,124,108,108,0,0,0,0.078824164
1100000595,9999999999,ANOCSULTANCY LTD,,1 LOWER BAR,NEWPORT,,,,TF10 7BE,2,46770,126,126,79,79,0,0,0,0.020542155
1100000596,9999999999,AAPMLUMBING AND HEATING LTD,,1 FINWAY ROAD,HEMEL HEMPSTEAD INDUSTRIAL EST,HEMEL HEMPSTEAD,,,HP2 7PT ,1,46900,125,124,112,112,0,0,0,0.35135026
1100000597,9999999999,MATBAREE LTD,,1 LENAMORE DRIVE,NEWTOWNABBEY,,,,BT37 0PQ,1,47110,126,126,57,57,0,0,0,0.58923183
1100000598,9999999999,AJMHUGHES,,1 KINROSS ROAD,LESLIE,FIFE,,,KY6 3NE ,1,47190,128,128,192,192,0,0,0,0.770347943
1100000599,9999999999,2WDTL,,1 BEARDS TERRACE,COGGESHALL,COLCHESTER,,,CO6 1TB ,1,47220,125,124,268,268,0,0,0,0.977029619
1100000600,9999999999,MAESSX LTD,,1 LUMLEY STREET,LONDON,,,,W1K 6TT ,2,47240,128,128,123,123,0,0,0,0.707606095
1100000601,9999999999,AJNWEATHERHEAD & J A KING,,1 HILLTOP,TILLINGTON,PETWORTH,,,GU28 9AQ,1,47300,131,131,127,127,0,0,0,0.66084994
1100000602,9999999999,MAIDLNG & STEEL FABRIC,,1 LUMLEY STREET,MAYFAIR,LONDON,,,W1K 6TT ,2,47410,126,126,79,79,0,0,0,0.860544627
1100000603,9999999999,AAEMWOODHOUSE,,1 FIELD COTTAGES,FIELD LANE,HENSALL,GOOLE NORTH HUMBERSIDE,,DN14 0RB,7,47421,127,126,388,388,0,0,0,0.957092114
1100000604,9999999999,MASUDTRIAL (UK) LTD,,1 LITTLE JENKYN,HOLE LANE,BENTLEY,HAMPSHIRE,,GU10 5LU,7,47429,128,127,189,189,0,0,0,0.096152458
1100000605,9999999999,AAPMLUMBING AND HEATING,,1 FINWAY ROAD,HEMEL HEMPSTEAD,HERTFORDSHIRE,,,HP2 7PT ,2,47429,125,124,32,32,0,0,0,0.230142071
1100000606,9999999999,MAIDLNG & STEEL FABRICATION,,1 MAIN ROAD,HANWOOD,SHREWSBURY,SHROPSHIRE,,SY5 8LY ,1,47610,128,129,350,350,0,0,0,0.126092827
1100000607,9999999999,ASIMCHIATI,,1 HIGH LODGE,COVENTRY ROAD,COLESHILL,NORTH WARWICKSHIRE,,B46 3FE ,1,47620,130,130,316,316,0,0,0,0.9447398
1100000608,9999999999,EHATHLTD,,1 HILLVIEW COTTAGES,STRATFORD BRIDGE RIPPLE,TEWKESBURY,GLOUCESTERSHIRE,,GL20 6HE,1,47720,125,125,66,66,0,0,0,0.144009864
1100000609,9999999999,AHKEATHER,,1 INMAN ROAD,NORWICH,,,,NR7 8JT ,1,47722,125,125,70,70,0,0,0,0.973145839
1100000610,9999999999,JAEWSLL LIMITED,,1 KELSO PLACE,UPPER BRISTOL ROAD,BATH,,,BA1 3AU ,1,47740,127,127,209,209,0,0,0,0.049453697
1100000611,9999999999,JASUILTD,,1 JINGLERS COURT,BANBRIDGE,,,,BT32 3YJ,1,47749,129,130,223,223,0,0,0,0.824865754
1100000612,9999999999,AULPMBING & HEATING LTD,,1 JINGLERS COURT,BANBRIDGE,CO DOWN,,,BT32 3YJ,1,47781,128,160,237,237,0,0,0,0.301309032
1100000613,9999999999,BAER,,1 GLYNDE PLACE,HORSHAM,,,,RH12 1NZ,1,47782,127,126,130,0,0,0,0,0.797829838
1100000614,9999999999,L2CD,,1 BARN CLOSE,QUARNDON,DERBY,,,DE22 5JE,1,47789,125,124,77,77,0,0,0,0.087418321
1100000615,9999999999,AJLMOORLAND,,1 HOSKINS PLACE,WATCHETTS ROAD,CAMBERLEY,SURREY,,GU15 2PB,1,47820,128,128,293,293,0,0,0,0.805576971
1100000616,9999999999,JAELIR MAINTENANCE LIMITED,,1 JUNO WAY,SWINDON,,,,SN5 8ZD ,2,47990,125,125,317,317,0,0,0,0.105131694
1100000617,9999999999,IAILINGS PARTITIONS LTD,,1 HUNT LANE,DONCASTER,,,,DN5 9SF ,7,45112,125,125,69,69,0,0,0,0.737278305
1100000618,9999999999,536LEVOPMENTS LTD,,1 BORLASES COTTAGES,MILLEY ROAD,WALTHAM ST LAWRENCE,READING,,RG10 0JY,1,45320,129,129,382,382,0,0,0,0.159234092
1100000619,9999999999,337DT,,1 BORLASES COTTAGES,MILLEY ROAD,WALTHAM ST LAWRENCE,READING,,RG10 0JY,1,45400,128,124,2163,2163,0,0,0,0.127698882
1100000620,9999999999,T3DOBLX LTD,,1 BOXLEY GARDENS,BOXLEY ROAD,PENENDEN HEATH,MAIDSTONE,,ME14 2BD,1,45190,124,124,405,405,0,0,0,0.425152331
1100000621,9999999999,T3DOBLX LTD,,1 BRAESIDE,NAPHILL,HIGH WYCOMBE,BUCKS,,HP14 4RY,1,46150,133,133,327,327,0,0,0,0.299449444
1100000622,9999999999,C3VMIESRL LTD,,1 BRITTEN CLOSE,LANGDON HILLS,BASILDON,,,SS16 6TB,1,46190,125,125,8292,8292,0,0,0,0.824345361
1100000623,9999999999,OC4EITS SERVICES LIMITED,,1 BRITTEN CLOSE,LANGDON HILLS,BASILDON,ESSEX,,SS16 6TB,1,46310,132,137,30283,30283,0,0,0,0.969263187
1100000624,9999999999,ACCGOUGH,,1 FULLBROOK CLOSE,WOKINGHAM,BERKS,,,RG41 1QZ,1,46342,128,128,263,263,0,0,0,0.801084231
1100000625,9999999999,AHKOLMES,,1 HILL STREET,EDINBURGH,,,,EH2 3JP ,1,46410,125,125,126,126,0,0,0,0.22681522
1100000626,9999999999,OC4EITS SERVICES LTD,,1 BROOK COURT,BLAKENEY ROAD,BECKENHAM,KENT,,BR3 1HG ,1,46470,132,132,4579,4579,0,0,0,0.403752842
1100000627,9999999999,RFAFTARMER CONTRACTOR,,1 HILL COTTAGE,MUNDHAM HILL,MUNDHAM,NORWICH NORFOLK,,NR14 6EJ,1,47110,127,129,424,424,0,0,0,0.876625815
1100000628,9999999999,JANELIMITED,,1 KENSWORTH GATE,200-204 HIGH STREET SOUTH,DUNSTABLE,BEDS,,LU6 3HS ,2,47230,127,127,101,101,0,0,0,0.975491378
1100000629,9999999999,AHOJNSON,,1 KEYTES LANE,BARFORD,WARWICKSHIRE,,,CV35 8EP,2,47290,127,127,187,187,0,0,0,0.003464588
1100000630,9999999999,G BOX CEREAL LTD INCL VAT GROUP,,(ROAD HAULAGE CONTRS) LTD,BOW BRIDGE,WATERINGBURY,MAIDSTONE,KENT,ME18 5ED,1,47599,14224,14491,27367081,0,27367081,27367081,0,0.557602154
1100000631,9999999999,EAGBBROWN,,1 HAWRIDGE HILL COTTAGES,THE VALE,HAWRIDGE,CHESHAM BUCKINGHAMSHIRE,,HP5 3NU ,1,45112,133,133,94,94,0,0,0,0.111792833
1100000632,9999999999,UEADLIING SOLUTIONS LTD,,1 HAZELWOOD LANE,ABBOTS LANGLEY,,,,WD5 0HA ,3,45190,133,132,121,121,0,0,0,0.640642391
1100000633,9999999999,O2WMILITED,,1 BARRASCROFTS,CANONBIE,,,,DG14 0RZ,1,45200,133,132,77,77,0,0,0,0.097795205
1100000634,9999999999,UBASOT(CHRISTCHURCH) LIMITED,,1 GARTH EDGE,SHAWFORTH,WHITWORTH,ROCHDALE LANCASHIRE,,OL12 8EH,2,45320,132,132,28,28,0,0,0,0.51145488
1100000635,9999999999,IBAER,,1 GEORGE SQUARE,GLASGOW,,,,G2 5LL  ,1,45400,133,133,127,127,0,0,0,0.149924899
1100000636,9999999999,IBAER,,1 GLEN ROAD,HINDHEAD,SURREY,,,GU26 6QE,1,46110,133,133,318,318,0,0,0,0.590857589
1100000637,9999999999,BANOCTRACTS UK LTD,,1 GLYNDE PLACE,HORSHAM,WEST SUSSEX,,,RH12 1NZ,1,46120,134,134,308,308,0,0,0,0.157803459
1100000638,9999999999,LUBARE,,1 GORSE ROAD,REYDON,SOUTHWOLD,,,IP18 6NQ,1,46130,135,135,218,218,0,0,0,0.449028272
1100000639,9999999999,UCARR,,1 GRANVILLE AVENUE,LONG EATON,NOTTINGHAM,,,NG10 4HA,1,46140,133,133,39,39,0,0,0,0.849467603
1100000640,9999999999,CAJ&WALTON,,1 GRANVILLE AVENUE,LONG EATON,NOTTINGHAM,,,NG10 4HA,1,46150,134,134,93,93,0,0,0,0.550760087
1100000641,9999999999,BAMCFLINT,,1 GARENDON WAY,GROBY,LEICESTER,,,LE6 0YR ,1,46160,133,132,421,421,0,0,0,0.271227542
1100000642,9999999999,ACAITRN,,1 GRAVES FARM,ALGARKIRK,BOSTON,LINCOLNSHIRE,LINCS,PE20 2BQ,2,46170,133,132,26,26,0,0,0,0.397965077
1100000643,9999999999,LCABMUING/HEATING & MAINTENANCE,,1 GREEN COTTAGES,WATFORD ROAD,HARROW,MIDDLESEX,,HA1 3TS ,2,46180,132,132,22,0,0,0,22,0.765542479
1100000644,9999999999,LCABMUING/HEATING AND,,1 GREENEND CLOSE,SPENCERS WOOD,READING,,,RG7 1EH ,1,46190,133,133,174,0,196,0,174,0.561650734
1100000645,9999999999,PHCALEPL,,1 GRESHAM STREET,LONDON,,,,EC2V 7BX,3,46210,132,132,58,58,0,0,0,0.923687942
1100000646,9999999999,DARESVICES LTD,,1 GREY TERRACE,RYHOPE,SUNDERLAND,,,SR2 0QT ,1,46220,134,134,253,253,0,0,0,0.594602946
1100000647,9999999999,DATIKCHENS LTD,,1 GREY TERRACE,SUNDERLAND,,,,SR2 0QT ,1,46230,133,133,510,510,0,0,0,0.016283395
1100000648,9999999999,ADANOLLIMITED,,1 GROVE LODGE COTTAGES,BINSTED,ARUNDEL,WEST SUSSEX,,BN18 0LQ,1,46342,135,135,927,927,0,0,0,0.133519334
1100000649,9999999999,NEDASI,,1 HATHERMEAD GARDEN,YEOVIL,SOMERSET,,,BA21 5BY,1,46240,133,132,55,55,0,0,0,0.461665255
1100000650,9999999999,AG2BIHPC DESIGN LTD,,1 BALLYCREGAGH ROAD,CLOUGHMILLS,BALLYMENA,,,BT44 9LB,1,46410,132,132,21,21,0,0,0,0.655934811
1100000651,9999999999,IMALIVENGINEERING LTD,,1 LAWSON GARDENS,PINNER,MIDDLESEX,,,HA5 2BR ,2,46440,136,133,94,94,0,0,0,0.124092764
1100000652,9999999999,EJANELTD,,1 KENT ROAD WEST,MANCHESTER,,,,M14 5RF ,2,46510,134,134,108,108,0,0,0,0.624023743
1100000653,9999999999,HMAWDAICK,,1 LAWN COTTAGES,NEWCASTLE,CRAVEN ARMS,SHROPSHIRE,,SY7 8PL ,3,46520,133,133,273,273,0,0,0,0.408274692
1100000654,9999999999,SMASSUEX) LTD,,1 LANSDOWNE VILLAS,GOODLEIGH ROAD,BARNSTAPLE,DEVON,,EX32 7JR,2,46620,133,133,105,105,0,0,0,0.497022654
1100000655,9999999999,EMAFYRICS,,1 LITTLE JENKYN,HOLE LANE,BENTLEY,HAMPSHIRE,,GU10 5LU,2,46660,132,134,68,68,0,0,0,0.49695601
1100000656,9999999999,NAAWMHOLESALE LTD,,1 FREEWATERS CLOSE,ICKLEFORD,HITCHIN,,,SG5 3TQ ,2,46711,132,132,101,101,0,0,0,0.372256978
1100000657,9999999999,UBASOT( CHRISTCHURCH ) LIMITED,,1 GARLING WALK,WEST BERGHOLT,COLCHESTER,,,CO6 3LG ,2,46720,133,132,116,116,0,0,0,0.079977585
1100000658,9999999999,MANOCSULTANCY LTD,,1 LOWER BAR,NEWPORT,,,,TF10 7BE,2,46770,134,134,87,87,0,0,0,0.021695576
1100000659,9999999999,NAAPMLUMBING AND HEATING LTD,,1 FINWAY ROAD,HEMEL HEMPSTEAD INDUSTRIAL EST,HEMEL HEMPSTEAD,,,HP2 7PT ,1,46900,133,132,120,120,0,0,0,0.352503681
1100000660,9999999999,RMATBAREE LTD,,1 LENAMORE DRIVE,NEWTOWNABBEY,,,,BT37 0PQ,1,47110,134,134,65,65,0,0,0,0.590385251
1100000661,9999999999,KAJMHUGHES,,1 KINROSS ROAD,LESLIE,FIFE,,,KY6 3NE ,1,47190,136,136,200,200,0,0,0,0.771501364
1100000662,9999999999,O2WDTL,,1 BEARDS TERRACE,COGGESHALL,COLCHESTER,,,CO6 1TB ,1,47220,133,132,276,276,0,0,0,0.97818304
1100000663,9999999999,UMAESSX LTD,,1 LUMLEY STREET,LONDON,,,,W1K 6TT ,2,47240,136,136,131,131,0,0,0,0.708759516
1100000664,9999999999,HAJNWEATHERHEAD & J A KING,,1 HILLTOP,TILLINGTON,PETWORTH,,,GU28 9AQ,1,47300,139,139,135,135,0,0,0,0.662003361
1100000665,9999999999,EMAIDLNG & STEEL FABRIC,,1 LUMLEY STREET,MAYFAIR,LONDON,,,W1K 6TT ,2,47410,134,134,87,87,0,0,0,0.861698048
1100000666,9999999999,NAAEMWOODHOUSE,,1 FIELD COTTAGES,FIELD LANE,HENSALL,GOOLE NORTH HUMBERSIDE,,DN14 0RB,7,47421,135,134,396,396,0,0,0,0.958245535
1100000667,9999999999,NMASUDTRIAL (UK) LTD,,1 LITTLE JENKYN,HOLE LANE,BENTLEY,HAMPSHIRE,,GU10 5LU,7,47429,136,135,197,197,0,0,0,0.097305879
1100000668,9999999999,NAAPMLUMBING AND HEATING,,1 FINWAY ROAD,HEMEL HEMPSTEAD,HERTFORDSHIRE,,,HP2 7PT ,2,47429,133,132,40,40,0,0,0,0.231295492
1100000669,9999999999,EMAIDLNG & STEEL FABRICATION,,1 MAIN ROAD,HANWOOD,SHREWSBURY,SHROPSHIRE,,SY5 8LY ,1,47610,136,137,358,358,0,0,0,0.127246248
1100000670,9999999999,EASIMCHIATI,,1 HIGH LODGE,COVENTRY ROAD,COLESHILL,NORTH WARWICKSHIRE,,B46 3FE ,1,47620,138,138,324,324,0,0,0,0.945893221
1100000671,9999999999,GEHATHLTD,,1 HILLVIEW COTTAGES,STRATFORD BRIDGE RIPPLE,TEWKESBURY,GLOUCESTERSHIRE,,GL20 6HE,1,47720,133,133,74,74,0,0,0,0.145163285
1100000672,9999999999,JAHKEATHER,,1 INMAN ROAD,NORWICH,,,,NR7 8JT ,1,47722,133,133,78,78,0,0,0,0.97429926
1100000673,9999999999,OJAEWSLL LIMITED,,1 KELSO PLACE,UPPER BRISTOL ROAD,BATH,,,BA1 3AU ,1,47740,135,135,217,217,0,0,0,0.050607118
1100000674,9999999999,GJASUILTD,,1 JINGLERS COURT,BANBRIDGE,,,,BT32 3YJ,1,47749,137,138,231,231,0,0,0,0.826019175
1100000675,9999999999,JAULPMBING & HEATING LTD,,1 JINGLERS COURT,BANBRIDGE,CO DOWN,,,BT32 3YJ,1,47781,136,168,245,245,0,0,0,0.302462453
1100000676,9999999999,IBAER,,1 GLYNDE PLACE,HORSHAM,,,,RH12 1NZ,1,47782,135,134,138,138,0,0,0,0.798983259
1100000677,9999999999,TL2CD,,1 BARN CLOSE,QUARNDON,DERBY,,,DE22 5JE,1,47789,133,132,85,85,0,0,0,0.088571742
1100000678,9999999999,IAJLMOORLAND,,1 HOSKINS PLACE,WATCHETTS ROAD,CAMBERLEY,SURREY,,GU15 2PB,1,47820,136,136,301,301,0,0,0,0.806730392
1100000679,9999999999,OJAELIR MAINTENANCE LIMITED,,1 JUNO WAY,SWINDON,,,,SN5 8ZD ,2,47990,133,133,325,325,0,0,0,0.106285115
1100000680,9999999999,EIAILINGS PARTITIONS LTD,,1 HUNT LANE,DONCASTER,,,,DN5 9SF ,7,45112,133,133,77,77,0,0,0,0.738431726
1100000681,9999999999,E536LEVOPMENTS LTD,,1 BORLASES COTTAGES,MILLEY ROAD,WALTHAM ST LAWRENCE,READING,,RG10 0JY,1,45320,137,137,390,390,0,0,0,0.160387513
1100000682,9999999999,9337DT,,1 BORLASES COTTAGES,MILLEY ROAD,WALTHAM ST LAWRENCE,READING,,RG10 0JY,1,45400,136,132,2171,2171,0,0,0,0.128852303
1100000683,9999999999,OT3DOBLX LTD,,1 BOXLEY GARDENS,BOXLEY ROAD,PENENDEN HEATH,MAIDSTONE,,ME14 2BD,1,45190,132,132,413,413,0,0,0,0.426305752
1100000684,9999999999,OT3DOBLX LTD,,1 BRAESIDE,NAPHILL,HIGH WYCOMBE,BUCKS,,HP14 4RY,1,46150,141,141,335,335,0,0,0,0.300602865
1100000685,9999999999,GC3VMIESRL LTD,,1 BRITTEN CLOSE,LANGDON HILLS,BASILDON,,,SS16 6TB,1,46190,133,133,8300,8300,0,0,0,0.825498782
1100000686,9999999999,NOC4EITS SERVICES LIMITED,,1 BRITTEN CLOSE,LANGDON HILLS,BASILDON,ESSEX,,SS16 6TB,1,46310,140,145,30291,30291,0,0,0,0.970416608
1100000687,9999999999,BACCGOUGH,,1 FULLBROOK CLOSE,WOKINGHAM,BERKS,,,RG41 1QZ,1,46342,136,136,271,271,0,0,0,0.802237652
1100000688,9999999999,GAHKOLMES,,1 HILL STREET,EDINBURGH,,,,EH2 3JP ,1,46410,133,133,134,134,0,0,0,0.227968641
1100000689,9999999999,NOC4EITS SERVICES LTD,,1 BROOK COURT,BLAKENEY ROAD,BECKENHAM,KENT,,BR3 1HG ,1,46470,140,140,4587,4587,0,0,0,0.404906263
1100000690,9999999999,SRFAFTARMER CONTRACTOR,,1 HILL COTTAGE,MUNDHAM HILL,MUNDHAM,NORWICH NORFOLK,,NR14 6EJ,1,47110,135,137,432,432,0,0,0,0.877779236
1100000691,9999999999,EJANELIMITED,,1 KENSWORTH GATE,200-204 HIGH STREET SOUTH,DUNSTABLE,BEDS,,LU6 3HS ,2,47230,135,135,109,109,0,0,0,0.976644799
1100000692,9999999999,JAHOJNSON,,1 KEYTES LANE,BARFORD,WARWICKSHIRE,,,CV35 8EP,2,47290,135,135,195,195,0,0,0,0.004618009
1100000693,9999999999,IG BOX CEREAL LTD INCL VAT GROUP,,(ROAD HAULAGE CONTRS) LTD,BOW BRIDGE,WATERINGBURY,MAIDSTONE,KENT,ME18 5ED,1,47599,14232,14499,27367089,0,27367089,27367089,0,0.558755575
1100000694,9999999999,EAGBBROWN,,1 HAWRIDGE HILL COTTAGES,THE VALE,HAWRIDGE,CHESHAM BUCKINGHAMSHIRE,,HP5 3NU ,1,45112,146,146,107,107,0,0,0,0.112795413
1100000695,9999999999,UEADLIING SOLUTIONS LTD,,1 HAZELWOOD LANE,ABBOTS LANGLEY,,,,WD5 0HA ,3,45190,146,145,134,31,0,0,0,0.641644971
1100000696,9999999999,O2WMILITED,,1 BARRASCROFTS,CANONBIE,,,,DG14 0RZ,1,45200,146,145,90,90,0,0,0,0.098797785
1100000697,9999999999,UBASOT(CHRISTCHURCH) LIMITED,,1 GARTH EDGE,SHAWFORTH,WHITWORTH,ROCHDALE LANCASHIRE,,OL12 8EH,2,45320,145,145,41,41,0,0,0,0.51245746
1100000698,9999999999,IBAER,,1 GEORGE SQUARE,GLASGOW,,,,G2 5LL  ,1,45400,146,146,140,140,0,0,0,0.150927479
1100000699,9999999999,IBAER,,1 GLEN ROAD,HINDHEAD,SURREY,,,GU26 6QE,1,46110,146,146,331,331,0,0,0,0.591860169
1100000700,9999999999,BANOCTRACTS UK LTD,,1 GLYNDE PLACE,HORSHAM,WEST SUSSEX,,,RH12 1NZ,1,46120,147,147,321,321,0,0,0,0.158806039
1100000701,9999999999,LUBARE,,1 GORSE ROAD,REYDON,SOUTHWOLD,,,IP18 6NQ,1,46130,148,148,231,231,0,0,0,0.450030852
1100000702,9999999999,UCARR,,1 GRANVILLE AVENUE,LONG EATON,NOTTINGHAM,,,NG10 4HA,1,46140,146,146,52,52,0,0,0,0.850470183
1100000703,9999999999,CAJ&WALTON,,1 GRANVILLE AVENUE,LONG EATON,NOTTINGHAM,,,NG10 4HA,1,46150,147,147,106,106,0,0,0,0.551762667
1100000704,9999999999,BAMCFLINT,,1 GARENDON WAY,GROBY,LEICESTER,,,LE6 0YR ,1,46160,146,145,434,61,0,0,0,0.272230122
1100000705,9999999999,ACAITRN,,1 GRAVES FARM,ALGARKIRK,BOSTON,LINCOLNSHIRE,LINCS,PE20 2BQ,2,46170,146,145,39,39,0,0,0,0.398967657
1100000706,9999999999,LCABMUING/HEATING & MAINTENANCE,,1 GREEN COTTAGES,WATFORD ROAD,HARROW,MIDDLESEX,,HA1 3TS ,2,46180,145,145,35,0,0,0,35,0.766545059
1100000707,9999999999,LCABMUING/HEATING AND,,1 GREENEND CLOSE,SPENCERS WOOD,READING,,,RG7 1EH ,1,46190,146,146,187,0,222,0,187,0.562653314
1100000708,9999999999,PHCALEPL,,1 GRESHAM STREET,LONDON,,,,EC2V 7BX,3,46210,145,145,71,71,0,0,0,0.924690522
1100000709,9999999999,DARESVICES LTD,,1 GREY TERRACE,RYHOPE,SUNDERLAND,,,SR2 0QT ,1,46220,147,147,266,266,0,0,0,0.595605526
1100000710,9999999999,DATIKCHENS LTD,,1 GREY TERRACE,SUNDERLAND,,,,SR2 0QT ,1,46230,146,146,523,523,0,0,0,0.017285975
1100000711,9999999999,ADANOLLIMITED,,1 GROVE LODGE COTTAGES,BINSTED,ARUNDEL,WEST SUSSEX,,BN18 0LQ,1,46342,148,148,940,940,0,0,0,0.134521914
1100000712,9999999999,NEDASI,,1 HATHERMEAD GARDEN,YEOVIL,SOMERSET,,,BA21 5BY,1,46240,146,145,68,68,0,0,0,0.462667835
1100000713,9999999999,AG2BIHPC DESIGN LTD,,1 BALLYCREGAGH ROAD,CLOUGHMILLS,BALLYMENA,,,BT44 9LB,1,46410,145,145,34,21,0,0,0,0.656937391
1100000714,9999999999,IMALIVENGINEERING LTD,,1 LAWSON GARDENS,PINNER,MIDDLESEX,,,HA5 2BR ,2,46440,149,146,107,107,0,0,0,0.125095344
1100000715,9999999999,EJANELTD,,1 KENT ROAD WEST,MANCHESTER,,,,M14 5RF ,2,46510,147,147,121,121,0,0,0,0.625026323
1100000716,9999999999,HMAWDAICK,,1 LAWN COTTAGES,NEWCASTLE,CRAVEN ARMS,SHROPSHIRE,,SY7 8PL ,3,46520,146,146,286,286,0,0,0,0.409277272
1100000717,9999999999,SMASSUEX) LTD,,1 LANSDOWNE VILLAS,GOODLEIGH ROAD,BARNSTAPLE,DEVON,,EX32 7JR,2,46620,146,146,118,118,0,0,0,0.498025234
1100000718,9999999999,EMAFYRICS,,1 LITTLE JENKYN,HOLE LANE,BENTLEY,HAMPSHIRE,,GU10 5LU,2,46660,145,147,81,81,0,0,0,0.49795859
1100000719,9999999999,NAAWMHOLESALE LTD,,1 FREEWATERS CLOSE,ICKLEFORD,HITCHIN,,,SG5 3TQ ,2,46711,145,145,114,114,0,0,0,0.373259558
1100000720,9999999999,UBASOT( CHRISTCHURCH ) LIMITED,,1 GARLING WALK,WEST BERGHOLT,COLCHESTER,,,CO6 3LG ,2,46720,146,145,129,129,0,0,0,0.080980165
1100000721,9999999999,MANOCSULTANCY LTD,,1 LOWER BAR,NEWPORT,,,,TF10 7BE,2,46770,147,147,100,100,0,0,0,0.022698156
1100000722,9999999999,NAAPMLUMBING AND HEATING LTD,,1 FINWAY ROAD,HEMEL HEMPSTEAD INDUSTRIAL EST,HEMEL HEMPSTEAD,,,HP2 7PT ,1,46900,146,145,133,133,0,0,0,0.353506261
1100000723,9999999999,RMATBAREE LTD,,1 LENAMORE DRIVE,NEWTOWNABBEY,,,,BT37 0PQ,1,47110,147,147,78,78,0,0,0,0.591387831
1100000724,9999999999,KAJMHUGHES,,1 KINROSS ROAD,LESLIE,FIFE,,,KY6 3NE ,1,47190,149,149,213,213,0,0,0,0.772503944
1100000725,9999999999,O2WDTL,,1 BEARDS TERRACE,COGGESHALL,COLCHESTER,,,CO6 1TB ,1,47220,146,145,289,289,0,0,0,0.97918562
1100000726,9999999999,UMAESSX LTD,,1 LUMLEY STREET,LONDON,,,,W1K 6TT ,2,47240,149,149,144,144,0,0,0,0.709762096
1100000727,9999999999,HAJNWEATHERHEAD & J A KING,,1 HILLTOP,TILLINGTON,PETWORTH,,,GU28 9AQ,1,47300,152,152,148,148,0,0,0,0.663005941
1100000728,9999999999,EMAIDLNG & STEEL FABRIC,,1 LUMLEY STREET,MAYFAIR,LONDON,,,W1K 6TT ,2,47410,147,147,100,100,0,0,0,0.862700628
1100000729,9999999999,NAAEMWOODHOUSE,,1 FIELD COTTAGES,FIELD LANE,HENSALL,GOOLE NORTH HUMBERSIDE,,DN14 0RB,7,47421,148,147,409,409,0,0,0,0.959248115
1100000730,9999999999,NMASUDTRIAL (UK) LTD,,1 LITTLE JENKYN,HOLE LANE,BENTLEY,HAMPSHIRE,,GU10 5LU,7,47429,149,148,210,210,0,0,0,0.098308459
1100000731,9999999999,NAAPMLUMBING AND HEATING,,1 FINWAY ROAD,HEMEL HEMPSTEAD,HERTFORDSHIRE,,,HP2 7PT ,2,47429,146,145,53,53,0,0,0,0.232298072
1100000732,9999999999,EMAIDLNG & STEEL FABRICATION,,1 MAIN ROAD,HANWOOD,SHREWSBURY,SHROPSHIRE,,SY5 8LY ,1,47610,149,150,371,371,0,0,0,0.128248828
1100000733,9999999999,EASIMCHIATI,,1 HIGH LODGE,COVENTRY ROAD,COLESHILL,NORTH WARWICKSHIRE,,B46 3FE ,1,47620,151,151,337,337,0,0,0,0.946895801
1100000734,9999999999,GEHATHLTD,,1 HILLVIEW COTTAGES,STRATFORD BRIDGE RIPPLE,TEWKESBURY,GLOUCESTERSHIRE,,GL20 6HE,1,47720,146,146,87,87,0,0,0,0.146165865
1100000735,9999999999,JAHKEATHER,,1 INMAN ROAD,NORWICH,,,,NR7 8JT ,1,47722,146,146,91,91,0,0,0,0.97530184
1100000736,9999999999,OJAEWSLL LIMITED,,1 KELSO PLACE,UPPER BRISTOL ROAD,BATH,,,BA1 3AU ,1,47740,148,148,230,230,0,0,0,0.051609698
1100000737,9999999999,GJASUILTD,,1 JINGLERS COURT,BANBRIDGE,,,,BT32 3YJ,1,47749,150,151,244,244,0,0,0,0.827021755
1100000738,9999999999,JAULPMBING & HEATING LTD,,1 JINGLERS COURT,BANBRIDGE,CO DOWN,,,BT32 3YJ,1,47781,149,181,258,258,0,0,0,0.303465033
1100000739,9999999999,IBAER,,1 GLYNDE PLACE,HORSHAM,,,,RH12 1NZ,1,47782,148,147,151,21,0,0,0,0.799985839
1100000740,9999999999,TL2CD,,1 BARN CLOSE,QUARNDON,DERBY,,,DE22 5JE,1,47789,146,145,98,98,0,0,0,0.089574322
1100000741,9999999999,IAJLMOORLAND,,1 HOSKINS PLACE,WATCHETTS ROAD,CAMBERLEY,SURREY,,GU15 2PB,1,47820,149,149,314,314,0,0,0,0.807732972
1100000742,9999999999,OJAELIR MAINTENANCE LIMITED,,1 JUNO WAY,SWINDON,,,,SN5 8ZD ,2,47990,146,146,338,338,0,0,0,0.107287695
1100000743,9999999999,EIAILINGS PARTITIONS LTD,,1 HUNT LANE,DONCASTER,,,,DN5 9SF ,7,45112,146,146,90,90,0,0,0,0.739434306
1100000744,9999999999,E536LEVOPMENTS LTD,,1 BORLASES COTTAGES,MILLEY ROAD,WALTHAM ST LAWRENCE,READING,,RG10 0JY,1,45320,150,150,403,403,0,0,0,0.161390093
1100000745,9999999999,9337DT,,1 BORLASES COTTAGES,MILLEY ROAD,WALTHAM ST LAWRENCE,READING,,RG10 0JY,1,45400,149,145,2184,2184,0,0,0,0.129854883
1100000746,9999999999,OT3DOBLX LTD,,1 BOXLEY GARDENS,BOXLEY ROAD,PENENDEN HEATH,MAIDSTONE,,ME14 2BD,1,45190,145,145,426,426,0,0,0,0.427308332
1100000747,9999999999,OT3DOBLX LTD,,1 BRAESIDE,NAPHILL,HIGH WYCOMBE,BUCKS,,HP14 4RY,1,46150,154,154,348,348,0,0,0,0.301605445
1100000748,9999999999,GC3VMIESRL LTD,,1 BRITTEN CLOSE,LANGDON HILLS,BASILDON,,,SS16 6TB,1,46190,146,146,8313,8313,0,0,0,0.826501362
1100000749,9999999999,NOC4EITS SERVICES LIMITED,,1 BRITTEN CLOSE,LANGDON HILLS,BASILDON,ESSEX,,SS16 6TB,1,46310,153,158,30304,30304,0,0,0,0.971419188
1100000750,9999999999,BACCGOUGH,,1 FULLBROOK CLOSE,WOKINGHAM,BERKS,,,RG41 1QZ,1,46342,149,149,284,284,0,0,0,0.803240232
1100000751,9999999999,GAHKOLMES,,1 HILL STREET,EDINBURGH,,,,EH2 3JP ,1,46410,146,146,147,147,0,0,0,0.228971221
1100000752,9999999999,NOC4EITS SERVICES LTD,,1 BROOK COURT,BLAKENEY ROAD,BECKENHAM,KENT,,BR3 1HG ,1,46470,153,153,4600,4600,0,0,0,0.405908843
1100000753,9999999999,SRFAFTARMER CONTRACTOR,,1 HILL COTTAGE,MUNDHAM HILL,MUNDHAM,NORWICH NORFOLK,,NR14 6EJ,1,47110,148,150,445,445,0,0,0,0.878781816
1100000754,9999999999,EJANELIMITED,,1 KENSWORTH GATE,200-204 HIGH STREET SOUTH,DUNSTABLE,BEDS,,LU6 3HS ,2,47230,148,148,122,122,0,0,0,0.977647379
1100000755,9999999999,JAHOJNSON,,1 KEYTES LANE,BARFORD,WARWICKSHIRE,,,CV35 8EP,2,47290,148,148,208,208,0,0,0,0.005620589
1100000756,9999999999,IG BOX CEREAL LTD INCL VAT GROUP,,(ROAD HAULAGE CONTRS) LTD,BOW BRIDGE,WATERINGBURY,MAIDSTONE,KENT,ME18 5ED,1,47599,14245,14512,27367102,0,27367102,27367102,0,0.559758155
1100000757,9999999999,GBBROWN,,1 HAWRIDGE HILL COTTAGES,THE VALE,HAWRIDGE,CHESHAM BUCKINGHAMSHIRE,,HP5 3NU ,1,45112,180,180,141,141,0,0,0,0.109662018
1100000758,9999999999,ADLIING SOLUTIONS LTD,,1 HAZELWOOD LANE,ABBOTS LANGLEY,,,,WD5 0HA ,3,45190,180,179,168,168,0,0,0,0.638511576
1100000759,9999999999,WMILITED,,1 BARRASCROFTS,CANONBIE,,,,DG14 0RZ,1,45200,180,179,124,124,0,0,0,0.09566439
1100000760,9999999999,ASOT(CHRISTCHURCH) LIMITED,,1 GARTH EDGE,SHAWFORTH,WHITWORTH,ROCHDALE LANCASHIRE,,OL12 8EH,2,45320,179,179,75,75,0,0,0,0.509324065
1100000761,9999999999,AER,,1 GEORGE SQUARE,GLASGOW,,,,G2 5LL  ,1,45400,180,180,174,174,0,0,0,0.147794084
1100000762,9999999999,AER,,1 GLEN ROAD,HINDHEAD,SURREY,,,GU26 6QE,1,46110,180,180,365,365,0,0,0,0.588726774
1100000763,9999999999,NOCTRACTS UK LTD,,1 GLYNDE PLACE,HORSHAM,WEST SUSSEX,,,RH12 1NZ,1,46120,181,181,355,355,0,0,0,0.155672644
1100000764,9999999999,BARE,,1 GORSE ROAD,REYDON,SOUTHWOLD,,,IP18 6NQ,1,46130,182,182,265,265,0,0,0,0.446897457
1100000765,9999999999,ARR,,1 GRANVILLE AVENUE,LONG EATON,NOTTINGHAM,,,NG10 4HA,1,46140,180,180,86,86,0,0,0,0.847336788
1100000766,9999999999,J&WALTON,,1 GRANVILLE AVENUE,LONG EATON,NOTTINGHAM,,,NG10 4HA,1,46150,181,181,140,140,0,0,0,0.548629272
1100000767,9999999999,MCFLINT,,1 GARENDON WAY,GROBY,LEICESTER,,,LE6 0YR ,1,46160,180,179,468,468,0,0,0,0.269096727
1100000768,9999999999,AITRN,,1 GRAVES FARM,ALGARKIRK,BOSTON,LINCOLNSHIRE,LINCS,PE20 2BQ,2,46170,180,179,73,73,0,0,0,0.395834262
1100000769,9999999999,ABMUING/HEATING & MAINTENANCE,,1 GREEN COTTAGES,WATFORD ROAD,HARROW,MIDDLESEX,,HA1 3TS ,2,46180,179,179,69,0,0,0,69,0.763411664
1100000770,9999999999,ABMUING/HEATING AND,,1 GREENEND CLOSE,SPENCERS WOOD,READING,,,RG7 1EH ,1,46190,180,180,153,0,222,0,153,0.559519919
1100000771,9999999999,CALEPL,,1 GRESHAM STREET,LONDON,,,,EC2V 7BX,3,46210,179,179,105,105,0,0,0,0.921557127
1100000772,9999999999,RESVICES LTD,,1 GREY TERRACE,RYHOPE,SUNDERLAND,,,SR2 0QT ,1,46220,181,181,300,300,0,0,0,0.592472131
1100000773,9999999999,TIKCHENS LTD,,1 GREY TERRACE,SUNDERLAND,,,,SR2 0QT ,1,46230,180,180,557,557,0,0,0,0.01415258
1100000774,9999999999,ANOLLIMITED,,1 GROVE LODGE COTTAGES,BINSTED,ARUNDEL,WEST SUSSEX,,BN18 0LQ,1,46342,182,182,974,974,0,0,0,0.131388519
1100000775,9999999999,DASI,,1 HATHERMEAD GARDEN,YEOVIL,SOMERSET,,,BA21 5BY,1,46240,180,179,102,102,0,0,0,0.45953444
1100000776,9999999999,2BIHPC DESIGN LTD,,1 BALLYCREGAGH ROAD,CLOUGHMILLS,BALLYMENA,,,BT44 9LB,1,46410,179,179,68,68,0,0,0,0.653803996
1100000777,9999999999,ALIVENGINEERING LTD,,1 LAWSON GARDENS,PINNER,MIDDLESEX,,,HA5 2BR ,2,46440,183,180,141,141,0,0,0,0.121961949
1100000778,9999999999,ANELTD,,1 KENT ROAD WEST,MANCHESTER,,,,M14 5RF ,2,46510,181,181,155,155,0,0,0,0.621892928
1100000779,9999999999,AWDAICK,,1 LAWN COTTAGES,NEWCASTLE,CRAVEN ARMS,SHROPSHIRE,,SY7 8PL ,3,46520,180,180,320,320,0,0,0,0.406143877
1100000780,9999999999,ASSUEX) LTD,,1 LANSDOWNE VILLAS,GOODLEIGH ROAD,BARNSTAPLE,DEVON,,EX32 7JR,2,46620,180,180,152,152,0,0,0,0.494891839
1100000781,9999999999,AFYRICS,,1 LITTLE JENKYN,HOLE LANE,BENTLEY,HAMPSHIRE,,GU10 5LU,2,46660,179,181,115,115,0,0,0,0.494825195
1100000782,9999999999,AWMHOLESALE LTD,,1 FREEWATERS CLOSE,ICKLEFORD,HITCHIN,,,SG5 3TQ ,2,46711,179,179,148,148,0,0,0,0.370126163
1100000783,9999999999,ASOT( CHRISTCHURCH ) LIMITED,,1 GARLING WALK,WEST BERGHOLT,COLCHESTER,,,CO6 3LG ,2,46720,180,179,163,163,0,0,0,0.07784677
1100000784,9999999999,NOCSULTANCY LTD,,1 LOWER BAR,NEWPORT,,,,TF10 7BE,2,46770,181,181,134,134,0,0,0,0.019564761
1100000785,9999999999,APMLUMBING AND HEATING LTD,,1 FINWAY ROAD,HEMEL HEMPSTEAD INDUSTRIAL EST,HEMEL HEMPSTEAD,,,HP2 7PT ,1,46900,180,179,167,167,0,0,0,0.350372866
1100000786,9999999999,ATBAREE LTD,,1 LENAMORE DRIVE,NEWTOWNABBEY,,,,BT37 0PQ,1,47110,181,181,112,112,0,0,0,0.588254436
1100000787,9999999999,JMHUGHES,,1 KINROSS ROAD,LESLIE,FIFE,,,KY6 3NE ,1,47190,183,183,247,247,0,0,0,0.769370549
1100000788,9999999999,WDTL,,1 BEARDS TERRACE,COGGESHALL,COLCHESTER,,,CO6 1TB ,1,47220,180,179,323,323,0,0,0,0.976052225
1100000789,9999999999,AESSX LTD,,1 LUMLEY STREET,LONDON,,,,W1K 6TT ,2,47240,183,183,178,178,0,0,0,0.706628701
1100000790,9999999999,JNWEATHERHEAD & J A KING,,1 HILLTOP,TILLINGTON,PETWORTH,,,GU28 9AQ,1,47300,186,186,182,182,0,0,0,0.659872546
1100000791,9999999999,AIDLNG & STEEL FABRIC,,1 LUMLEY STREET,MAYFAIR,LONDON,,,W1K 6TT ,2,47410,181,181,134,134,0,0,0,0.859567233
1100000792,9999999999,AEMWOODHOUSE,,1 FIELD COTTAGES,FIELD LANE,HENSALL,GOOLE NORTH HUMBERSIDE,,DN14 0RB,7,47421,182,181,443,443,0,0,0,0.95611472
1100000793,9999999999,ASUDTRIAL (UK) LTD,,1 LITTLE JENKYN,HOLE LANE,BENTLEY,HAMPSHIRE,,GU10 5LU,7,47429,183,182,244,244,0,0,0,0.095175064
1100000794,9999999999,APMLUMBING AND HEATING,,1 FINWAY ROAD,HEMEL HEMPSTEAD,HERTFORDSHIRE,,,HP2 7PT ,2,47429,180,179,87,87,0,0,0,0.229164677
1100000795,9999999999,AIDLNG & STEEL FABRICATION,,1 MAIN ROAD,HANWOOD,SHREWSBURY,SHROPSHIRE,,SY5 8LY ,1,47610,183,184,405,405,0,0,0,0.125115433
1100000796,9999999999,SIMCHIATI,,1 HIGH LODGE,COVENTRY ROAD,COLESHILL,NORTH WARWICKSHIRE,,B46 3FE ,1,47620,185,185,371,371,0,0,0,0.943762406
1100000797,9999999999,HATHLTD,,1 HILLVIEW COTTAGES,STRATFORD BRIDGE RIPPLE,TEWKESBURY,GLOUCESTERSHIRE,,GL20 6HE,1,47720,180,180,121,121,0,0,0,0.14303247
1100000798,9999999999,HKEATHER,,1 INMAN ROAD,NORWICH,,,,NR7 8JT ,1,47722,180,180,125,125,0,0,0,0.972168445
1100000799,9999999999,AEWSLL LIMITED,,1 KELSO PLACE,UPPER BRISTOL ROAD,BATH,,,BA1 3AU ,1,47740,182,182,264,264,0,0,0,0.048476303
1100000800,9999999999,ASUILTD,,1 JINGLERS COURT,BANBRIDGE,,,,BT32 3YJ,1,47749,184,185,278,278,0,0,0,0.82388836
1100000801,9999999999,ULPMBING & HEATING LTD,,1 JINGLERS COURT,BANBRIDGE,CO DOWN,,,BT32 3YJ,1,47781,183,215,292,292,0,0,0,0.300331638
1100000802,9999999999,AER,,1 GLYNDE PLACE,HORSHAM,,,,RH12 1NZ,1,47782,182,181,185,185,0,0,0,0.796852444
1100000803,9999999999,2CD,,1 BARN CLOSE,QUARNDON,DERBY,,,DE22 5JE,1,47789,180,179,132,132,0,0,0,0.086440927
1100000804,9999999999,JLMOORLAND,,1 HOSKINS PLACE,WATCHETTS ROAD,CAMBERLEY,SURREY,,GU15 2PB,1,47820,183,183,348,348,0,0,0,0.804599577
1100000805,9999999999,AELIR MAINTENANCE LIMITED,,1 JUNO WAY,SWINDON,,,,SN5 8ZD ,2,47990,180,180,372,372,0,0,0,0.1041543
1100000806,9999999999,AILINGS PARTITIONS LTD,,1 HUNT LANE,DONCASTER,,,,DN5 9SF ,7,45112,180,180,124,124,0,0,0,0.736300911
1100000807,9999999999,36LEVOPMENTS LTD,,1 BORLASES COTTAGES,MILLEY ROAD,WALTHAM ST LAWRENCE,READING,,RG10 0JY,1,45320,184,184,437,437,0,0,0,0.158256698
1100000808,9999999999,37DT,,1 BORLASES COTTAGES,MILLEY ROAD,WALTHAM ST LAWRENCE,READING,,RG10 0JY,1,45400,183,179,2218,2218,0,0,0,0.126721488
1100000809,9999999999,3DOBLX LTD,,1 BOXLEY GARDENS,BOXLEY ROAD,PENENDEN HEATH,MAIDSTONE,,ME14 2BD,1,45190,179,179,460,460,0,0,0,0.424174937
1100000810,9999999999,3DOBLX LTD,,1 BRAESIDE,NAPHILL,HIGH WYCOMBE,BUCKS,,HP14 4RY,1,46150,188,188,382,382,0,0,0,0.29847205
1100000811,9999999999,3VMIESRL LTD,,1 BRITTEN CLOSE,LANGDON HILLS,BASILDON,,,SS16 6TB,1,46190,180,180,8347,8347,0,0,0,0.823367967
1100000812,9999999999,C4EITS SERVICES LIMITED,,1 BRITTEN CLOSE,LANGDON HILLS,BASILDON,ESSEX,,SS16 6TB,1,46310,187,192,30338,30338,0,0,0,0.968285793
1100000813,9999999999,CCGOUGH,,1 FULLBROOK CLOSE,WOKINGHAM,BERKS,,,RG41 1QZ,1,46342,183,183,318,318,0,0,0,0.800106837
1100000814,9999999999,HKOLMES,,1 HILL STREET,EDINBURGH,,,,EH2 3JP ,1,46410,180,180,181,181,0,0,0,0.225837826
1100000815,9999999999,C4EITS SERVICES LTD,,1 BROOK COURT,BLAKENEY ROAD,BECKENHAM,KENT,,BR3 1HG ,1,46470,187,187,4634,4634,0,0,0,0.402775448
1100000816,9999999999,FAFTARMER CONTRACTOR,,1 HILL COTTAGE,MUNDHAM HILL,MUNDHAM,NORWICH NORFOLK,,NR14 6EJ,1,47110,182,184,479,479,0,0,0,0.875648421
1100000817,9999999999,ANELIMITED,,1 KENSWORTH GATE,200-204 HIGH STREET SOUTH,DUNSTABLE,BEDS,,LU6 3HS ,2,47230,182,182,156,156,0,0,0,0.974513984
1100000818,9999999999,HOJNSON,,1 KEYTES LANE,BARFORD,WARWICKSHIRE,,,CV35 8EP,2,47290,182,182,242,242,0,0,0,0.002487194
1100000819,9999999999, BOX CEREAL LTD INCL VAT GROUP,,(ROAD HAULAGE CONTRS) LTD,BOW BRIDGE,WATERINGBURY,MAIDSTONE,KENT,ME18 5ED,1,47599,14379,14646,27367136,0,27367136,27367136,0,0.55662476
1100000820,9999999999,BROWN,,1 HAWRIDGE HILL COTTAGES,THE VALE,HAWRIDGE,CHESHAM BUCKINGHAMSHIRE,,HP5 3NU ,1,45112,293,293,154,154,0,0,0,0.110664598
1100000821,9999999999,LIING SOLUTIONS LTD,,1 HAZELWOOD LANE,ABBOTS LANGLEY,,,,WD5 0HA ,3,45190,293,292,181,78,0,0,0,0.639514156
1100000822,9999999999,ILITED,,1 BARRASCROFTS,CANONBIE,,,,DG14 0RZ,1,45200,293,292,137,137,0,0,0,0.09666697
1100000823,9999999999,OT(CHRISTCHURCH) LIMITED,,1 GARTH EDGE,SHAWFORTH,WHITWORTH,ROCHDALE LANCASHIRE,,OL12 8EH,2,45320,292,292,88,88,0,0,0,0.510326645
1100000824,9999999999,R,,1 GEORGE SQUARE,GLASGOW,,,,G2 5LL  ,1,45400,293,293,187,187,0,0,0,0.148796664
1100000825,9999999999,R,,1 GLEN ROAD,HINDHEAD,SURREY,,,GU26 6QE,1,46110,293,293,378,378,0,0,0,0.589729354
1100000826,9999999999,CTRACTS UK LTD,,1 GLYNDE PLACE,HORSHAM,WEST SUSSEX,,,RH12 1NZ,1,46120,294,294,368,368,0,0,0,0.156675224
1100000827,9999999999,RE,,1 GORSE ROAD,REYDON,SOUTHWOLD,,,IP18 6NQ,1,46130,295,295,278,278,0,0,0,0.447900037
1100000828,9999999999,R,,1 GRANVILLE AVENUE,LONG EATON,NOTTINGHAM,,,NG10 4HA,1,46140,293,293,99,99,0,0,0,0.848339368
1100000829,9999999999,WALTON,,1 GRANVILLE AVENUE,LONG EATON,NOTTINGHAM,,,NG10 4HA,1,46150,294,294,153,153,0,0,0,0.549631852
1100000830,9999999999,FLINT,,1 GARENDON WAY,GROBY,LEICESTER,,,LE6 0YR ,1,46160,293,292,481,108,0,0,0,0.270099307
1100000831,9999999999,TRN,,1 GRAVES FARM,ALGARKIRK,BOSTON,LINCOLNSHIRE,LINCS,PE20 2BQ,2,46170,293,292,86,86,0,0,0,0.396836842
1100000832,9999999999,MUING/HEATING & MAINTENANCE,,1 GREEN COTTAGES,WATFORD ROAD,HARROW,MIDDLESEX,,HA1 3TS ,2,46180,292,292,82,0,0,0,82,0.764414244
1100000833,9999999999,MUING/HEATING AND,,1 GREENEND CLOSE,SPENCERS WOOD,READING,,,RG7 1EH ,1,46190,293,293,166,0,248,0,166,0.560522499
1100000834,9999999999,LEPL,,1 GRESHAM STREET,LONDON,,,,EC2V 7BX,3,46210,292,292,118,118,0,0,0,0.922559707
1100000835,9999999999,SVICES LTD,,1 GREY TERRACE,RYHOPE,SUNDERLAND,,,SR2 0QT ,1,46220,294,294,313,313,0,0,0,0.593474711
1100000836,9999999999,KCHENS LTD,,1 GREY TERRACE,SUNDERLAND,,,,SR2 0QT ,1,46230,293,293,570,570,0,0,0,0.01515516
1100000837,9999999999,OLLIMITED,,1 GROVE LODGE COTTAGES,BINSTED,ARUNDEL,WEST SUSSEX,,BN18 0LQ,1,46342,295,295,987,987,0,0,0,0.132391099
1100000838,9999999999,SI,,1 HATHERMEAD GARDEN,YEOVIL,SOMERSET,,,BA21 5BY,1,46240,293,292,115,115,0,0,0,0.46053702
1100000839,9999999999,IHPC DESIGN LTD,,1 BALLYCREGAGH ROAD,CLOUGHMILLS,BALLYMENA,,,BT44 9LB,1,46410,292,292,81,68,0,0,0,0.654806576
1100000840,9999999999,IVENGINEERING LTD,,1 LAWSON GARDENS,PINNER,MIDDLESEX,,,HA5 2BR ,2,46440,296,293,154,154,0,0,0,0.122964529
1100000841,9999999999,ELTD,,1 KENT ROAD WEST,MANCHESTER,,,,M14 5RF ,2,46510,294,294,168,168,0,0,0,0.622895508
1100000842,9999999999,DAICK,,1 LAWN COTTAGES,NEWCASTLE,CRAVEN ARMS,SHROPSHIRE,,SY7 8PL ,3,46520,293,293,333,333,0,0,0,0.407146457
1100000843,9999999999,SUEX) LTD,,1 LANSDOWNE VILLAS,GOODLEIGH ROAD,BARNSTAPLE,DEVON,,EX32 7JR,2,46620,293,293,165,165,0,0,0,0.495894419
1100000844,9999999999,YRICS,,1 LITTLE JENKYN,HOLE LANE,BENTLEY,HAMPSHIRE,,GU10 5LU,2,46660,292,294,128,128,0,0,0,0.495827775
1100000845,9999999999,MHOLESALE LTD,,1 FREEWATERS CLOSE,ICKLEFORD,HITCHIN,,,SG5 3TQ ,2,46711,292,292,161,161,0,0,0,0.371128743
1100000846,9999999999,OT( CHRISTCHURCH ) LIMITED,,1 GARLING WALK,WEST BERGHOLT,COLCHESTER,,,CO6 3LG ,2,46720,293,292,176,176,0,0,0,0.07884935
1100000847,9999999999,CSULTANCY LTD,,1 LOWER BAR,NEWPORT,,,,TF10 7BE,2,46770,294,294,147,147,0,0,0,0.020567341
1100000848,9999999999,MLUMBING AND HEATING LTD,,1 FINWAY ROAD,HEMEL HEMPSTEAD INDUSTRIAL EST,HEMEL HEMPSTEAD,,,HP2 7PT ,1,46900,293,292,180,180,0,0,0,0.351375446
1100000849,9999999999,BAREE LTD,,1 LENAMORE DRIVE,NEWTOWNABBEY,,,,BT37 0PQ,1,47110,294,294,125,125,0,0,0,0.589257016
1100000850,9999999999,HUGHES,,1 KINROSS ROAD,LESLIE,FIFE,,,KY6 3NE ,1,47190,296,296,260,260,0,0,0,0.770373129
1100000851,9999999999,TL,,1 BEARDS TERRACE,COGGESHALL,COLCHESTER,,,CO6 1TB ,1,47220,293,292,336,336,0,0,0,0.977054805
1100000852,9999999999,SSX LTD,,1 LUMLEY STREET,LONDON,,,,W1K 6TT ,2,47240,296,296,191,191,0,0,0,0.707631281
1100000853,9999999999,WEATHERHEAD & J A KING,,1 HILLTOP,TILLINGTON,PETWORTH,,,GU28 9AQ,1,47300,299,299,195,195,0,0,0,0.660875126
1100000854,9999999999,DLNG & STEEL FABRIC,,1 LUMLEY STREET,MAYFAIR,LONDON,,,W1K 6TT ,2,47410,294,294,147,147,0,0,0,0.860569813
1100000855,9999999999,MWOODHOUSE,,1 FIELD COTTAGES,FIELD LANE,HENSALL,GOOLE NORTH HUMBERSIDE,,DN14 0RB,7,47421,295,294,456,456,0,0,0,0.9571173
1100000856,9999999999,UDTRIAL (UK) LTD,,1 LITTLE JENKYN,HOLE LANE,BENTLEY,HAMPSHIRE,,GU10 5LU,7,47429,296,295,257,257,0,0,0,0.096177644
1100000857,9999999999,MLUMBING AND HEATING,,1 FINWAY ROAD,HEMEL HEMPSTEAD,HERTFORDSHIRE,,,HP2 7PT ,2,47429,293,292,100,100,0,0,0,0.230167257
1100000858,9999999999,DLNG & STEEL FABRICATION,,1 MAIN ROAD,HANWOOD,SHREWSBURY,SHROPSHIRE,,SY5 8LY ,1,47610,296,297,418,418,0,0,0,0.126118013
1100000859,9999999999,MCHIATI,,1 HIGH LODGE,COVENTRY ROAD,COLESHILL,NORTH WARWICKSHIRE,,B46 3FE ,1,47620,298,298,384,384,0,0,0,0.944764986
1100000860,9999999999,THLTD,,1 HILLVIEW COTTAGES,STRATFORD BRIDGE RIPPLE,TEWKESBURY,GLOUCESTERSHIRE,,GL20 6HE,1,47720,293,293,134,134,0,0,0,0.14403505
1100000861,9999999999,EATHER,,1 INMAN ROAD,NORWICH,,,,NR7 8JT ,1,47722,293,293,138,138,0,0,0,0.973171025
1100000862,9999999999,WSLL LIMITED,,1 KELSO PLACE,UPPER BRISTOL ROAD,BATH,,,BA1 3AU ,1,47740,295,295,277,277,0,0,0,0.049478883
1100000863,9999999999,UILTD,,1 JINGLERS COURT,BANBRIDGE,,,,BT32 3YJ,1,47749,297,298,291,291,0,0,0,0.82489094
1100000864,9999999999,PMBING & HEATING LTD,,1 JINGLERS COURT,BANBRIDGE,CO DOWN,,,BT32 3YJ,1,47781,296,328,305,305,0,0,0,0.301334218
1100000865,9999999999,R,,1 GLYNDE PLACE,HORSHAM,,,,RH12 1NZ,1,47782,295,294,198,68,0,0,0,0.797855024
1100000866,9999999999,D,,1 BARN CLOSE,QUARNDON,DERBY,,,DE22 5JE,1,47789,293,292,145,145,0,0,0,0.087443507
1100000867,9999999999,MOORLAND,,1 HOSKINS PLACE,WATCHETTS ROAD,CAMBERLEY,SURREY,,GU15 2PB,1,47820,296,296,361,361,0,0,0,0.805602157
1100000868,9999999999,LIR MAINTENANCE LIMITED,,1 JUNO WAY,SWINDON,,,,SN5 8ZD ,2,47990,293,293,385,385,0,0,0,0.10515688
1100000869,9999999999,LINGS PARTITIONS LTD,,1 HUNT LANE,DONCASTER,,,,DN5 9SF ,7,45112,293,293,137,137,0,0,0,0.737303491
1100000870,9999999999,LEVOPMENTS LTD,,1 BORLASES COTTAGES,MILLEY ROAD,WALTHAM ST LAWRENCE,READING,,RG10 0JY,1,45320,297,297,450,450,0,0,0,0.159259278
1100000871,9999999999,DT,,1 BORLASES COTTAGES,MILLEY ROAD,WALTHAM ST LAWRENCE,READING,,RG10 0JY,1,45400,296,292,2231,2231,0,0,0,0.127724068
1100000872,9999999999,OBLX LTD,,1 BOXLEY GARDENS,BOXLEY ROAD,PENENDEN HEATH,MAIDSTONE,,ME14 2BD,1,45190,292,292,473,473,0,0,0,0.425177517
1100000873,9999999999,OBLX LTD,,1 BRAESIDE,NAPHILL,HIGH WYCOMBE,BUCKS,,HP14 4RY,1,46150,301,301,395,395,0,0,0,0.29947463
1100000874,9999999999,MIESRL LTD,,1 BRITTEN CLOSE,LANGDON HILLS,BASILDON,,,SS16 6TB,1,46190,293,293,8360,8360,0,0,0,0.824370547
1100000875,9999999999,EITS SERVICES LIMITED,,1 BRITTEN CLOSE,LANGDON HILLS,BASILDON,ESSEX,,SS16 6TB,1,46310,300,305,30351,30351,0,0,0,0.969288373
1100000876,9999999999,GOUGH,,1 FULLBROOK CLOSE,WOKINGHAM,BERKS,,,RG41 1QZ,1,46342,296,296,331,331,0,0,0,0.801109417
1100000877,9999999999,OLMES,,1 HILL STREET,EDINBURGH,,,,EH2 3JP ,1,46410,293,293,194,194,0,0,0,0.226840406
1100000878,9999999999,EITS SERVICES LTD,,1 BROOK COURT,BLAKENEY ROAD,BECKENHAM,KENT,,BR3 1HG ,1,46470,300,300,4647,4647,0,0,0,0.403778028
1100000879,9999999999,FTARMER CONTRACTOR,,1 HILL COTTAGE,MUNDHAM HILL,MUNDHAM,NORWICH NORFOLK,,NR14 6EJ,1,47110,295,297,492,492,0,0,0,0.876651001
1100000880,9999999999,ELIMITED,,1 KENSWORTH GATE,200-204 HIGH STREET SOUTH,DUNSTABLE,BEDS,,LU6 3HS ,2,47230,295,295,169,169,0,0,0,0.975516564
1100000881,9999999999,JNSON,,1 KEYTES LANE,BARFORD,WARWICKSHIRE,,,CV35 8EP,2,47290,295,295,255,255,0,0,0,0.003489774
1100000882,9999999999,OX CEREAL LTD INCL VAT GROUP,,(ROAD HAULAGE CONTRS) LTD,BOW BRIDGE,WATERINGBURY,MAIDSTONE,KENT,ME18 5ED,1,47599,14392,14659,27367149,0,27367149,27367149,0,0.55762734
1100000883,9999999999,BBROWN,,1 HAWRIDGE HILL COTTAGES,THE VALE,HAWRIDGE,CHESHAM BUCKINGHAMSHIRE,,HP5 3NU ,1,45112,301,301,162,162,0,0,0,0.111818019
1100000884,9999999999,DLIING SOLUTIONS LTD,,1 HAZELWOOD LANE,ABBOTS LANGLEY,,,,WD5 0HA ,3,45190,301,300,189,189,0,0,0,0.640667577
1100000885,9999999999,MILITED,,1 BARRASCROFTS,CANONBIE,,,,DG14 0RZ,1,45200,301,300,145,145,0,0,0,0.097820391
1100000886,9999999999,SOT(CHRISTCHURCH) LIMITED,,1 GARTH EDGE,SHAWFORTH,WHITWORTH,ROCHDALE LANCASHIRE,,OL12 8EH,2,45320,300,300,96,96,0,0,0,0.511480066
1100000887,9999999999,ER,,1 GEORGE SQUARE,GLASGOW,,,,G2 5LL  ,1,45400,301,301,195,195,0,0,0,0.149950085
1100000888,9999999999,ER,,1 GLEN ROAD,HINDHEAD,SURREY,,,GU26 6QE,1,46110,301,301,386,386,0,0,0,0.590882775
1100000889,9999999999,OCTRACTS UK LTD,,1 GLYNDE PLACE,HORSHAM,WEST SUSSEX,,,RH12 1NZ,1,46120,302,302,376,376,0,0,0,0.157828645
1100000890,9999999999,ARE,,1 GORSE ROAD,REYDON,SOUTHWOLD,,,IP18 6NQ,1,46130,303,303,286,286,0,0,0,0.449053458
1100000891,9999999999,RR,,1 GRANVILLE AVENUE,LONG EATON,NOTTINGHAM,,,NG10 4HA,1,46140,301,301,107,107,0,0,0,0.849492789
1100000892,9999999999,&WALTON,,1 GRANVILLE AVENUE,LONG EATON,NOTTINGHAM,,,NG10 4HA,1,46150,302,302,161,161,0,0,0,0.550785273
1100000893,9999999999,CFLINT,,1 GARENDON WAY,GROBY,LEICESTER,,,LE6 0YR ,1,46160,301,300,489,489,0,0,0,0.271252728
1100000894,9999999999,ITRN,,1 GRAVES FARM,ALGARKIRK,BOSTON,LINCOLNSHIRE,LINCS,PE20 2BQ,2,46170,301,300,94,94,0,0,0,0.397990263
1100000895,9999999999,BMUING/HEATING & MAINTENANCE,,1 GREEN COTTAGES,WATFORD ROAD,HARROW,MIDDLESEX,,HA1 3TS ,2,46180,300,300,90,0,0,0,90,0.765567665
1100000896,9999999999,BMUING/HEATING AND,,1 GREENEND CLOSE,SPENCERS WOOD,READING,,,RG7 1EH ,1,46190,301,301,106,0,196,0,106,0.56167592
1100000897,9999999999,ALEPL,,1 GRESHAM STREET,LONDON,,,,EC2V 7BX,3,46210,300,300,126,126,0,0,0,0.923713128
1100000898,9999999999,ESVICES LTD,,1 GREY TERRACE,RYHOPE,SUNDERLAND,,,SR2 0QT ,1,46220,302,302,321,321,0,0,0,0.594628132
1100000899,9999999999,IKCHENS LTD,,1 GREY TERRACE,SUNDERLAND,,,,SR2 0QT ,1,46230,301,301,578,578,0,0,0,0.016308581
1100000900,9999999999,NOLLIMITED,,1 GROVE LODGE COTTAGES,BINSTED,ARUNDEL,WEST SUSSEX,,BN18 0LQ,1,46342,303,303,995,995,0,0,0,0.13354452
1100000901,9999999999,ASI,,1 HATHERMEAD GARDEN,YEOVIL,SOMERSET,,,BA21 5BY,1,46240,301,300,123,123,0,0,0,0.461690441
1100000902,9999999999,BIHPC DESIGN LTD,,1 BALLYCREGAGH ROAD,CLOUGHMILLS,BALLYMENA,,,BT44 9LB,1,46410,300,300,89,89,0,0,0,0.655959997
1100000903,9999999999,LIVENGINEERING LTD,,1 LAWSON GARDENS,PINNER,MIDDLESEX,,,HA5 2BR ,2,46440,304,301,162,162,0,0,0,0.12411795
1100000904,9999999999,NELTD,,1 KENT ROAD WEST,MANCHESTER,,,,M14 5RF ,2,46510,302,302,176,176,0,0,0,0.624048929
1100000905,9999999999,WDAICK,,1 LAWN COTTAGES,NEWCASTLE,CRAVEN ARMS,SHROPSHIRE,,SY7 8PL ,3,46520,301,301,341,341,0,0,0,0.408299878
1100000906,9999999999,SSUEX) LTD,,1 LANSDOWNE VILLAS,GOODLEIGH ROAD,BARNSTAPLE,DEVON,,EX32 7JR,2,46620,301,301,173,173,0,0,0,0.49704784
1100000907,9999999999,FYRICS,,1 LITTLE JENKYN,HOLE LANE,BENTLEY,HAMPSHIRE,,GU10 5LU,2,46660,300,302,136,136,0,0,0,0.496981196
1100000908,9999999999,WMHOLESALE LTD,,1 FREEWATERS CLOSE,ICKLEFORD,HITCHIN,,,SG5 3TQ ,2,46711,300,300,169,169,0,0,0,0.372282164
1100000909,9999999999,SOT( CHRISTCHURCH ) LIMITED,,1 GARLING WALK,WEST BERGHOLT,COLCHESTER,,,CO6 3LG ,2,46720,301,300,184,184,0,0,0,0.080002771
1100000910,9999999999,OCSULTANCY LTD,,1 LOWER BAR,NEWPORT,,,,TF10 7BE,2,46770,302,302,155,155,0,0,0,0.021720762
1100000911,9999999999,PMLUMBING AND HEATING LTD,,1 FINWAY ROAD,HEMEL HEMPSTEAD INDUSTRIAL EST,HEMEL HEMPSTEAD,,,HP2 7PT ,1,46900,301,300,188,188,0,0,0,0.352528867
1100000912,9999999999,TBAREE LTD,,1 LENAMORE DRIVE,NEWTOWNABBEY,,,,BT37 0PQ,1,47110,302,302,133,133,0,0,0,0.590410437
1100000913,9999999999,MHUGHES,,1 KINROSS ROAD,LESLIE,FIFE,,,KY6 3NE ,1,47190,304,304,268,268,0,0,0,0.77152655
1100000914,9999999999,DTL,,1 BEARDS TERRACE,COGGESHALL,COLCHESTER,,,CO6 1TB ,1,47220,301,300,344,344,0,0,0,0.978208226
1100000915,9999999999,ESSX LTD,,1 LUMLEY STREET,LONDON,,,,W1K 6TT ,2,47240,304,304,199,199,0,0,0,0.708784702
1100000916,9999999999,NWEATHERHEAD & J A KING,,1 HILLTOP,TILLINGTON,PETWORTH,,,GU28 9AQ,1,47300,307,307,203,203,0,0,0,0.662028547
1100000917,9999999999,IDLNG & STEEL FABRIC,,1 LUMLEY STREET,MAYFAIR,LONDON,,,W1K 6TT ,2,47410,302,302,155,155,0,0,0,0.861723234
1100000918,9999999999,EMWOODHOUSE,,1 FIELD COTTAGES,FIELD LANE,HENSALL,GOOLE NORTH HUMBERSIDE,,DN14 0RB,7,47421,303,302,464,464,0,0,0,0.958270721
1100000919,9999999999,SUDTRIAL (UK) LTD,,1 LITTLE JENKYN,HOLE LANE,BENTLEY,HAMPSHIRE,,GU10 5LU,7,47429,304,303,265,265,0,0,0,0.097331065
1100000920,9999999999,PMLUMBING AND HEATING,,1 FINWAY ROAD,HEMEL HEMPSTEAD,HERTFORDSHIRE,,,HP2 7PT ,2,47429,301,300,108,108,0,0,0,0.231320678
1100000921,9999999999,IDLNG & STEEL FABRICATION,,1 MAIN ROAD,HANWOOD,SHREWSBURY,SHROPSHIRE,,SY5 8LY ,1,47610,304,305,426,426,0,0,0,0.127271434
1100000922,9999999999,IMCHIATI,,1 HIGH LODGE,COVENTRY ROAD,COLESHILL,NORTH WARWICKSHIRE,,B46 3FE ,1,47620,306,306,392,392,0,0,0,0.945918407
1100000923,9999999999,ATHLTD,,1 HILLVIEW COTTAGES,STRATFORD BRIDGE RIPPLE,TEWKESBURY,GLOUCESTERSHIRE,,GL20 6HE,1,47720,301,301,142,142,0,0,0,0.145188471
1100000924,9999999999,KEATHER,,1 INMAN ROAD,NORWICH,,,,NR7 8JT ,1,47722,301,301,146,146,0,0,0,0.974324446
1100000925,9999999999,EWSLL LIMITED,,1 KELSO PLACE,UPPER BRISTOL ROAD,BATH,,,BA1 3AU ,1,47740,303,303,285,285,0,0,0,0.050632304
1100000926,9999999999,SUILTD,,1 JINGLERS COURT,BANBRIDGE,,,,BT32 3YJ,1,47749,305,306,299,299,0,0,0,0.826044361
1100000927,9999999999,LPMBING & HEATING LTD,,1 JINGLERS COURT,BANBRIDGE,CO DOWN,,,BT32 3YJ,1,47781,304,336,313,313,0,0,0,0.302487639
1100000928,9999999999,ER,,1 GLYNDE PLACE,HORSHAM,,,,RH12 1NZ,1,47782,303,302,206,206,0,0,0,0.799008445
1100000929,9999999999,CD,,1 BARN CLOSE,QUARNDON,DERBY,,,DE22 5JE,1,47789,301,300,153,153,0,0,0,0.088596928
1100000930,9999999999,LMOORLAND,,1 HOSKINS PLACE,WATCHETTS ROAD,CAMBERLEY,SURREY,,GU15 2PB,1,47820,304,304,369,369,0,0,0,0.806755578
1100000931,9999999999,ELIR MAINTENANCE LIMITED,,1 JUNO WAY,SWINDON,,,,SN5 8ZD ,2,47990,301,301,393,393,0,0,0,0.106310301
1100000932,9999999999,ILINGS PARTITIONS LTD,,1 HUNT LANE,DONCASTER,,,,DN5 9SF ,7,45112,301,301,145,145,0,0,0,0.738456912
1100000933,9999999999,6LEVOPMENTS LTD,,1 BORLASES COTTAGES,MILLEY ROAD,WALTHAM ST LAWRENCE,READING,,RG10 0JY,1,45320,305,305,458,458,0,0,0,0.160412699
1100000934,9999999999,7DT,,1 BORLASES COTTAGES,MILLEY ROAD,WALTHAM ST LAWRENCE,READING,,RG10 0JY,1,45400,304,300,2239,2239,0,0,0,0.128877489
1100000935,9999999999,DOBLX LTD,,1 BOXLEY GARDENS,BOXLEY ROAD,PENENDEN HEATH,MAIDSTONE,,ME14 2BD,1,45190,300,300,481,481,0,0,0,0.426330938
1100000936,9999999999,DOBLX LTD,,1 BRAESIDE,NAPHILL,HIGH WYCOMBE,BUCKS,,HP14 4RY,1,46150,309,309,403,403,0,0,0,0.300628051
1100000937,9999999999,VMIESRL LTD,,1 BRITTEN CLOSE,LANGDON HILLS,BASILDON,,,SS16 6TB,1,46190,301,301,8368,8368,0,0,0,0.825523968
1100000938,9999999999,4EITS SERVICES LIMITED,,1 BRITTEN CLOSE,LANGDON HILLS,BASILDON,ESSEX,,SS16 6TB,1,46310,308,313,30359,30359,0,0,0,0.970441794
1100000939,9999999999,CGOUGH,,1 FULLBROOK CLOSE,WOKINGHAM,BERKS,,,RG41 1QZ,1,46342,304,304,339,339,0,0,0,0.802262838
1100000940,9999999999,KOLMES,,1 HILL STREET,EDINBURGH,,,,EH2 3JP ,1,46410,301,301,202,202,0,0,0,0.227993827
1100000941,9999999999,4EITS SERVICES LTD,,1 BROOK COURT,BLAKENEY ROAD,BECKENHAM,KENT,,BR3 1HG ,1,46470,308,308,4655,4655,0,0,0,0.404931449
1100000942,9999999999,AFTARMER CONTRACTOR,,1 HILL COTTAGE,MUNDHAM HILL,MUNDHAM,NORWICH NORFOLK,,NR14 6EJ,1,47110,303,305,500,500,0,0,0,0.877804422
1100000943,9999999999,NELIMITED,,1 KENSWORTH GATE,200-204 HIGH STREET SOUTH,DUNSTABLE,BEDS,,LU6 3HS ,2,47230,303,303,177,177,0,0,0,0.976669985
1100000944,9999999999,OJNSON,,1 KEYTES LANE,BARFORD,WARWICKSHIRE,,,CV35 8EP,2,47290,303,303,263,263,0,0,0,0.004643195
1100000945,9999999999,BOX CEREAL LTD INCL VAT GROUP,,(ROAD HAULAGE CONTRS) LTD,BOW BRIDGE,WATERINGBURY,MAIDSTONE,KENT,ME18 5ED,1,47599,14400,14667,27367157,0,27367157,27367157,0,0.558780761
1100000946,9999999999,BBROWN,,1 HAWRIDGE HILL COTTAGES,THE VALE,HAWRIDGE,CHESHAM BUCKINGHAMSHIRE,,HP5 3NU ,1,45112,314,314,175,175,0,0,0,0.112820599
1100000947,9999999999,DLIING SOLUTIONS LTD,,1 HAZELWOOD LANE,ABBOTS LANGLEY,,,,WD5 0HA ,3,45190,314,313,202,99,0,0,0,0.641670157
1100000948,9999999999,MILITED,,1 BARRASCROFTS,CANONBIE,,,,DG14 0RZ,1,45200,314,313,158,158,0,0,0,0.098822971
1100000949,9999999999,SOT(CHRISTCHURCH) LIMITED,,1 GARTH EDGE,SHAWFORTH,WHITWORTH,ROCHDALE LANCASHIRE,,OL12 8EH,2,45320,313,313,109,109,0,0,0,0.512482646
1100000950,9999999999,ER,,1 GEORGE SQUARE,GLASGOW,,,,G2 5LL  ,1,45400,314,314,208,208,0,0,0,0.150952665
1100000951,9999999999,ER,,1 GLEN ROAD,HINDHEAD,SURREY,,,GU26 6QE,1,46110,314,314,399,399,0,0,0,0.591885355
1100000952,9999999999,OCTRACTS UK LTD,,1 GLYNDE PLACE,HORSHAM,WEST SUSSEX,,,RH12 1NZ,1,46120,315,315,389,389,0,0,0,0.158831225
1100000953,9999999999,ARE,,1 GORSE ROAD,REYDON,SOUTHWOLD,,,IP18 6NQ,1,46130,316,316,299,299,0,0,0,0.450056038
1100000954,9999999999,RR,,1 GRANVILLE AVENUE,LONG EATON,NOTTINGHAM,,,NG10 4HA,1,46140,314,314,120,120,0,0,0,0.850495369
1100000955,9999999999,&WALTON,,1 GRANVILLE AVENUE,LONG EATON,NOTTINGHAM,,,NG10 4HA,1,46150,315,315,174,174,0,0,0,0.551787853
1100000956,9999999999,CFLINT,,1 GARENDON WAY,GROBY,LEICESTER,,,LE6 0YR ,1,46160,314,313,502,129,0,0,0,0.272255308
1100000957,9999999999,ITRN,,1 GRAVES FARM,ALGARKIRK,BOSTON,LINCOLNSHIRE,LINCS,PE20 2BQ,2,46170,314,313,107,107,0,0,0,0.398992843
1100000958,9999999999,BMUING/HEATING & MAINTENANCE,,1 GREEN COTTAGES,WATFORD ROAD,HARROW,MIDDLESEX,,HA1 3TS ,2,46180,313,313,103,0,0,0,103,0.766570245
1100000959,9999999999,BMUING/HEATING AND,,1 GREENEND CLOSE,SPENCERS WOOD,READING,,,RG7 1EH ,1,46190,314,314,187,0,290,0,187,0.5626785
1100000960,9999999999,ALEPL,,1 GRESHAM STREET,LONDON,,,,EC2V 7BX,3,46210,313,313,139,139,0,0,0,0.924715708
1100000961,9999999999,ESVICES LTD,,1 GREY TERRACE,RYHOPE,SUNDERLAND,,,SR2 0QT ,1,46220,315,315,334,334,0,0,0,0.595630712
1100000962,9999999999,IKCHENS LTD,,1 GREY TERRACE,SUNDERLAND,,,,SR2 0QT ,1,46230,314,314,591,591,0,0,0,0.017311161
1100000963,9999999999,NOLLIMITED,,1 GROVE LODGE COTTAGES,BINSTED,ARUNDEL,WEST SUSSEX,,BN18 0LQ,1,46342,316,316,1008,1008,0,0,0,0.1345471
1100000964,9999999999,ASI,,1 HATHERMEAD GARDEN,YEOVIL,SOMERSET,,,BA21 5BY,1,46240,314,313,136,136,0,0,0,0.462693021
1100000965,9999999999,BIHPC DESIGN LTD,,1 BALLYCREGAGH ROAD,CLOUGHMILLS,BALLYMENA,,,BT44 9LB,1,46410,313,313,102,89,0,0,0,0.656962577
1100000966,9999999999,LIVENGINEERING LTD,,1 LAWSON GARDENS,PINNER,MIDDLESEX,,,HA5 2BR ,2,46440,317,314,175,175,0,0,0,0.12512053
1100000967,9999999999,NELTD,,1 KENT ROAD WEST,MANCHESTER,,,,M14 5RF ,2,46510,315,315,189,189,0,0,0,0.625051509
1100000968,9999999999,WDAICK,,1 LAWN COTTAGES,NEWCASTLE,CRAVEN ARMS,SHROPSHIRE,,SY7 8PL ,3,46520,314,314,354,354,0,0,0,0.409302458
1100000969,9999999999,SSUEX) LTD,,1 LANSDOWNE VILLAS,GOODLEIGH ROAD,BARNSTAPLE,DEVON,,EX32 7JR,2,46620,314,314,186,186,0,0,0,0.49805042
1100000970,9999999999,FYRICS,,1 LITTLE JENKYN,HOLE LANE,BENTLEY,HAMPSHIRE,,GU10 5LU,2,46660,313,315,149,149,0,0,0,0.497983776
1100000971,9999999999,WMHOLESALE LTD,,1 FREEWATERS CLOSE,ICKLEFORD,HITCHIN,,,SG5 3TQ ,2,46711,313,313,182,182,0,0,0,0.373284744
1100000972,9999999999,SOT( CHRISTCHURCH ) LIMITED,,1 GARLING WALK,WEST BERGHOLT,COLCHESTER,,,CO6 3LG ,2,46720,314,313,197,197,0,0,0,0.081005351
1100000973,9999999999,OCSULTANCY LTD,,1 LOWER BAR,NEWPORT,,,,TF10 7BE,2,46770,315,315,168,168,0,0,0,0.022723342
1100000974,9999999999,PMLUMBING AND HEATING LTD,,1 FINWAY ROAD,HEMEL HEMPSTEAD INDUSTRIAL EST,HEMEL HEMPSTEAD,,,HP2 7PT ,1,46900,314,313,201,201,0,0,0,0.353531447
1100000975,9999999999,TBAREE LTD,,1 LENAMORE DRIVE,NEWTOWNABBEY,,,,BT37 0PQ,1,47110,315,315,146,146,0,0,0,0.591413017
1100000976,9999999999,MHUGHES,,1 KINROSS ROAD,LESLIE,FIFE,,,KY6 3NE ,1,47190,317,317,281,281,0,0,0,0.77252913
1100000977,9999999999,DTL,,1 BEARDS TERRACE,COGGESHALL,COLCHESTER,,,CO6 1TB ,1,47220,314,313,357,357,0,0,0,0.979210806
1100000978,9999999999,ESSX LTD,,1 LUMLEY STREET,LONDON,,,,W1K 6TT ,2,47240,317,317,212,212,0,0,0,0.709787282
1100000979,9999999999,NWEATHERHEAD & J A KING,,1 HILLTOP,TILLINGTON,PETWORTH,,,GU28 9AQ,1,47300,320,320,216,216,0,0,0,0.663031127
1100000980,9999999999,IDLNG & STEEL FABRIC,,1 LUMLEY STREET,MAYFAIR,LONDON,,,W1K 6TT ,2,47410,315,315,168,168,0,0,0,0.862725814
1100000981,9999999999,EMWOODHOUSE,,1 FIELD COTTAGES,FIELD LANE,HENSALL,GOOLE NORTH HUMBERSIDE,,DN14 0RB,7,47421,316,315,477,477,0,0,0,0.959273301
1100000982,9999999999,SUDTRIAL (UK) LTD,,1 LITTLE JENKYN,HOLE LANE,BENTLEY,HAMPSHIRE,,GU10 5LU,7,47429,317,316,278,278,0,0,0,0.098333645
1100000983,9999999999,PMLUMBING AND HEATING,,1 FINWAY ROAD,HEMEL HEMPSTEAD,HERTFORDSHIRE,,,HP2 7PT ,2,47429,314,313,121,121,0,0,0,0.232323258
1100000984,9999999999,IDLNG & STEEL FABRICATION,,1 MAIN ROAD,HANWOOD,SHREWSBURY,SHROPSHIRE,,SY5 8LY ,1,47610,317,318,439,439,0,0,0,0.128274014
1100000985,9999999999,IMCHIATI,,1 HIGH LODGE,COVENTRY ROAD,COLESHILL,NORTH WARWICKSHIRE,,B46 3FE ,1,47620,319,319,405,405,0,0,0,0.946920987
1100000986,9999999999,ATHLTD,,1 HILLVIEW COTTAGES,STRATFORD BRIDGE RIPPLE,TEWKESBURY,GLOUCESTERSHIRE,,GL20 6HE,1,47720,314,314,155,155,0,0,0,0.146191051
1100000987,9999999999,KEATHER,,1 INMAN ROAD,NORWICH,,,,NR7 8JT ,1,47722,314,314,159,159,0,0,0,0.975327026
1100000988,9999999999,EWSLL LIMITED,,1 KELSO PLACE,UPPER BRISTOL ROAD,BATH,,,BA1 3AU ,1,47740,316,316,298,298,0,0,0,0.051634884
1100000989,9999999999,SUILTD,,1 JINGLERS COURT,BANBRIDGE,,,,BT32 3YJ,1,47749,318,319,312,312,0,0,0,0.827046941
1100000990,9999999999,LPMBING & HEATING LTD,,1 JINGLERS COURT,BANBRIDGE,CO DOWN,,,BT32 3YJ,1,47781,317,349,326,326,0,0,0,0.303490219
1100000991,9999999999,ER,,1 GLYNDE PLACE,HORSHAM,,,,RH12 1NZ,1,47782,316,315,219,89,0,0,0,0.800011025
1100000992,9999999999,CD,,1 BARN CLOSE,QUARNDON,DERBY,,,DE22 5JE,1,47789,314,313,166,166,0,0,0,0.089599508
1100000993,9999999999,LMOORLAND,,1 HOSKINS PLACE,WATCHETTS ROAD,CAMBERLEY,SURREY,,GU15 2PB,1,47820,317,317,382,382,0,0,0,0.807758158
1100000994,9999999999,ELIR MAINTENANCE LIMITED,,1 JUNO WAY,SWINDON,,,,SN5 8ZD ,2,47990,314,314,406,406,0,0,0,0.107312881
1100000995,9999999999,ILINGS PARTITIONS LTD,,1 HUNT LANE,DONCASTER,,,,DN5 9SF ,7,45112,314,314,158,158,0,0,0,0.739459492
1100000996,9999999999,6LEVOPMENTS LTD,,1 BORLASES COTTAGES,MILLEY ROAD,WALTHAM ST LAWRENCE,READING,,RG10 0JY,1,45320,318,318,471,471,0,0,0,0.161415279
1100000997,9999999999,7DT,,1 BORLASES COTTAGES,MILLEY ROAD,WALTHAM ST LAWRENCE,READING,,RG10 0JY,1,45400,317,313,2252,2252,0,0,0,0.129880069
1100000998,9999999999,DOBLX LTD,,1 BOXLEY GARDENS,BOXLEY ROAD,PENENDEN HEATH,MAIDSTONE,,ME14 2BD,1,45190,313,313,494,494,0,0,0,0.427333518
1100000999,9999999999,DOBLX LTD,,1 BRAESIDE,NAPHILL,HIGH WYCOMBE,BUCKS,,HP14 4RY,1,46150,322,322,416,416,0,0,0,0.301630631
1100001000,9999999999,VMIESRL LTD,,1 BRITTEN CLOSE,LANGDON HILLS,BASILDON,,,SS16 6TB,1,46190,314,314,8381,8381,0,0,0,0.826526548
1100001001,9999999999,4EITS SERVICES LIMITED,,1 BRITTEN CLOSE,LANGDON HILLS,BASILDON,ESSEX,,SS16 6TB,1,46310,321,326,30372,30372,0,0,0,0.971444374
1100001002,9999999999,CGOUGH,,1 FULLBROOK CLOSE,WOKINGHAM,BERKS,,,RG41 1QZ,1,46342,317,317,352,352,0,0,0,0.803265418
1100001003,9999999999,KOLMES,,1 HILL STREET,EDINBURGH,,,,EH2 3JP ,1,46410,314,314,215,215,0,0,0,0.228996407
1100001004,9999999999,4EITS SERVICES LTD,,1 BROOK COURT,BLAKENEY ROAD,BECKENHAM,KENT,,BR3 1HG ,1,46470,1121,1121,4668,4668,0,0,0,0.405934029
1100001005,9999999999,AFTARMER CONTRACTOR,,1 HILL COTTAGE,MUNDHAM HILL,MUNDHAM,NORWICH NORFOLK,,NR14 6EJ,1,47110,716,718,1513,1513,0,0,0,0.878807002
1100001006,9999999999,NELIMITED,,1 KENSWORTH GATE,200-204 HIGH STREET SOUTH,DUNSTABLE,BEDS,,LU6 3HS ,2,47230,1266,1266,19021,19021,0,0,0,0.977672565
1100001007,9999999999,OJNSON,,1 KEYTES LANE,BARFORD,WARWICKSHIRE,,,CV35 8EP,2,47290,1316,1316,27695,27695,0,0,0,0.005645775
1100001008,9999999999,BOX CEREAL LTD INCL VAT GROUP,,(ROAD HAULAGE CONTRS) LTD,BOW BRIDGE,WATERINGBURY,MAIDSTONE,KENT,ME18 5ED,1,47599,14413,14680,27367170,0,27367170,27367170,0,0.559783341
